"Date/Time","Year","Month","Day","Time","Data Quality","Temp","Temp Flag","Dew Point Temp (°C)","Dew Point Temp Flag","Rel Hum (%)","Rel Hum Flag","Wind Dir (10s deg)","Wind Dir Flag","Wind Spd (km/h)","Wind Spd Flag","Visibility (km)","Visibility Flag","Stn Press (kPa)","Stn Press Flag","Hmdx","Hmdx Flag","Wind Chill","Wind Chill Flag","Weather"
"2012-08-01 00:00","2012","08","01","00:00"," ","24.0","","19.2","","75","","23","","15","","24.1","","97.81","","31","","","","Mainly Clear"
"2012-08-01 01:00","2012","08","01","01:00"," ","22.3","","19.0","","82","","27","","11","","24.1","","97.87","","29","","","","Mainly Clear"
"2012-08-01 02:00","2012","08","01","02:00"," ","22.0","","18.8","","82","","30","","19","","24.1","","97.88","","29","","","","Clear"
"2012-08-01 03:00","2012","08","01","03:00"," ","19.9","","18.2","","90","","29","","13","","24.1","","97.92","","","","","","Clear"
"2012-08-01 04:00","2012","08","01","04:00"," ","18.0","","16.8","","93","","29","","13","","24.1","","97.94","","","","","","Clear"
"2012-08-01 05:00","2012","08","01","05:00"," ","17.3","","15.9","","91","","29","","13","","24.1","","97.97","","","","","","Mainly Clear"
"2012-08-01 06:00","2012","08","01","06:00"," ","18.9","","17.3","","90","","28","","17","","24.1","","97.98","","","","","","Mostly Cloudy"
"2012-08-01 07:00","2012","08","01","07:00"," ","20.5","","18.0","","86","","28","","20","","24.1","","97.98","","27","","","","Mainly Clear"
"2012-08-01 08:00","2012","08","01","08:00"," ","21.6","","18.4","","82","","28","","22","","24.1","","98.00","","28","","","","Mostly Cloudy"
"2012-08-01 09:00","2012","08","01","09:00"," ","22.8","","18.0","","74","","34","","35","","24.1","","98.09","","29","","","","Mostly Cloudy"
"2012-08-01 10:00","2012","08","01","10:00"," ","22.5","","17.7","","74","","34","","28","","24.1","","98.14","","28","","","","Mostly Cloudy"
"2012-08-01 11:00","2012","08","01","11:00"," ","24.2","","18.0","","68","","33","","20","","24.1","","98.12","","30","","","","Mostly Cloudy"
"2012-08-01 12:00","2012","08","01","12:00"," ","27.0","","17.8","","57","","34","","20","","24.1","","98.16","","33","","","","Mostly Cloudy"
"2012-08-01 13:00","2012","08","01","13:00"," ","27.5","","17.5","","54","","32","","24","","24.1","","98.19","","33","","","","Cloudy"
"2012-08-01 14:00","2012","08","01","14:00"," ","26.4","","16.3","","54","","32","","22","","24.1","","98.20","","31","","","","Cloudy"
"2012-08-01 15:00","2012","08","01","15:00"," ","26.2","","17.7","","60","","32","","9","","24.1","","98.21","","32","","","","Cloudy"
"2012-08-01 16:00","2012","08","01","16:00"," ","26.6","","16.4","","54","","31","","11","","24.1","","98.12","","31","","","","Cloudy"
"2012-08-01 17:00","2012","08","01","17:00"," ","27.5","","14.3","","44","","34","","19","","24.1","","98.06","","31","","","","Cloudy"
"2012-08-01 18:00","2012","08","01","18:00"," ","24.9","","15.9","","57","","30","","7","","24.1","","98.04","","29","","","","Cloudy"
"2012-08-01 19:00","2012","08","01","19:00"," ","16.6","","16.1","","97","","36","","22","","16.1","","98.22","","","","","","Thunderstorms,Rain Showers"
"2012-08-01 20:00","2012","08","01","20:00"," ","17.3","","16.9","","97","","3","","11","","24.1","","98.17","","","","","","Mostly Cloudy"
"2012-08-01 21:00","2012","08","01","21:00"," ","16.4","","16.4","","100","","31","","7","","24.1","","98.22","","","","","","Mostly Cloudy"
"2012-08-01 22:00","2012","08","01","22:00"," ","16.0","","16.0","","100","","25","","13","","24.1","","98.23","","","","","","Mainly Clear"
"2012-08-01 23:00","2012","08","01","23:00"," ","15.0","","15.0","","100","","27","","9","","24.1","","98.25","","","","","","Mainly Clear"
"2012-08-02 00:00","2012","08","02","00:00"," ","14.9","","14.9","","100","","34","","9","","24.1","","98.30","","","","","","Mainly Clear"
"2012-08-02 01:00","2012","08","02","01:00"," ","13.5","","13.5","","100","","27","","7","","24.1","","98.29","","","","","","Mainly Clear"
"2012-08-02 02:00","2012","08","02","02:00"," ","13.7","","13.7","","100","","27","","7","","24.1","","98.29","","","","","","Mainly Clear"
"2012-08-02 03:00","2012","08","02","03:00"," ","13.8","","13.8","","100","","26","","7","","24.1","","98.31","","","","","","Mainly Clear"
"2012-08-02 04:00","2012","08","02","04:00"," ","13.5","","13.5","","100","","27","","11","","24.1","","98.34","","","","","","Mainly Clear"
"2012-08-02 05:00","2012","08","02","05:00"," ","12.5","","12.5","","100","","29","","9","","16.1","","98.35","","","","","","Mainly Clear"
"2012-08-02 06:00","2012","08","02","06:00"," ","13.8","","13.8","","100","","28","","7","","16.1","","98.38","","","","","","Mainly Clear"
"2012-08-02 07:00","2012","08","02","07:00"," ","16.0","","16.0","","100","","29","","9","","1.6","","98.40","","","","","","Fog"
"2012-08-02 08:00","2012","08","02","08:00"," ","16.6","","16.6","","100","","31","","9","","8.0","","98.43","","","","","","Fog"
"2012-08-02 09:00","2012","08","02","09:00"," ","19.4","","18.1","","92","","30","","11","","24.1","","98.44","","","","","","Mostly Cloudy"
"2012-08-02 10:00","2012","08","02","10:00"," ","20.1","","16.9","","82","","32","","9","","24.1","","98.44","","25","","","","Mostly Cloudy"
"2012-08-02 11:00","2012","08","02","11:00"," ","21.1","","15.7","","71","","31","","6","","24.1","","98.42","","26","","","","Mostly Cloudy"
"2012-08-02 12:00","2012","08","02","12:00"," ","22.8","","16.0","","65","","34","","7","","24.1","","98.40","","27","","","","Mostly Cloudy"
"2012-08-02 13:00","2012","08","02","13:00"," ","23.8","","15.6","","60","","32","","9","","24.1","","98.37","","28","","","","Mostly Cloudy"
"2012-08-02 14:00","2012","08","02","14:00"," ","23.7","","15.5","","60","","2","","6","","24.1","","98.36","","28","","","","Mostly Cloudy"
"2012-08-02 15:00","2012","08","02","15:00"," ","25.2","","15.3","","54","","34","","4","","24.1","","98.35","","29","","","","Mostly Cloudy"
"2012-08-02 16:00","2012","08","02","16:00"," ","24.4","","15.8","","59","","3","","6","","24.1","","98.31","","29","","","","Mostly Cloudy"
"2012-08-02 17:00","2012","08","02","17:00"," ","24.5","","15.1","","56","","2","","6","","24.1","","98.30","","29","","","","Mostly Cloudy"
"2012-08-02 18:00","2012","08","02","18:00"," ","24.6","","15.2","","56","","1","","6","","24.1","","98.26","","29","","","","Mostly Cloudy"
"2012-08-02 19:00","2012","08","02","19:00"," ","24.1","","15.3","","58","","7","","7","","24.1","","98.23","","28","","","","Mostly Cloudy"
"2012-08-02 20:00","2012","08","02","20:00"," ","21.2","","16.0","","72","","8","","9","","24.1","","98.26","","26","","","","Mainly Clear"
"2012-08-02 21:00","2012","08","02","21:00"," ","20.8","","15.5","","72","","9","","17","","24.1","","98.31","","25","","","","Mainly Clear"
"2012-08-02 22:00","2012","08","02","22:00"," ","20.1","","14.8","","72","","9","","19","","24.1","","98.27","","","","","","Mainly Clear"
"2012-08-02 23:00","2012","08","02","23:00"," ","18.2","","14.5","","79","","11","","11","","24.1","","98.29","","","","","","Mainly Clear"
"2012-08-03 00:00","2012","08","03","00:00"," ","17.8","","14.2","","79","","13","","9","","24.1","","98.29","","","","","","Mainly Clear"
"2012-08-03 01:00","2012","08","03","01:00"," ","18.6","","14.3","","76","","12","","13","","24.1","","98.27","","","","","","Mainly Clear"
"2012-08-03 02:00","2012","08","03","02:00"," ","18.1","","13.8","","76","","12","","17","","24.1","","98.21","","","","","","Mainly Clear"
"2012-08-03 03:00","2012","08","03","03:00"," ","18.1","","14.0","","77","","13","","17","","24.1","","98.19","","","","","","Mainly Clear"
"2012-08-03 04:00","2012","08","03","04:00"," ","17.5","","13.8","","79","","13","","13","","24.1","","98.18","","","","","","Mainly Clear"
"2012-08-03 05:00","2012","08","03","05:00"," ","16.9","","13.8","","82","","14","","11","","24.1","","98.13","","","","","","Mainly Clear"
"2012-08-03 06:00","2012","08","03","06:00"," ","18.2","","14.3","","78","","13","","11","","24.1","","98.09","","","","","","Mostly Cloudy"
"2012-08-03 07:00","2012","08","03","07:00"," ","19.6","","14.8","","74","","15","","17","","24.1","","98.08","","","","","","Mostly Cloudy"
"2012-08-03 08:00","2012","08","03","08:00"," ","20.6","","15.4","","72","","18","","20","","24.1","","98.04","","25","","","","Cloudy"
"2012-08-03 09:00","2012","08","03","09:00"," ","20.9","","16.4","","75","","17","","17","","24.1","","98.04","","26","","","","Mostly Cloudy"
"2012-08-03 10:00","2012","08","03","10:00"," ","","","","","","","","","","","","","","","","","","",""
"2012-08-03 11:00","2012","08","03","11:00"," ","23.8","","17.0","","66","","19","","28","","24.1","","97.99","","29","","","","Cloudy"
"2012-08-03 12:00","2012","08","03","12:00"," ","24.3","","17.2","","65","","19","","22","","24.1","","97.95","","30","","","","Cloudy"
"2012-08-03 13:00","2012","08","03","13:00"," ","24.9","","17.6","","64","","18","","20","","24.1","","97.89","","31","","","","Cloudy"
"2012-08-03 14:00","2012","08","03","14:00"," ","26.3","","18.6","","63","","21","","19","","24.1","","97.86","","33","","","","Cloudy"
"2012-08-03 15:00","2012","08","03","15:00"," ","24.9","","18.7","","68","","21","","13","","24.1","","97.80","","31","","","","Rain Showers"
"2012-08-03 16:00","2012","08","03","16:00"," ","24.0","","19.1","","74","","26","","7","","24.1","","97.77","","31","","","","Cloudy"
"2012-08-03 17:00","2012","08","03","17:00"," ","21.8","","20.2","","91","","25","","9","","24.1","","97.78","","30","","","","Thunderstorms,Rain Showers"
"2012-08-03 18:00","2012","08","03","18:00"," ","21.1","","20.4","","96","","30","","15","","16.1","","97.74","","29","","","","Thunderstorms,Rain Showers"
"2012-08-03 19:00","2012","08","03","19:00"," ","18.6","","18.2","","98","","32","","17","","24.1","","97.63","","","","","","Cloudy"
"2012-08-03 20:00","2012","08","03","20:00"," ","18.5","","17.8","","96","","4","","9","","24.1","","97.64","","","","","","Cloudy"
"2012-08-03 21:00","2012","08","03","21:00"," ","18.1","","17.6","","97","","30","","15","","24.1","","97.74","","","","","","Cloudy"
"2012-08-03 22:00","2012","08","03","22:00"," ","17.7","","17.2","","97","","28","","13","","24.1","","97.70","","","","","","Mostly Cloudy"
"2012-08-03 23:00","2012","08","03","23:00"," ","17.2","","16.8","","97","","26","","13","","24.1","","97.65","","","","","","Mostly Cloudy"
"2012-08-04 00:00","2012","08","04","00:00"," ","16.8","","16.3","","97","","25","","17","","24.1","","97.66","","","","","","Mostly Cloudy"
"2012-08-04 01:00","2012","08","04","01:00"," ","16.3","","15.7","","96","","25","","20","","24.1","","97.65","","","","","","Mostly Cloudy"
"2012-08-04 02:00","2012","08","04","02:00"," ","15.3","","15.0","","98","","25","","13","","24.1","","97.57","","","","","","Mainly Clear"
"2012-08-04 03:00","2012","08","04","03:00"," ","15.3","","15.0","","98","","25","","15","","24.1","","97.55","","","","","","Mostly Cloudy"
"2012-08-04 04:00","2012","08","04","04:00"," ","14.9","","14.5","","97","","24","","13","","24.1","","97.57","","","","","","Mainly Clear"
"2012-08-04 05:00","2012","08","04","05:00"," ","14.7","","14.3","","97","","26","","13","","24.1","","97.53","","","","","","Mostly Cloudy"
"2012-08-04 06:00","2012","08","04","06:00"," ","15.3","","14.8","","97","","25","","13","","19.3","","97.53","","","","","","Mostly Cloudy"
"2012-08-04 07:00","2012","08","04","07:00"," ","15.6","","15.0","","96","","27","","13","","19.3","","97.55","","","","","","Cloudy"
"2012-08-04 08:00","2012","08","04","08:00"," ","15.7","","15.7","","100","","31","","7","","4.8","","97.52","","","","","","Rain Showers,Fog"
"2012-08-04 09:00","2012","08","04","09:00"," ","14.6","","14.6","","100","","34","","22","","1.6","","97.59","","","","","","Heavy Rain Showers,Fog"
"2012-08-04 10:00","2012","08","04","10:00"," ","14.2","","14.1","","99","","35","","32","","4.8","","97.74","","","","","","Moderate Rain Showers,Fog"
"2012-08-04 11:00","2012","08","04","11:00"," ","13.6","","13.6","","100","","34","","28","","4.8","","97.92","","","","","","Moderate Rain Showers,Fog"
"2012-08-04 12:00","2012","08","04","12:00"," ","14.1","","14.1","","100","","35","","28","","19.3","","98.02","","","","","","Cloudy"
"2012-08-04 13:00","2012","08","04","13:00"," ","15.5","","15.3","","99","","36","","30","","24.1","","98.14","","","","","","Cloudy"
"2012-08-04 14:00","2012","08","04","14:00"," ","17.3","","16.7","","96","","36","","35","","24.1","","98.26","","","","","","Mostly Cloudy"
"2012-08-04 15:00","2012","08","04","15:00"," ","19.9","","19.0","","95","","36","","30","","24.1","","98.34","","","","","","Mainly Clear"
"2012-08-04 16:00","2012","08","04","16:00"," ","20.0","","12.7","","63","","1","","22","","24.1","","98.42","","","","","","Mostly Cloudy"
"2012-08-04 17:00","2012","08","04","17:00"," ","18.6","","8.2","","51","","36","","30","","24.1","","98.52","","","","","","Mostly Cloudy"
"2012-08-04 18:00","2012","08","04","18:00"," ","19.2","","9.3","","53","","35","","30","","24.1","","98.59","","","","","","Mainly Clear"
"2012-08-04 19:00","2012","08","04","19:00"," ","17.7","","9.1","","57","","34","","17","","24.1","","98.65","","","","","","Mainly Clear"
"2012-08-04 20:00","2012","08","04","20:00"," ","14.1","","8.8","","70","","34","","9","","24.1","","98.68","","","","","","Clear"
"2012-08-04 21:00","2012","08","04","21:00"," ","10.8","","5.0","","67","","30","","11","","24.1","","98.75","","","","","","Clear"
"2012-08-04 22:00","2012","08","04","22:00"," ","10.6","","7.5","","81","","30","","9","","24.1","","98.80","","","","","","Clear"
"2012-08-04 23:00","2012","08","04","23:00"," ","10.0","","6.3","","78","","27","","13","","24.1","","98.84","","","","","","Clear"
"2012-08-05 00:00","2012","08","05","00:00"," ","9.6","","4.7","","71","","26","","11","","24.1","","98.84","","","","","","Clear"
"2012-08-05 01:00","2012","08","05","01:00"," ","10.0","","6.1","","77","","26","","13","","24.1","","98.84","","","","","","Clear"
"2012-08-05 02:00","2012","08","05","02:00"," ","10.1","","6.3","","77","","25","","13","","24.1","","98.83","","","","","","Clear"
"2012-08-05 03:00","2012","08","05","03:00"," ","10.0","","6.4","","78","","26","","11","","24.1","","98.80","","","","","","Clear"
"2012-08-05 04:00","2012","08","05","04:00"," ","9.7","","6.2","","79","","26","","15","","24.1","","98.81","","","","","","Clear"
"2012-08-05 05:00","2012","08","05","05:00"," ","10.4","","10.4","","100","","24","","13","","24.1","","98.80","","","","","","Mainly Clear"
"2012-08-05 06:00","2012","08","05","06:00"," ","10.7","","10.7","","100","","23","","11","","24.1","","98.81","","","","","","Mainly Clear"
"2012-08-05 07:00","2012","08","05","07:00"," ","13.1","","13.1","","100","","26","","17","","24.1","","98.81","","","","","","Mainly Clear"
"2012-08-05 08:00","2012","08","05","08:00"," ","16.4","","15.8","","96","","26","","19","","24.1","","98.82","","","","","","Mainly Clear"
"2012-08-05 09:00","2012","08","05","09:00"," ","","","","","","","","","","","","","","","","","","",""
"2012-08-05 10:00","2012","08","05","10:00"," ","22.2","","19.4","","84","","25","","20","","24.1","","98.77","","29","","","","Mainly Clear"
"2012-08-05 11:00","2012","08","05","11:00"," ","23.3","","19.5","","79","","24","","26","","24.1","","98.71","","30","","","","Mainly Clear"
"2012-08-05 12:00","2012","08","05","12:00"," ","24.1","","19.8","","77","","23","","24","","24.1","","98.66","","32","","","","Mainly Clear"
"2012-08-05 13:00","2012","08","05","13:00"," ","25.8","","20.2","","71","","24","","28","","24.1","","98.61","","34","","","","Mainly Clear"
"2012-08-05 14:00","2012","08","05","14:00"," ","26.9","","20.7","","69","","23","","24","","24.1","","98.55","","35","","","","Mainly Clear"
"2012-08-05 15:00","2012","08","05","15:00"," ","27.2","","20.5","","67","","24","","24","","24.1","","98.47","","35","","","","Mostly Cloudy"
"2012-08-05 16:00","2012","08","05","16:00"," ","26.5","","22.1","","77","","25","","15","","24.1","","98.46","","36","","","","Mostly Cloudy"
"2012-08-05 17:00","2012","08","05","17:00"," ","28.0","","23.2","","75","","27","","20","","24.1","","98.39","","38","","","","Mostly Cloudy"
"2012-08-05 18:00","2012","08","05","18:00"," ","28.2","","23.2","","74","","26","","19","","24.1","","98.36","","39","","","","Mostly Cloudy"
"2012-08-05 19:00","2012","08","05","19:00"," ","27.2","","22.5","","76","","24","","13","","24.1","","98.33","","37","","","","Mainly Clear"
"2012-08-05 20:00","2012","08","05","20:00"," ","23.8","","20.2","","80","","22","","11","","24.1","","98.31","","32","","","","Mainly Clear"
"2012-08-05 21:00","2012","08","05","21:00"," ","23.5","","19.5","","78","","23","","15","","24.1","","98.33","","31","","","","Mainly Clear"
"2012-08-05 22:00","2012","08","05","22:00"," ","21.2","","18.3","","84","","23","","15","","24.1","","98.35","","27","","","","Clear"
"2012-08-05 23:00","2012","08","05","23:00"," ","20.0","","17.9","","88","","23","","15","","24.1","","98.37","","26","","","","Clear"
"2012-08-06 00:00","2012","08","06","00:00"," ","19.8","","17.8","","88","","26","","15","","24.1","","98.40","","","","","","Clear"
"2012-08-06 01:00","2012","08","06","01:00"," ","18.5","","16.8","","90","","27","","11","","24.1","","98.40","","","","","","Clear"
"2012-08-06 02:00","2012","08","06","02:00"," ","19.1","","16.9","","87","","26","","19","","24.1","","98.41","","","","","","Clear"
"2012-08-06 03:00","2012","08","06","03:00"," ","18.3","","16.8","","91","","24","","13","","24.1","","98.41","","","","","","Clear"
"2012-08-06 04:00","2012","08","06","04:00"," ","17.7","","16.6","","93","","26","","15","","24.1","","98.42","","","","","","Mainly Clear"
"2012-08-06 05:00","2012","08","06","05:00"," ","17.0","","16.2","","95","","27","","9","","24.1","","98.45","","","","","","Mostly Cloudy"
"2012-08-06 06:00","2012","08","06","06:00"," ","17.5","","16.9","","96","","28","","11","","24.1","","98.46","","","","","","Mostly Cloudy"
"2012-08-06 07:00","2012","08","06","07:00"," ","20.0","","18.6","","92","","30","","15","","24.1","","98.49","","26","","","","Mainly Clear"
"2012-08-06 08:00","2012","08","06","08:00"," ","21.6","","20.1","","91","","32","","17","","24.1","","98.50","","29","","","","Mainly Clear"
"2012-08-06 09:00","2012","08","06","09:00"," ","","","","","","","","","","","","","","","","","","",""
"2012-08-06 10:00","2012","08","06","10:00"," ","26.1","","21.2","","74","","32","","20","","24.1","","98.54","","35","","","","Mainly Clear"
"2012-08-06 11:00","2012","08","06","11:00"," ","26.4","","20.4","","70","","34","","26","","24.1","","98.56","","34","","","","Mainly Clear"
"2012-08-06 12:00","2012","08","06","12:00"," ","26.5","","19.9","","67","","33","","28","","24.1","","98.56","","34","","","","Mainly Clear"
"2012-08-06 13:00","2012","08","06","13:00"," ","26.6","","7.7","","30","","32","","37","","24.1","","98.58","","27","","","","Mainly Clear"
"2012-08-06 14:00","2012","08","06","14:00"," ","26.5","","6.6","","28","","33","","33","","24.1","","98.61","","26","","","","Mainly Clear"
"2012-08-06 15:00","2012","08","06","15:00"," ","26.9","","4.7","","24","","33","","28","","24.1","","98.59","","26","","","","Mostly Cloudy"
"2012-08-06 16:00","2012","08","06","16:00"," ","26.3","","6.2","","28","","35","","28","","24.1","","98.59","","26","","","","Mostly Cloudy"
"2012-08-06 17:00","2012","08","06","17:00"," ","25.7","","9.1","","35","","35","","26","","24.1","","98.60","","27","","","","Mostly Cloudy"
"2012-08-06 18:00","2012","08","06","18:00"," ","24.4","","9.9","","40","","35","","22","","24.1","","98.64","","26","","","","Mostly Cloudy"
"2012-08-06 19:00","2012","08","06","19:00"," ","22.9","","8.7","","40","","35","","19","","24.1","","98.64","","","","","","Mainly Clear"
"2012-08-06 20:00","2012","08","06","20:00"," ","19.7","","10.2","","54","","36","","9","","24.1","","98.67","","","","","","Mainly Clear"
"2012-08-06 21:00","2012","08","06","21:00"," ","17.9","","10.6","","62","","36","","13","","24.1","","98.71","","","","","","Mainly Clear"
"2012-08-06 22:00","2012","08","06","22:00"," ","13.9","","10.5","","80","","34","","9","","24.1","","98.73","","","","","","Clear"
"2012-08-06 23:00","2012","08","06","23:00"," ","12.3","","10.7","","90","","34","","11","","24.1","","98.75","","","","","","Clear"
"2012-08-07 00:00","2012","08","07","00:00"," ","12.4","","10.4","","88","","29","","9","","24.1","","98.79","","","","","","Clear"
"2012-08-07 01:00","2012","08","07","01:00"," ","11.8","","10.5","","92","","30","","6","","24.1","","98.82","","","","","","Clear"
"2012-08-07 02:00","2012","08","07","02:00"," ","10.7","","9.9","","95","","36","","6","","24.1","","98.81","","","","","","Clear"
"2012-08-07 03:00","2012","08","07","03:00"," ","10.3","","10.0","","98","","31","","7","","24.1","","98.83","","","","","","Clear"
"2012-08-07 04:00","2012","08","07","04:00"," ","10.0","","9.7","","98","","31","","6","","24.1","","98.84","","","","","","Clear"
"2012-08-07 05:00","2012","08","07","05:00"," ","10.5","","10.4","","99","","31","","6","","24.1","","98.87","","","","","","Mainly Clear"
"2012-08-07 06:00","2012","08","07","06:00"," ","11.4","","11.4","","100","","28","","4","","24.1","","98.93","","","","","","Mainly Clear"
"2012-08-07 07:00","2012","08","07","07:00"," ","14.4","","13.2","","92","","","","0","","24.1","","99.00","","","","","","Mainly Clear"
"2012-08-07 08:00","2012","08","07","08:00"," ","18.1","","14.9","","82","","1","","7","","24.1","","99.03","","","","","","Mainly Clear"
"2012-08-07 09:00","2012","08","07","09:00"," ","20.3","","14.9","","71","","2","","6","","24.1","","99.03","","","","","","Mainly Clear"
"2012-08-07 10:00","2012","08","07","10:00"," ","21.2","","14.0","","63","","1","","7","","24.1","","99.00","","25","","","","Mostly Cloudy"
"2012-08-07 11:00","2012","08","07","11:00"," ","22.3","","14.3","","61","","3","","9","","24.1","","98.97","","26","","","","Mostly Cloudy"
"2012-08-07 12:00","2012","08","07","12:00"," ","22.9","","14.5","","59","","3","","15","","24.1","","98.93","","27","","","","Mostly Cloudy"
"2012-08-07 13:00","2012","08","07","13:00"," ","23.8","","13.8","","54","","","","0","","24.1","","98.90","","27","","","","Mostly Cloudy"
"2012-08-07 14:00","2012","08","07","14:00"," ","23.9","","12.8","","50","","36","","4","","24.1","","98.83","","27","","","","Mostly Cloudy"
"2012-08-07 15:00","2012","08","07","15:00"," ","25.5","","12.5","","44","","29","","7","","24.1","","98.77","","28","","","","Mainly Clear"
"2012-08-07 16:00","2012","08","07","16:00"," ","24.7","","12.5","","47","","2","","4","","24.1","","98.75","","27","","","","Mostly Cloudy"
"2012-08-07 17:00","2012","08","07","17:00"," ","25.3","","13.4","","48","","2","","7","","24.1","","98.73","","28","","","","Mostly Cloudy"
"2012-08-07 18:00","2012","08","07","18:00"," ","24.3","","14.6","","55","","4","","13","","24.1","","98.74","","28","","","","Mostly Cloudy"
"2012-08-07 19:00","2012","08","07","19:00"," ","22.3","","14.0","","59","","6","","11","","24.1","","98.76","","26","","","","Mostly Cloudy"
"2012-08-07 20:00","2012","08","07","20:00"," ","20.0","","13.0","","64","","9","","15","","24.1","","98.74","","","","","","Mostly Cloudy"
"2012-08-07 21:00","2012","08","07","21:00"," ","18.4","","12.4","","68","","9","","9","","24.1","","98.80","","","","","","Mostly Cloudy"
"2012-08-07 22:00","2012","08","07","22:00"," ","18.0","","11.9","","68","","9","","4","","24.1","","98.80","","","","","","Mostly Cloudy"
"2012-08-07 23:00","2012","08","07","23:00"," ","16.5","","12.3","","76","","9","","4","","24.1","","98.79","","","","","","Mainly Clear"
"2012-08-08 00:00","2012","08","08","00:00"," ","14.6","","11.7","","83","","","","0","","24.1","","98.78","","","","","","Mainly Clear"
"2012-08-08 01:00","2012","08","08","01:00"," ","13.5","","12.5","","94","","3","","6","","24.1","","98.79","","","","","","Mainly Clear"
"2012-08-08 02:00","2012","08","08","02:00"," ","13.2","","11.8","","91","","","","0","","24.1","","98.75","","","","","","Mainly Clear"
"2012-08-08 03:00","2012","08","08","03:00"," ","12.3","","11.5","","95","","","","0","","24.1","","98.74","","","","","","Clear"
"2012-08-08 04:00","2012","08","08","04:00"," ","11.4","","11.0","","97","","","","0","","24.1","","98.80","","","","","","Mainly Clear"
"2012-08-08 05:00","2012","08","08","05:00"," ","10.4","","10.2","","99","","32","","7","","24.1","","98.84","","","","","","Mainly Clear"
"2012-08-08 06:00","2012","08","08","06:00"," ","11.6","","11.2","","97","","29","","7","","24.1","","98.88","","","","","","Mainly Clear"
"2012-08-08 07:00","2012","08","08","07:00"," ","16.8","","14.0","","84","","","","0","","24.1","","98.89","","","","","","Mainly Clear"
"2012-08-08 08:00","2012","08","08","08:00"," ","20.2","","13.5","","65","","20","","4","","24.1","","98.92","","","","","","Mainly Clear"
"2012-08-08 09:00","2012","08","08","09:00"," ","22.4","","13.0","","55","","21","","9","","24.1","","98.91","","25","","","","Mainly Clear"
"2012-08-08 10:00","2012","08","08","10:00"," ","24.4","","14.4","","54","","22","","11","","24.1","","98.90","","28","","","","Mainly Clear"
"2012-08-08 11:00","2012","08","08","11:00"," ","25.4","","14.6","","51","","26","","7","","24.1","","98.88","","29","","","","Mainly Clear"
"2012-08-08 12:00","2012","08","08","12:00"," ","26.8","","15.2","","49","","23","","11","","24.1","","98.83","","31","","","","Mostly Cloudy"
"2012-08-08 13:00","2012","08","08","13:00"," ","27.5","","14.6","","45","","29","","13","","24.1","","98.79","","31","","","","Mostly Cloudy"
"2012-08-08 14:00","2012","08","08","14:00"," ","27.5","","13.5","","42","","29","","20","","24.1","","98.78","","31","","","","Mostly Cloudy"
"2012-08-08 15:00","2012","08","08","15:00"," ","27.9","","14.2","","43","","31","","30","","24.1","","98.74","","31","","","","Mainly Clear"
"2012-08-08 16:00","2012","08","08","16:00"," ","27.8","","14.3","","44","","32","","26","","24.1","","98.72","","31","","","","Mainly Clear"
"2012-08-08 17:00","2012","08","08","17:00"," ","27.1","","14.7","","47","","35","","28","","24.1","","98.78","","31","","","","Mainly Clear"
"2012-08-08 18:00","2012","08","08","18:00"," ","23.2","","13.8","","55","","4","","24","","24.1","","98.84","","26","","","","Mainly Clear"
"2012-08-08 19:00","2012","08","08","19:00"," ","21.6","","14.0","","62","","3","","15","","24.1","","98.89","","25","","","","Mainly Clear"
"2012-08-08 20:00","2012","08","08","20:00"," ","18.7","","14.5","","77","","6","","9","","24.1","","98.91","","","","","","Mainly Clear"
"2012-08-08 21:00","2012","08","08","21:00"," ","15.3","","13.4","","88","","35","","9","","24.1","","98.94","","","","","","Clear"
"2012-08-08 22:00","2012","08","08","22:00"," ","14.7","","13.8","","94","","36","","13","","24.1","","99.02","","","","","","Clear"
"2012-08-08 23:00","2012","08","08","23:00"," ","15.4","","14.5","","94","","3","","11","","24.1","","99.08","","","","","","Clear"
"2012-08-09 00:00","2012","08","09","00:00"," ","14.3","","13.3","","94","","4","","9","","24.1","","99.16","","","","","","Clear"
"2012-08-09 01:00","2012","08","09","01:00"," ","13.3","","12.7","","96","","4","","11","","24.1","","99.21","","","","","","Clear"
"2012-08-09 02:00","2012","08","09","02:00"," ","13.3","","12.8","","97","","4","","9","","24.1","","99.24","","","","","","Clear"
"2012-08-09 03:00","2012","08","09","03:00"," ","11.8","","11.8","","100","","2","","9","","24.1","","99.27","","","","","","Clear"
"2012-08-09 04:00","2012","08","09","04:00"," ","11.7","","11.7","","100","","3","","11","","24.1","","99.33","","","","","","Clear"
"2012-08-09 05:00","2012","08","09","05:00"," ","12.0","","11.6","","97","","3","","13","","24.1","","99.39","","","","","","Clear"
"2012-08-09 06:00","2012","08","09","06:00"," ","12.4","","11.6","","95","","3","","13","","24.1","","99.42","","","","","","Mainly Clear"
"2012-08-09 07:00","2012","08","09","07:00"," ","14.4","","12.8","","90","","4","","20","","24.1","","99.39","","","","","","Mainly Clear"
"2012-08-09 08:00","2012","08","09","08:00"," ","16.3","","13.2","","82","","6","","19","","24.1","","99.38","","","","","","Mainly Clear"
"2012-08-09 09:00","2012","08","09","09:00"," ","18.3","","12.9","","71","","6","","15","","24.1","","99.39","","","","","","Mainly Clear"
"2012-08-09 10:00","2012","08","09","10:00"," ","19.7","","12.8","","64","","10","","15","","24.1","","99.38","","","","","","Mostly Cloudy"
"2012-08-09 11:00","2012","08","09","11:00"," ","21.8","","12.8","","57","","8","","19","","24.1","","99.39","","","","","","Mostly Cloudy"
"2012-08-09 12:00","2012","08","09","12:00"," ","22.3","","12.3","","53","","11","","20","","24.1","","99.39","","25","","","","Mostly Cloudy"
"2012-08-09 13:00","2012","08","09","13:00"," ","23.9","","12.6","","49","","12","","24","","24.1","","99.41","","26","","","","Mostly Cloudy"
"2012-08-09 14:00","2012","08","09","14:00"," ","23.5","","11.6","","47","","10","","15","","24.1","","99.43","","26","","","","Mostly Cloudy"
"2012-08-09 15:00","2012","08","09","15:00"," ","23.8","","12.1","","48","","16","","11","","24.1","","99.36","","26","","","","Mostly Cloudy"
"2012-08-09 16:00","2012","08","09","16:00"," ","24.4","","11.7","","45","","12","","15","","24.1","","99.35","","27","","","","Mostly Cloudy"
"2012-08-09 17:00","2012","08","09","17:00"," ","24.2","","11.1","","44","","12","","11","","24.1","","99.34","","26","","","","Mostly Cloudy"
"2012-08-09 18:00","2012","08","09","18:00"," ","23.3","","11.1","","46","","9","","15","","24.1","","99.29","","25","","","","Mostly Cloudy"
"2012-08-09 19:00","2012","08","09","19:00"," ","22.2","","11.0","","49","","12","","17","","24.1","","99.29","","","","","","Mostly Cloudy"
"2012-08-09 20:00","2012","08","09","20:00"," ","19.1","","11.3","","61","","16","","11","","24.1","","99.28","","","","","","Mostly Cloudy"
"2012-08-09 21:00","2012","08","09","21:00"," ","18.4","","11.4","","64","","16","","11","","24.1","","99.28","","","","","","Mostly Cloudy"
"2012-08-09 22:00","2012","08","09","22:00"," ","18.1","","11.0","","63","","15","","15","","24.1","","99.30","","","","","","Mostly Cloudy"
"2012-08-09 23:00","2012","08","09","23:00"," ","17.7","","11.8","","68","","19","","11","","24.1","","99.36","","","","","","Cloudy"
"2012-08-10 00:00","2012","08","10","00:00"," ","15.8","","11.9","","78","","18","","7","","24.1","","99.40","","","","","","Cloudy"
"2012-08-10 01:00","2012","08","10","01:00"," ","15.1","","12.0","","82","","19","","6","","24.1","","99.40","","","","","","Cloudy"
"2012-08-10 02:00","2012","08","10","02:00"," ","14.6","","11.5","","82","","18","","11","","24.1","","99.41","","","","","","Mostly Cloudy"
"2012-08-10 03:00","2012","08","10","03:00"," ","15.0","","11.6","","80","","19","","15","","24.1","","99.39","","","","","","Mainly Clear"
"2012-08-10 04:00","2012","08","10","04:00"," ","14.0","","11.0","","82","","18","","15","","24.1","","99.38","","","","","","Mainly Clear"
"2012-08-10 05:00","2012","08","10","05:00"," ","13.2","","10.8","","85","","19","","13","","24.1","","99.39","","","","","","Mainly Clear"
"2012-08-10 06:00","2012","08","10","06:00"," ","13.4","","11.0","","85","","19","","15","","24.1","","99.41","","","","","","Mainly Clear"
"2012-08-10 07:00","2012","08","10","07:00"," ","14.9","","11.6","","81","","18","","13","","24.1","","99.42","","","","","","Mainly Clear"
"2012-08-10 08:00","2012","08","10","08:00"," ","17.6","","13.1","","75","","17","","17","","24.1","","99.37","","","","","","Mainly Clear"
"2012-08-10 09:00","2012","08","10","09:00"," ","20.1","","13.8","","67","","17","","17","","24.1","","99.32","","","","","","Clear"
"2012-08-10 10:00","2012","08","10","10:00"," ","21.5","","13.4","","60","","18","","20","","24.1","","99.29","","25","","","","Mainly Clear"
"2012-08-10 11:00","2012","08","10","11:00"," ","23.0","","13.4","","55","","21","","20","","24.1","","99.23","","26","","","","Mainly Clear"
"2012-08-10 12:00","2012","08","10","12:00"," ","23.9","","13.8","","53","","20","","22","","24.1","","99.19","","27","","","","Mainly Clear"
"2012-08-10 13:00","2012","08","10","13:00"," ","25.0","","13.7","","49","","20","","19","","24.1","","99.13","","28","","","","Mostly Cloudy"
"2012-08-10 14:00","2012","08","10","14:00"," ","25.7","","12.6","","44","","18","","26","","24.1","","99.06","","28","","","","Mostly Cloudy"
"2012-08-10 15:00","2012","08","10","15:00"," ","26.1","","12.6","","43","","20","","24","","24.1","","98.99","","29","","","","Mostly Cloudy"
"2012-08-10 16:00","2012","08","10","16:00"," ","26.3","","12.5","","42","","19","","26","","24.1","","98.95","","29","","","","Mainly Clear"
"2012-08-10 17:00","2012","08","10","17:00"," ","26.1","","12.4","","43","","20","","22","","24.1","","98.91","","29","","","","Mainly Clear"
"2012-08-10 18:00","2012","08","10","18:00"," ","25.1","","12.7","","46","","18","","20","","24.1","","98.88","","28","","","","Mainly Clear"
"2012-08-10 19:00","2012","08","10","19:00"," ","23.6","","12.5","","50","","18","","17","","24.1","","98.85","","26","","","","Mainly Clear"
"2012-08-10 20:00","2012","08","10","20:00"," ","","","","","","","","","","","","","","","","","","",""
"2012-08-10 21:00","2012","08","10","21:00"," ","21.5","","12.2","","55","","20","","22","","24.1","","98.91","","","","","","Mostly Cloudy"
"2012-08-10 22:00","2012","08","10","22:00"," ","19.8","","12.8","","64","","18","","20","","24.1","","98.85","","","","","","Mostly Cloudy"
"2012-08-10 23:00","2012","08","10","23:00"," ","19.4","","13.0","","66","","18","","22","","24.1","","98.79","","","","","","Mostly Cloudy"
"2012-08-11 00:00","2012","08","11","00:00"," ","19.4","","12.8","","66","","20","","20","","24.1","","98.77","","","","","","Mostly Cloudy"
"2012-08-11 01:00","2012","08","11","01:00"," ","19.4","","12.1","","63","","20","","24","","24.1","","98.71","","","","","","Rain Showers"
"2012-08-11 02:00","2012","08","11","02:00"," ","19.0","","12.2","","65","","21","","19","","24.1","","98.75","","","","","","Mostly Cloudy"
"2012-08-11 03:00","2012","08","11","03:00"," ","18.7","","12.6","","68","","21","","17","","24.1","","98.81","","","","","","Mostly Cloudy"
"2012-08-11 04:00","2012","08","11","04:00"," ","18.2","","12.8","","71","","20","","15","","24.1","","98.79","","","","","","Mostly Cloudy"
"2012-08-11 05:00","2012","08","11","05:00"," ","16.3","","12.8","","80","","19","","9","","24.1","","98.80","","","","","","Mostly Cloudy"
"2012-08-11 06:00","2012","08","11","06:00"," ","15.9","","13.2","","84","","18","","15","","24.1","","98.80","","","","","","Mostly Cloudy"
"2012-08-11 07:00","2012","08","11","07:00"," ","16.7","","13.1","","79","","17","","15","","24.1","","98.77","","","","","","Mostly Cloudy"
"2012-08-11 08:00","2012","08","11","08:00"," ","18.5","","13.5","","73","","17","","19","","24.1","","98.78","","","","","","Mostly Cloudy"
"2012-08-11 09:00","2012","08","11","09:00"," ","20.8","","13.8","","64","","17","","20","","24.1","","98.74","","","","","","Mostly Cloudy"
"2012-08-11 10:00","2012","08","11","10:00"," ","22.8","","14.4","","59","","16","","22","","24.1","","98.68","","26","","","","Mostly Cloudy"
"2012-08-11 11:00","2012","08","11","11:00"," ","25.1","","13.8","","49","","20","","28","","24.1","","98.63","","28","","","","Mostly Cloudy"
"2012-08-11 12:00","2012","08","11","12:00"," ","26.1","","13.8","","47","","21","","28","","24.1","","98.57","","29","","","","Mostly Cloudy"
"2012-08-11 13:00","2012","08","11","13:00"," ","25.8","","13.8","","47","","18","","26","","24.1","","98.57","","29","","","","Mostly Cloudy"
"2012-08-11 14:00","2012","08","11","14:00"," ","27.0","","13.2","","43","","19","","32","","24.1","","98.52","","30","","","","Mostly Cloudy"
"2012-08-11 15:00","2012","08","11","15:00"," ","25.8","","12.3","","43","","20","","28","","24.1","","98.51","","28","","","","Mostly Cloudy"
"2012-08-11 16:00","2012","08","11","16:00"," ","26.2","","11.9","","41","","19","","22","","24.1","","98.50","","28","","","","Mostly Cloudy"
"2012-08-11 17:00","2012","08","11","17:00"," ","24.7","","11.6","","44","","18","","19","","24.1","","98.53","","27","","","","Mostly Cloudy"
"2012-08-11 18:00","2012","08","11","18:00"," ","23.8","","11.6","","46","","19","","20","","24.1","","98.57","","26","","","","Mostly Cloudy"
"2012-08-11 19:00","2012","08","11","19:00"," ","22.7","","13.6","","56","","18","","15","","24.1","","98.58","","26","","","","Mostly Cloudy"
"2012-08-11 20:00","2012","08","11","20:00"," ","21.5","","13.6","","61","","19","","19","","24.1","","98.60","","25","","","","Mostly Cloudy"
"2012-08-11 21:00","2012","08","11","21:00"," ","20.8","","13.4","","63","","19","","15","","24.1","","98.62","","","","","","Mostly Cloudy"
"2012-08-11 22:00","2012","08","11","22:00"," ","19.5","","13.2","","67","","18","","15","","24.1","","98.58","","","","","","Mostly Cloudy"
"2012-08-11 23:00","2012","08","11","23:00"," ","19.2","","13.4","","69","","19","","17","","24.1","","98.58","","","","","","Mostly Cloudy"
"2012-08-12 00:00","2012","08","12","00:00"," ","18.8","","14.2","","75","","20","","15","","24.1","","98.57","","","","","","Mostly Cloudy"
"2012-08-12 01:00","2012","08","12","01:00"," ","18.4","","14.7","","79","","21","","13","","24.1","","98.56","","","","","","Cloudy"
"2012-08-12 02:00","2012","08","12","02:00"," ","17.7","","14.9","","84","","24","","7","","24.1","","98.57","","","","","","Cloudy"
"2012-08-12 03:00","2012","08","12","03:00"," ","16.9","","14.9","","88","","23","","7","","24.1","","98.58","","","","","","Cloudy"
"2012-08-12 04:00","2012","08","12","04:00"," ","17.1","","15.4","","90","","25","","7","","24.1","","98.56","","","","","","Cloudy"
"2012-08-12 05:00","2012","08","12","05:00"," ","17.0","","15.7","","92","","24","","6","","24.1","","98.57","","","","","","Cloudy"
"2012-08-12 06:00","2012","08","12","06:00"," ","17.8","","16.8","","94","","27","","7","","24.1","","98.60","","","","","","Cloudy"
"2012-08-12 07:00","2012","08","12","07:00"," ","18.0","","17.6","","98","","24","","9","","19.3","","98.61","","","","","","Rain"
"2012-08-12 08:00","2012","08","12","08:00"," ","18.4","","17.9","","97","","24","","11","","19.3","","98.61","","","","","","Rain"
"2012-08-12 09:00","2012","08","12","09:00"," ","18.8","","18.0","","95","","24","","15","","19.3","","98.60","","","","","","Rain"
"2012-08-12 10:00","2012","08","12","10:00"," ","18.4","","18.3","","99","","24","","11","","9.7","","98.58","","","","","","Rain"
"2012-08-12 11:00","2012","08","12","11:00"," ","19.3","","18.9","","98","","25","","11","","9.7","","98.57","","","","","","Rain"
"2012-08-12 12:00","2012","08","12","12:00"," ","19.5","","18.6","","95","","27","","22","","19.3","","98.56","","","","","","Cloudy"
"2012-08-12 13:00","2012","08","12","13:00"," ","20.0","","19.2","","95","","24","","9","","9.7","","98.54","","27","","","","Rain Showers,Fog"
"2012-08-12 14:00","2012","08","12","14:00"," ","21.0","","19.5","","91","","26","","11","","12.9","","98.50","","28","","","","Mostly Cloudy"
"2012-08-12 15:00","2012","08","12","15:00"," ","23.0","","18.1","","74","","35","","7","","24.1","","98.48","","29","","","","Mostly Cloudy"
"2012-08-12 16:00","2012","08","12","16:00"," ","24.3","","15.9","","59","","36","","22","","24.1","","98.48","","29","","","","Mainly Clear"
"2012-08-12 17:00","2012","08","12","17:00"," ","23.6","","15.1","","59","","32","","22","","24.1","","98.50","","28","","","","Mostly Cloudy"
"2012-08-12 18:00","2012","08","12","18:00"," ","22.6","","12.8","","54","","33","","24","","24.1","","98.57","","25","","","","Mostly Cloudy"
"2012-08-12 19:00","2012","08","12","19:00"," ","21.7","","10.8","","50","","34","","28","","24.1","","98.61","","","","","","Mainly Clear"
"2012-08-12 20:00","2012","08","12","20:00"," ","17.5","","10.4","","63","","31","","11","","24.1","","98.67","","","","","","Mainly Clear"
"2012-08-12 21:00","2012","08","12","21:00"," ","14.4","","10.2","","76","","32","","11","","24.1","","98.75","","","","","","Mainly Clear"
"2012-08-12 22:00","2012","08","12","22:00"," ","11.4","","9.6","","89","","30","","9","","24.1","","98.78","","","","","","Mainly Clear"
"2012-08-12 23:00","2012","08","12","23:00"," ","11.1","","9.7","","91","","29","","9","","24.1","","98.77","","","","","","Clear"
"2012-08-13 00:00","2012","08","13","00:00"," ","10.0","","9.3","","95","","31","","4","","24.1","","98.79","","","","","","Clear"
"2012-08-13 01:00","2012","08","13","01:00"," ","10.1","","8.9","","92","","29","","11","","24.1","","98.79","","","","","","Clear"
"2012-08-13 02:00","2012","08","13","02:00"," ","10.0","","9.2","","95","","28","","11","","24.1","","98.81","","","","","","Mainly Clear"
"2012-08-13 03:00","2012","08","13","03:00"," ","10.4","","9.6","","95","","28","","13","","24.1","","98.83","","","","","","Mainly Clear"
"2012-08-13 04:00","2012","08","13","04:00"," ","9.4","","9.1","","98","","29","","11","","24.1","","98.84","","","","","","Mainly Clear"
"2012-08-13 05:00","2012","08","13","05:00"," ","9.2","","8.9","","98","","28","","11","","24.1","","98.88","","","","","","Mainly Clear"
"2012-08-13 06:00","2012","08","13","06:00"," ","9.7","","9.2","","97","","29","","7","","24.1","","98.93","","","","","","Mainly Clear"
"2012-08-13 07:00","2012","08","13","07:00"," ","13.5","","12.3","","92","","29","","6","","24.1","","98.95","","","","","","Clear"
"2012-08-13 08:00","2012","08","13","08:00"," ","16.9","","13.6","","81","","30","","9","","24.1","","98.96","","","","","","Clear"
"2012-08-13 09:00","2012","08","13","09:00"," ","19.7","","13.6","","68","","34","","13","","24.1","","98.95","","","","","","Clear"
"2012-08-13 10:00","2012","08","13","10:00"," ","21.4","","12.8","","58","","29","","17","","24.1","","98.94","","","","","","Mainly Clear"
"2012-08-13 11:00","2012","08","13","11:00"," ","21.8","","12.0","","54","","34","","11","","24.1","","98.91","","","","","","Mainly Clear"
"2012-08-13 12:00","2012","08","13","12:00"," ","22.5","","10.3","","46","","33","","15","","24.1","","98.86","","","","","","Mainly Clear"
"2012-08-13 13:00","2012","08","13","13:00"," ","23.2","","11.4","","47","","29","","19","","24.1","","98.82","","25","","","","Mostly Cloudy"
"2012-08-13 14:00","2012","08","13","14:00"," ","23.6","","11.2","","46","","33","","24","","24.1","","98.82","","25","","","","Mostly Cloudy"
"2012-08-13 15:00","2012","08","13","15:00"," ","23.6","","11.0","","45","","33","","17","","24.1","","98.79","","25","","","","Mostly Cloudy"
"2012-08-13 16:00","2012","08","13","16:00"," ","22.2","","11.8","","52","","36","","19","","24.1","","98.77","","","","","","Mostly Cloudy"
"2012-08-13 17:00","2012","08","13","17:00"," ","22.8","","12.0","","51","","34","","19","","24.1","","98.76","","25","","","","Mostly Cloudy"
"2012-08-13 18:00","2012","08","13","18:00"," ","22.1","","10.3","","47","","36","","15","","24.1","","98.74","","","","","","Mainly Clear"
"2012-08-13 19:00","2012","08","13","19:00"," ","21.0","","12.1","","57","","34","","13","","24.1","","98.74","","","","","","Mainly Clear"
"2012-08-13 20:00","2012","08","13","20:00"," ","17.5","","13.6","","78","","4","","9","","24.1","","98.76","","","","","","Mainly Clear"
"2012-08-13 21:00","2012","08","13","21:00"," ","14.6","","12.1","","85","","4","","6","","24.1","","98.77","","","","","","Clear"
"2012-08-13 22:00","2012","08","13","22:00"," ","14.9","","13.4","","91","","5","","9","","24.1","","98.77","","","","","","Clear"
"2012-08-13 23:00","2012","08","13","23:00"," ","13.0","","12.6","","97","","","","0","","24.1","","98.77","","","","","","Clear"
"2012-08-14 00:00","2012","08","14","00:00"," ","12.4","","12.1","","98","","","","0","","24.1","","98.76","","","","","","Clear"
"2012-08-14 01:00","2012","08","14","01:00"," ","10.7","","10.7","","100","","1","","4","","24.1","","98.74","","","","","","Clear"
"2012-08-14 02:00","2012","08","14","02:00"," ","11.3","","11.3","","100","","","","0","","24.1","","98.74","","","","","","Clear"
"2012-08-14 03:00","2012","08","14","03:00"," ","9.2","","9.2","","100","","","","0","","24.1","","98.73","","","","","","Mainly Clear"
"2012-08-14 04:00","2012","08","14","04:00"," ","9.6","","9.6","","100","","8","","4","","24.1","","98.69","","","","","","Mainly Clear"
"2012-08-14 05:00","2012","08","14","05:00"," ","9.7","","9.7","","100","","7","","4","","24.1","","98.65","","","","","","Mostly Cloudy"
"2012-08-14 06:00","2012","08","14","06:00"," ","12.0","","12.0","","100","","12","","4","","24.1","","98.65","","","","","","Mostly Cloudy"
"2012-08-14 07:00","2012","08","14","07:00"," ","13.9","","13.4","","97","","","","0","","24.1","","98.68","","","","","","Mostly Cloudy"
"2012-08-14 08:00","2012","08","14","08:00"," ","15.8","","14.3","","91","","","","0","","24.1","","98.65","","","","","","Cloudy"
"2012-08-14 09:00","2012","08","14","09:00"," ","18.4","","14.0","","76","","13","","9","","24.1","","98.62","","","","","","Mostly Cloudy"
"2012-08-14 10:00","2012","08","14","10:00"," ","19.7","","13.1","","66","","15","","7","","24.1","","98.60","","","","","","Mostly Cloudy"
"2012-08-14 11:00","2012","08","14","11:00"," ","21.4","","12.9","","58","","10","","9","","24.1","","98.53","","","","","","Mainly Clear"
"2012-08-14 12:00","2012","08","14","12:00"," ","22.6","","11.9","","51","","16","","9","","24.1","","98.46","","25","","","","Mainly Clear"
"2012-08-14 13:00","2012","08","14","13:00"," ","23.6","","11.5","","47","","16","","11","","24.1","","98.39","","26","","","","Mostly Cloudy"
"2012-08-14 14:00","2012","08","14","14:00"," ","24.3","","10.8","","43","","15","","15","","24.1","","98.32","","26","","","","Mostly Cloudy"
"2012-08-14 15:00","2012","08","14","15:00"," ","24.7","","11.2","","43","","18","","15","","24.1","","98.23","","27","","","","Mostly Cloudy"
"2012-08-14 16:00","2012","08","14","16:00"," ","25.6","","11.1","","40","","18","","19","","24.1","","98.19","","27","","","","Mostly Cloudy"
"2012-08-14 17:00","2012","08","14","17:00"," ","25.1","","10.5","","40","","16","","11","","24.1","","98.13","","27","","","","Mostly Cloudy"
"2012-08-14 18:00","2012","08","14","18:00"," ","23.8","","11.0","","45","","17","","13","","24.1","","98.08","","26","","","","Mostly Cloudy"
"2012-08-14 19:00","2012","08","14","19:00"," ","22.6","","11.1","","48","","14","","17","","24.1","","98.04","","","","","","Mostly Cloudy"
"2012-08-14 20:00","2012","08","14","20:00"," ","19.6","","10.9","","57","","15","","15","","24.1","","98.02","","","","","","Mostly Cloudy"
"2012-08-14 21:00","2012","08","14","21:00"," ","18.4","","11.5","","64","","15","","15","","24.1","","98.01","","","","","","Mainly Clear"
"2012-08-14 22:00","2012","08","14","22:00"," ","17.5","","11.6","","68","","17","","13","","24.1","","97.97","","","","","","Mostly Cloudy"
"2012-08-14 23:00","2012","08","14","23:00"," ","19.4","","11.3","","59","","16","","13","","24.1","","97.95","","","","","","Mostly Cloudy"
"2012-08-15 00:00","2012","08","15","00:00"," ","19.5","","10.9","","58","","17","","20","","24.1","","97.90","","","","","","Mostly Cloudy"
"2012-08-15 01:00","2012","08","15","01:00"," ","18.3","","12.0","","67","","17","","19","","24.1","","97.87","","","","","","Mostly Cloudy"
"2012-08-15 02:00","2012","08","15","02:00"," ","17.8","","11.9","","68","","17","","20","","24.1","","97.79","","","","","","Mostly Cloudy"
"2012-08-15 03:00","2012","08","15","03:00"," ","17.7","","11.6","","67","","18","","22","","24.1","","97.72","","","","","","Mostly Cloudy"
"2012-08-15 04:00","2012","08","15","04:00"," ","17.7","","12.1","","70","","18","","24","","24.1","","97.65","","","","","","Mostly Cloudy"
"2012-08-15 05:00","2012","08","15","05:00"," ","18.0","","12.1","","68","","18","","26","","24.1","","97.64","","","","","","Mostly Cloudy"
"2012-08-15 06:00","2012","08","15","06:00"," ","17.3","","12.4","","73","","17","","30","","24.1","","97.46","","","","","","Rain Showers"
"2012-08-15 07:00","2012","08","15","07:00"," ","16.7","","13.1","","79","","22","","15","","24.1","","97.60","","","","","","Rain Showers"
"2012-08-15 08:00","2012","08","15","08:00"," ","15.2","","14.4","","95","","18","","19","","24.1","","97.52","","","","","","Rain Showers"
"2012-08-15 09:00","2012","08","15","09:00"," ","15.6","","14.7","","94","","15","","24","","24.1","","97.30","","","","","","Rain Showers"
"2012-08-15 10:00","2012","08","15","10:00"," ","17.0","","15.3","","90","","17","","24","","24.1","","97.30","","","","","","Cloudy"
"2012-08-15 11:00","2012","08","15","11:00"," ","18.1","","16.3","","89","","19","","22","","24.1","","97.28","","","","","","Cloudy"
"2012-08-15 12:00","2012","08","15","12:00"," ","","","","","","","","","","","","","","","","","","",""
"2012-08-15 13:00","2012","08","15","13:00"," ","19.6","","17.1","","85","","31","","22","","24.1","","97.38","","","","","","Cloudy"
"2012-08-15 14:00","2012","08","15","14:00"," ","19.9","","17.1","","84","","30","","26","","24.1","","97.43","","","","","","Cloudy"
"2012-08-15 15:00","2012","08","15","15:00"," ","19.7","","15.5","","77","","32","","30","","24.1","","97.54","","","","","","Cloudy"
"2012-08-15 16:00","2012","08","15","16:00"," ","17.4","","15.3","","87","","31","","28","","24.1","","97.65","","","","","","Rain Showers"
"2012-08-15 17:00","2012","08","15","17:00"," ","15.6","","14.8","","95","","32","","39","","9.7","","97.74","","","","","","Rain Showers,Fog"
"2012-08-15 18:00","2012","08","15","18:00"," ","14.6","","13.8","","95","","31","","33","","16.1","","97.83","","","","","","Rain Showers"
"2012-08-15 19:00","2012","08","15","19:00"," ","14.1","","13.6","","97","","31","","32","","16.1","","97.95","","","","","","Rain Showers"
"2012-08-15 20:00","2012","08","15","20:00"," ","13.5","","13.0","","97","","32","","30","","16.1","","98.03","","","","","","Rain Showers"
"2012-08-15 21:00","2012","08","15","21:00"," ","13.5","","12.7","","95","","31","","30","","19.3","","98.09","","","","","","Rain Showers"
"2012-08-15 22:00","2012","08","15","22:00"," ","13.7","","12.1","","90","","32","","24","","24.1","","98.13","","","","","","Cloudy"
"2012-08-15 23:00","2012","08","15","23:00"," ","13.5","","11.9","","90","","31","","22","","24.1","","98.18","","","","","","Cloudy"
"2012-08-16 00:00","2012","08","16","00:00"," ","13.2","","11.1","","87","","32","","22","","24.1","","98.22","","","","","","Mostly Cloudy"
"2012-08-16 01:00","2012","08","16","01:00"," ","13.1","","10.5","","84","","32","","30","","24.1","","98.26","","","","","","Mostly Cloudy"
"2012-08-16 02:00","2012","08","16","02:00"," ","13.2","","10.5","","84","","33","","33","","24.1","","98.29","","","","","","Mostly Cloudy"
"2012-08-16 03:00","2012","08","16","03:00"," ","12.7","","9.8","","82","","33","","26","","24.1","","98.37","","","","","","Mostly Cloudy"
"2012-08-16 04:00","2012","08","16","04:00"," ","13.0","","10.1","","83","","33","","30","","24.1","","98.45","","","","","","Cloudy"
"2012-08-16 05:00","2012","08","16","05:00"," ","12.8","","9.8","","82","","33","","19","","24.1","","98.49","","","","","","Mostly Cloudy"
"2012-08-16 06:00","2012","08","16","06:00"," ","12.1","","9.6","","85","","35","","11","","24.1","","98.57","","","","","","Mostly Cloudy"
"2012-08-16 07:00","2012","08","16","07:00"," ","12.8","","7.9","","72","","35","","30","","24.1","","98.63","","","","","","Clear"
"2012-08-16 08:00","2012","08","16","08:00"," ","13.5","","8.5","","72","","35","","32","","24.1","","98.71","","","","","","Mainly Clear"
"2012-08-16 09:00","2012","08","16","09:00"," ","14.2","","7.0","","62","","34","","39","","24.1","","98.77","","","","","","Mainly Clear"
"2012-08-16 10:00","2012","08","16","10:00"," ","15.8","","6.9","","55","","34","","39","","24.1","","98.83","","","","","","Mainly Clear"
"2012-08-16 11:00","2012","08","16","11:00"," ","16.7","","6.5","","51","","36","","37","","24.1","","98.86","","","","","","Clear"
"2012-08-16 12:00","2012","08","16","12:00"," ","18.2","","6.9","","48","","34","","35","","24.1","","98.90","","","","","","Clear"
"2012-08-16 13:00","2012","08","16","13:00"," ","18.8","","6.7","","45","","34","","28","","24.1","","98.87","","","","","","Mainly Clear"
"2012-08-16 14:00","2012","08","16","14:00"," ","19.5","","7.3","","45","","33","","30","","24.1","","98.88","","","","","","Mainly Clear"
"2012-08-16 15:00","2012","08","16","15:00"," ","20.1","","7.8","","45","","34","","24","","24.1","","98.89","","","","","","Mainly Clear"
"2012-08-16 16:00","2012","08","16","16:00"," ","19.9","","7.1","","43","","34","","30","","24.1","","98.89","","","","","","Mainly Clear"
"2012-08-16 17:00","2012","08","16","17:00"," ","19.3","","7.9","","48","","34","","28","","24.1","","98.91","","","","","","Mainly Clear"
"2012-08-16 18:00","2012","08","16","18:00"," ","18.7","","7.9","","49","","32","","28","","24.1","","98.92","","","","","","Mainly Clear"
"2012-08-16 19:00","2012","08","16","19:00"," ","17.4","","8.5","","56","","34","","17","","24.1","","98.91","","","","","","Clear"
"2012-08-16 20:00","2012","08","16","20:00"," ","13.0","","8.7","","75","","32","","13","","24.1","","98.94","","","","","","Mainly Clear"
"2012-08-16 21:00","2012","08","16","21:00"," ","10.4","","8.0","","85","","31","","7","","24.1","","98.95","","","","","","Clear"
"2012-08-16 22:00","2012","08","16","22:00"," ","10.6","","8.5","","87","","30","","9","","24.1","","98.97","","","","","","Clear"
"2012-08-16 23:00","2012","08","16","23:00"," ","9.0","","7.9","","93","","25","","4","","24.1","","98.99","","","","","","Clear"
"2012-08-17 00:00","2012","08","17","00:00"," ","9.3","","8.1","","92","","26","","7","","24.1","","98.99","","","","","","Clear"
"2012-08-17 01:00","2012","08","17","01:00"," ","7.7","","7.1","","96","","26","","4","","24.1","","98.96","","","","","","Clear"
"2012-08-17 02:00","2012","08","17","02:00"," ","8.7","","7.7","","93","","26","","9","","24.1","","98.93","","","","","","Clear"
"2012-08-17 03:00","2012","08","17","03:00"," ","7.9","","7.4","","97","","23","","6","","24.1","","98.94","","","","","","Clear"
"2012-08-17 04:00","2012","08","17","04:00"," ","7.9","","7.5","","97","","23","","7","","24.1","","98.93","","","","","","Clear"
"2012-08-17 05:00","2012","08","17","05:00"," ","10.0","","8.2","","89","","23","","15","","24.1","","98.91","","","","","","Mainly Clear"
"2012-08-17 06:00","2012","08","17","06:00"," ","10.7","","8.3","","85","","23","","13","","24.1","","98.91","","","","","","Mainly Clear"
"2012-08-17 07:00","2012","08","17","07:00"," ","12.2","","9.1","","81","","22","","13","","24.1","","98.91","","","","","","Mostly Cloudy"
"2012-08-17 08:00","2012","08","17","08:00"," ","14.4","","9.4","","72","","21","","9","","24.1","","98.90","","","","","","Mostly Cloudy"
"2012-08-17 09:00","2012","08","17","09:00"," ","17.0","","10.6","","66","","23","","9","","24.1","","98.88","","","","","","Mostly Cloudy"
"2012-08-17 10:00","2012","08","17","10:00"," ","19.1","","10.8","","59","","23","","7","","24.1","","98.84","","","","","","Mainly Clear"
"2012-08-17 11:00","2012","08","17","11:00"," ","21.8","","10.6","","49","","21","","13","","24.1","","98.80","","","","","","Mainly Clear"
"2012-08-17 12:00","2012","08","17","12:00"," ","23.0","","9.8","","43","","28","","13","","24.1","","98.74","","","","","","Mainly Clear"
"2012-08-17 13:00","2012","08","17","13:00"," ","22.5","","9.7","","44","","29","","19","","24.1","","98.70","","","","","","Mainly Clear"
"2012-08-17 14:00","2012","08","17","14:00"," ","25.1","","9.8","","38","","30","","19","","24.1","","98.66","","26","","","","Mainly Clear"
"2012-08-17 15:00","2012","08","17","15:00"," ","23.9","","9.6","","40","","28","","15","","24.1","","98.61","","25","","","","Mainly Clear"
"2012-08-17 16:00","2012","08","17","16:00"," ","25.5","","8.8","","35","","28","","11","","24.1","","98.56","","26","","","","Mainly Clear"
"2012-08-17 17:00","2012","08","17","17:00"," ","25.3","","8.7","","35","","28","","11","","24.1","","98.54","","26","","","","Mainly Clear"
"2012-08-17 18:00","2012","08","17","18:00"," ","24.6","","9.3","","38","","27","","9","","24.1","","98.50","","26","","","","Mainly Clear"
"2012-08-17 19:00","2012","08","17","19:00"," ","22.4","","10.1","","46","","31","","6","","24.1","","98.49","","","","","","Mainly Clear"
"2012-08-17 20:00","2012","08","17","20:00"," ","19.8","","11.3","","58","","5","","9","","24.1","","98.53","","","","","","Mainly Clear"
"2012-08-17 21:00","2012","08","17","21:00"," ","17.7","","10.5","","63","","","","0","","24.1","","98.54","","","","","","Mainly Clear"
"2012-08-17 22:00","2012","08","17","22:00"," ","15.3","","10.4","","73","","2","","4","","24.1","","98.56","","","","","","Mainly Clear"
"2012-08-17 23:00","2012","08","17","23:00"," ","13.5","","10.5","","82","","","","0","","24.1","","98.57","","","","","","Clear"
"2012-08-18 00:00","2012","08","18","00:00"," ","11.4","","9.5","","88","","32","","6","","24.1","","98.59","","","","","","Clear"
"2012-08-18 01:00","2012","08","18","01:00"," ","11.2","","9.7","","90","","31","","4","","24.1","","98.60","","","","","","Mainly Clear"
"2012-08-18 02:00","2012","08","18","02:00"," ","10.3","","9.1","","92","","31","","7","","24.1","","98.60","","","","","","Clear"
"2012-08-18 03:00","2012","08","18","03:00"," ","9.7","","9.0","","95","","29","","7","","24.1","","98.62","","","","","","Clear"
"2012-08-18 04:00","2012","08","18","04:00"," ","9.5","","9.0","","97","","32","","7","","24.1","","98.64","","","","","","Mainly Clear"
"2012-08-18 05:00","2012","08","18","05:00"," ","8.9","","8.9","","100","","32","","6","","24.1","","98.66","","","","","","Mainly Clear"
"2012-08-18 06:00","2012","08","18","06:00"," ","10.0","","10.0","","100","","31","","6","","24.1","","98.68","","","","","","Mostly Cloudy"
"2012-08-18 07:00","2012","08","18","07:00"," ","12.2","","12.2","","100","","30","","7","","24.1","","98.71","","","","","","Mainly Clear"
"2012-08-18 08:00","2012","08","18","08:00"," ","15.2","","13.9","","92","","35","","7","","24.1","","98.78","","","","","","Mostly Cloudy"
"2012-08-18 09:00","2012","08","18","09:00"," ","17.2","","14.9","","86","","3","","26","","24.1","","98.86","","","","","","Mostly Cloudy"
"2012-08-18 10:00","2012","08","18","10:00"," ","17.7","","13.3","","75","","9","","13","","24.1","","98.83","","","","","","Rain"
"2012-08-18 11:00","2012","08","18","11:00"," ","19.4","","13.6","","69","","2","","13","","24.1","","98.90","","","","","","Mostly Cloudy"
"2012-08-18 12:00","2012","08","18","12:00"," ","19.8","","13.9","","69","","33","","19","","24.1","","98.91","","","","","","Mostly Cloudy"
"2012-08-18 13:00","2012","08","18","13:00"," ","20.2","","14.4","","69","","3","","17","","24.1","","98.87","","","","","","Rain"
"2012-08-18 14:00","2012","08","18","14:00"," ","21.2","","13.6","","62","","3","","19","","24.1","","98.87","","","","","","Mostly Cloudy"
"2012-08-18 15:00","2012","08","18","15:00"," ","21.2","","12.8","","59","","4","","24","","24.1","","98.85","","","","","","Mainly Clear"
"2012-08-18 16:00","2012","08","18","16:00"," ","21.0","","11.3","","54","","3","","22","","24.1","","98.87","","","","","","Mainly Clear"
"2012-08-18 17:00","2012","08","18","17:00"," ","20.8","","8.6","","45","","1","","24","","24.1","","98.87","","","","","","Mostly Cloudy"
"2012-08-18 18:00","2012","08","18","18:00"," ","19.8","","7.7","","46","","3","","22","","24.1","","98.89","","","","","","Mostly Cloudy"
"2012-08-18 19:00","2012","08","18","19:00"," ","18.5","","9.6","","56","","3","","19","","24.1","","98.91","","","","","","Mainly Clear"
"2012-08-18 20:00","2012","08","18","20:00"," ","14.8","","9.9","","72","","1","","9","","24.1","","98.93","","","","","","Mainly Clear"
"2012-08-18 21:00","2012","08","18","21:00"," ","11.4","","8.7","","83","","36","","7","","24.1","","98.96","","","","","","Clear"
"2012-08-18 22:00","2012","08","18","22:00"," ","9.9","","8.1","","89","","34","","9","","24.1","","98.99","","","","","","Clear"
"2012-08-18 23:00","2012","08","18","23:00"," ","8.6","","7.3","","92","","35","","9","","24.1","","99.00","","","","","","Clear"
"2012-08-19 00:00","2012","08","19","00:00"," ","9.5","","7.5","","87","","3","","6","","24.1","","99.04","","","","","","Clear"
"2012-08-19 01:00","2012","08","19","01:00"," ","9.0","","7.9","","93","","2","","7","","24.1","","99.06","","","","","","Clear"
"2012-08-19 02:00","2012","08","19","02:00"," ","6.1","","5.3","","95","","36","","4","","24.1","","99.07","","","","","","Clear"
"2012-08-19 03:00","2012","08","19","03:00"," ","5.7","","5.4","","98","","1","","7","","24.1","","99.09","","","","","","Clear"
"2012-08-19 04:00","2012","08","19","04:00"," ","5.7","","5.7","","100","","36","","4","","24.1","","99.10","","","","","","Mainly Clear"
"2012-08-19 05:00","2012","08","19","05:00"," ","4.8","","4.8","","100","","2","","6","","24.1","","99.11","","","","","","Mainly Clear"
"2012-08-19 06:00","2012","08","19","06:00"," ","4.5","","4.5","","100","","2","","4","","24.1","","99.16","","","","","","Clear"
"2012-08-19 07:00","2012","08","19","07:00"," ","9.4","","9.4","","100","","","","0","","24.1","","99.18","","","","","","Clear"
"2012-08-19 08:00","2012","08","19","08:00"," ","13.9","","10.7","","81","","","","0","","24.1","","99.18","","","","","","Clear"
"2012-08-19 09:00","2012","08","19","09:00"," ","16.9","","8.5","","58","","27","","6","","24.1","","99.18","","","","","","Mainly Clear"
"2012-08-19 10:00","2012","08","19","10:00"," ","18.9","","7.5","","47","","22","","4","","24.1","","99.16","","","","","","Mainly Clear"
"2012-08-19 11:00","2012","08","19","11:00"," ","20.2","","6.8","","42","","","","0","","24.1","","99.13","","","","","","Mainly Clear"
"2012-08-19 12:00","2012","08","19","12:00"," ","20.7","","6.6","","40","","30","","13","","24.1","","99.11","","","","","","Mainly Clear"
"2012-08-19 13:00","2012","08","19","13:00"," ","21.6","","7.1","","39","","36","","7","","24.1","","99.05","","","","","","Clear"
"2012-08-19 14:00","2012","08","19","14:00"," ","22.3","","7.2","","38","","28","","13","","24.1","","99.00","","","","","","Clear"
"2012-08-19 15:00","2012","08","19","15:00"," ","22.8","","6.0","","34","","26","","13","","24.1","","98.94","","","","","","Clear"
"2012-08-19 16:00","2012","08","19","16:00"," ","23.4","","8.1","","38","","28","","6","","24.1","","98.88","","","","","","Mainly Clear"
"2012-08-19 17:00","2012","08","19","17:00"," ","22.6","","9.0","","42","","35","","15","","24.1","","98.85","","","","","","Clear"
"2012-08-19 18:00","2012","08","19","18:00"," ","21.8","","5.0","","33","","31","","15","","24.1","","98.83","","","","","","Clear"
"2012-08-19 19:00","2012","08","19","19:00"," ","18.6","","4.9","","40","","29","","7","","24.1","","98.80","","","","","","Clear"
"2012-08-19 20:00","2012","08","19","20:00"," ","14.9","","4.9","","51","","29","","4","","24.1","","98.76","","","","","","Clear"
"2012-08-19 21:00","2012","08","19","21:00"," ","11.6","","5.2","","65","","","","0","","24.1","","98.81","","","","","","Clear"
"2012-08-19 22:00","2012","08","19","22:00"," ","9.7","","5.0","","72","","27","","6","","24.1","","98.82","","","","","","Clear"
"2012-08-19 23:00","2012","08","19","23:00"," ","9.7","","4.4","","70","","","","0","","24.1","","98.80","","","","","","Clear"
"2012-08-20 00:00","2012","08","20","00:00"," ","7.3","","4.7","","84","","30","","7","","24.1","","98.84","","","","","","Clear"
"2012-08-20 01:00","2012","08","20","01:00"," ","7.5","","4.4","","81","","","","0","","24.1","","98.83","","","","","","Clear"
"2012-08-20 02:00","2012","08","20","02:00"," ","7.8","","4.8","","81","","","","0","","24.1","","98.81","","","","","","Clear"
"2012-08-20 03:00","2012","08","20","03:00"," ","6.5","","4.6","","88","","25","","4","","24.1","","98.82","","","","","","Clear"
"2012-08-20 04:00","2012","08","20","04:00"," ","7.8","","6.3","","90","","","","0","","24.1","","98.83","","","","","","Clear"
"2012-08-20 05:00","2012","08","20","05:00"," ","8.6","","6.5","","87","","19","","4","","24.1","","98.82","","","","","","Clear"
"2012-08-20 06:00","2012","08","20","06:00"," ","6.7","","5.7","","93","","","","0","","24.1","","98.84","","","","","","Clear"
"2012-08-20 07:00","2012","08","20","07:00"," ","11.6","","9.3","","86","","","","0","","24.1","","98.85","","","","","","Clear"
"2012-08-20 08:00","2012","08","20","08:00"," ","15.8","","10.3","","70","","","","0","","24.1","","98.83","","","","","","Clear"
"2012-08-20 09:00","2012","08","20","09:00"," ","19.4","","9.7","","53","","24","","7","","24.1","","98.80","","","","","","Clear"
"2012-08-20 10:00","2012","08","20","10:00"," ","20.8","","5.2","","36","","23","","4","","24.1","","98.78","","","","","","Clear"
"2012-08-20 11:00","2012","08","20","11:00"," ","22.8","","3.5","","28","","22","","6","","24.1","","98.75","","","","","","Clear"
"2012-08-20 12:00","2012","08","20","12:00"," ","23.7","","5.6","","31","","29","","4","","24.1","","98.72","","","","","","Clear"
"2012-08-20 13:00","2012","08","20","13:00"," ","24.4","","6.4","","31","","15","","9","","24.1","","98.67","","","","","","Mainly Clear"
"2012-08-20 14:00","2012","08","20","14:00"," ","24.8","","6.4","","31","","1","","4","","24.1","","98.62","","25","","","","Mainly Clear"
"2012-08-20 15:00","2012","08","20","15:00"," ","25.9","","7.3","","31","","20","","9","","24.1","","98.56","","26","","","","Mostly Cloudy"
"2012-08-20 16:00","2012","08","20","16:00"," ","26.2","","6.9","","29","","","","0","","24.1","","98.54","","26","","","","Mostly Cloudy"
"2012-08-20 17:00","2012","08","20","17:00"," ","25.7","","8.5","","34","","21","","7","","24.1","","98.49","","26","","","","Mostly Cloudy"
"2012-08-20 18:00","2012","08","20","18:00"," ","24.7","","10.1","","40","","20","","7","","24.1","","98.47","","26","","","","Mostly Cloudy"
"2012-08-20 19:00","2012","08","20","19:00"," ","22.2","","10.5","","47","","16","","9","","12.9","","98.44","","","","","","Mostly Cloudy"
"2012-08-20 20:00","2012","08","20","20:00"," ","20.5","","9.6","","50","","17","","9","","19.3","","98.44","","","","","","Mostly Cloudy"
"2012-08-20 21:00","2012","08","20","21:00"," ","18.8","","9.4","","54","","15","","9","","24.1","","98.46","","","","","","Mainly Clear"
"2012-08-20 22:00","2012","08","20","22:00"," ","17.3","","9.6","","61","","18","","15","","19.3","","98.44","","","","","","Mostly Cloudy"
"2012-08-20 23:00","2012","08","20","23:00"," ","17.8","","9.3","","57","","18","","15","","24.1","","98.41","","","","","","Clear"
"2012-08-21 00:00","2012","08","21","00:00"," ","17.8","","8.7","","55","","18","","15","","24.1","","98.41","","","","","","Clear"
"2012-08-21 01:00","2012","08","21","01:00"," ","16.8","","9.0","","60","","19","","17","","24.1","","98.40","","","","","","Clear"
"2012-08-21 02:00","2012","08","21","02:00"," ","15.5","","9.7","","68","","18","","17","","24.1","","98.37","","","","","","Clear"
"2012-08-21 03:00","2012","08","21","03:00"," ","15.5","","10.1","","70","","18","","19","","24.1","","98.35","","","","","","Clear"
"2012-08-21 04:00","2012","08","21","04:00"," ","14.6","","10.4","","76","","18","","17","","24.1","","98.28","","","","","","Mainly Clear"
"2012-08-21 05:00","2012","08","21","05:00"," ","14.9","","10.4","","74","","19","","24","","24.1","","98.24","","","","","","Mainly Clear"
"2012-08-21 06:00","2012","08","21","06:00"," ","15.4","","10.4","","72","","19","","22","","24.1","","98.21","","","","","","Mainly Clear"
"2012-08-21 07:00","2012","08","21","07:00"," ","17.7","","10.6","","63","","19","","24","","24.1","","98.19","","","","","","Mainly Clear"
"2012-08-21 08:00","2012","08","21","08:00"," ","19.3","","11.5","","61","","20","","28","","24.1","","98.16","","","","","","Mainly Clear"
"2012-08-21 09:00","2012","08","21","09:00"," ","22.1","","12.6","","55","","22","","19","","24.1","","98.11","","25","","","","Mainly Clear"
"2012-08-21 10:00","2012","08","21","10:00"," ","23.3","","13.7","","55","","25","","15","","24.1","","98.11","","26","","","","Mainly Clear"
"2012-08-21 11:00","2012","08","21","11:00"," ","24.5","","14.3","","53","","26","","17","","24.1","","98.11","","28","","","","Mainly Clear"
"2012-08-21 12:00","2012","08","21","12:00"," ","25.6","","15.1","","52","","28","","9","","24.1","","98.14","","30","","","","Mainly Clear"
"2012-08-21 13:00","2012","08","21","13:00"," ","26.9","","15.6","","50","","27","","15","","24.1","","98.14","","31","","","","Mainly Clear"
"2012-08-21 14:00","2012","08","21","14:00"," ","27.4","","16.1","","50","","32","","24","","24.1","","98.15","","32","","","","Mainly Clear"
"2012-08-21 15:00","2012","08","21","15:00"," ","28.4","","15.2","","45","","33","","22","","24.1","","98.16","","32","","","","Mainly Clear"
"2012-08-21 16:00","2012","08","21","16:00"," ","28.2","","16.0","","48","","36","","11","","24.1","","98.15","","33","","","","Mainly Clear"
"2012-08-21 17:00","2012","08","21","17:00"," ","28.8","","15.3","","44","","4","","11","","24.1","","98.17","","33","","","","Mainly Clear"
"2012-08-21 18:00","2012","08","21","18:00"," ","27.8","","15.5","","47","","4","","13","","24.1","","98.16","","32","","","","Mainly Clear"
"2012-08-21 19:00","2012","08","21","19:00"," ","24.7","","16.0","","58","","6","","11","","24.1","","98.18","","29","","","","Mainly Clear"
"2012-08-21 20:00","2012","08","21","20:00"," ","21.9","","16.2","","70","","9","","9","","24.1","","98.21","","27","","","","Mainly Clear"
"2012-08-21 21:00","2012","08","21","21:00"," ","20.7","","15.9","","74","","7","","7","","24.1","","98.22","","25","","","","Clear"
"2012-08-21 22:00","2012","08","21","22:00"," ","18.6","","15.2","","81","","7","","11","","24.1","","98.19","","","","","","Clear"
"2012-08-21 23:00","2012","08","21","23:00"," ","16.0","","13.8","","87","","","","0","","24.1","","98.20","","","","","","Clear"
"2012-08-22 00:00","2012","08","22","00:00"," ","14.5","","13.1","","91","","","","0","","24.1","","98.23","","","","","","Clear"
"2012-08-22 01:00","2012","08","22","01:00"," ","14.0","","13.1","","94","","","","0","","24.1","","98.26","","","","","","Clear"
"2012-08-22 02:00","2012","08","22","02:00"," ","14.2","","13.0","","92","","8","","4","","24.1","","98.24","","","","","","Clear"
"2012-08-22 03:00","2012","08","22","03:00"," ","15.3","","14.2","","93","","5","","6","","24.1","","98.25","","","","","","Clear"
"2012-08-22 04:00","2012","08","22","04:00"," ","15.3","","13.8","","91","","14","","11","","24.1","","98.25","","","","","","Clear"
"2012-08-22 05:00","2012","08","22","05:00"," ","15.7","","13.8","","88","","17","","7","","24.1","","98.26","","","","","","Mainly Clear"
"2012-08-22 06:00","2012","08","22","06:00"," ","16.0","","13.7","","86","","11","","9","","24.1","","98.22","","","","","","Mainly Clear"
"2012-08-22 07:00","2012","08","22","07:00"," ","19.1","","15.8","","81","","12","","9","","24.1","","98.23","","","","","","Mainly Clear"
"2012-08-22 08:00","2012","08","22","08:00"," ","21.6","","15.2","","67","","12","","13","","24.1","","98.18","","26","","","","Mainly Clear"
"2012-08-22 09:00","2012","08","22","09:00"," ","22.9","","15.5","","63","","13","","17","","24.1","","98.16","","27","","","","Mainly Clear"
"2012-08-22 10:00","2012","08","22","10:00"," ","24.4","","15.7","","58","","14","","17","","24.1","","98.15","","29","","","","Mainly Clear"
"2012-08-22 11:00","2012","08","22","11:00"," ","25.2","","16.1","","57","","13","","11","","24.1","","98.15","","30","","","","Mostly Cloudy"
"2012-08-22 12:00","2012","08","22","12:00"," ","27.1","","16.1","","51","","14","","17","","24.1","","98.13","","32","","","","Mostly Cloudy"
"2012-08-22 13:00","2012","08","22","13:00"," ","29.6","","16.5","","45","","13","","20","","24.1","","98.04","","35","","","","Mostly Cloudy"
"2012-08-22 14:00","2012","08","22","14:00"," ","32.1","","13.7","","33","","17","","24","","24.1","","97.98","","35","","","","Mostly Cloudy"
"2012-08-22 15:00","2012","08","22","15:00"," ","32.7","","14.2","","33","","20","","24","","24.1","","97.95","","36","","","","Mostly Cloudy"
"2012-08-22 16:00","2012","08","22","16:00"," ","32.5","","13.9","","32","","19","","20","","24.1","","97.94","","36","","","","Mostly Cloudy"
"2012-08-22 17:00","2012","08","22","17:00"," ","30.7","","13.7","","35","","16","","19","","24.1","","97.90","","34","","","","Mostly Cloudy"
"2012-08-22 18:00","2012","08","22","18:00"," ","29.3","","13.4","","38","","21","","11","","24.1","","97.91","","32","","","","Mostly Cloudy"
"2012-08-22 19:00","2012","08","22","19:00"," ","26.5","","14.1","","46","","19","","11","","24.1","","97.94","","30","","","","Mostly Cloudy"
"2012-08-22 20:00","2012","08","22","20:00"," ","26.2","","14.1","","47","","19","","13","","24.1","","97.96","","30","","","","Mostly Cloudy"
"2012-08-22 21:00","2012","08","22","21:00"," ","23.2","","14.1","","57","","24","","6","","24.1","","97.99","","27","","","","Mostly Cloudy"
"2012-08-22 22:00","2012","08","22","22:00"," ","23.6","","13.9","","55","","20","","13","","24.1","","98.00","","27","","","","Mostly Cloudy"
"2012-08-22 23:00","2012","08","22","23:00"," ","24.3","","13.9","","52","","21","","17","","24.1","","98.00","","28","","","","Cloudy"
"2012-08-23 00:00","2012","08","23","00:00"," ","22.2","","14.3","","61","","26","","6","","24.1","","97.99","","26","","","","Cloudy"
"2012-08-23 01:00","2012","08","23","01:00"," ","21.4","","14.8","","66","","14","","9","","24.1","","97.98","","25","","","","Cloudy"
"2012-08-23 02:00","2012","08","23","02:00"," ","22.6","","14.4","","60","","19","","15","","24.1","","97.96","","26","","","","Cloudy"
"2012-08-23 03:00","2012","08","23","03:00"," ","21.9","","14.5","","63","","1","","6","","24.1","","98.00","","26","","","","Cloudy"
"2012-08-23 04:00","2012","08","23","04:00"," ","20.6","","15.1","","71","","12","","9","","24.1","","97.95","","25","","","","Rain Showers"
"2012-08-23 05:00","2012","08","23","05:00"," ","19.4","","15.0","","76","","19","","6","","24.1","","97.93","","","","","","Mostly Cloudy"
"2012-08-23 06:00","2012","08","23","06:00"," ","20.2","","15.5","","74","","18","","9","","24.1","","97.96","","","","","","Mostly Cloudy"
"2012-08-23 07:00","2012","08","23","07:00"," ","20.6","","15.9","","74","","16","","6","","24.1","","98.00","","25","","","","Mostly Cloudy"
"2012-08-23 08:00","2012","08","23","08:00"," ","21.6","","16.1","","71","","17","","11","","24.1","","97.99","","26","","","","Mostly Cloudy"
"2012-08-23 09:00","2012","08","23","09:00"," ","22.9","","16.4","","67","","12","","9","","24.1","","97.96","","28","","","","Mostly Cloudy"
"2012-08-23 10:00","2012","08","23","10:00"," ","24.0","","16.6","","63","","15","","7","","24.1","","97.95","","29","","","","Mostly Cloudy"
"2012-08-23 11:00","2012","08","23","11:00"," ","26.5","","17.4","","57","","14","","13","","24.1","","97.93","","32","","","","Mostly Cloudy"
"2012-08-23 12:00","2012","08","23","12:00"," ","29.8","","17.6","","48","","8","","7","","24.1","","97.86","","36","","","","Mainly Clear"
"2012-08-23 13:00","2012","08","23","13:00"," ","31.0","","15.6","","39","","18","","9","","19.3","","97.81","","35","","","","Mainly Clear"
"2012-08-23 14:00","2012","08","23","14:00"," ","31.7","","15.2","","37","","6","","11","","19.3","","97.79","","36","","","","Mainly Clear"
"2012-08-23 15:00","2012","08","23","15:00"," ","31.2","","14.6","","37","","9","","7","","19.3","","97.76","","35","","","","Mostly Cloudy"
"2012-08-23 16:00","2012","08","23","16:00"," ","31.0","","14.8","","37","","5","","7","","19.3","","97.70","","35","","","","Mainly Clear"
"2012-08-23 17:00","2012","08","23","17:00"," ","27.9","","17.6","","54","","10","","41","","19.3","","97.74","","34","","","","Mainly Clear"
"2012-08-23 18:00","2012","08","23","18:00"," ","27.1","","18.5","","59","","12","","26","","19.3","","97.73","","33","","","","Mainly Clear"
"2012-08-23 19:00","2012","08","23","19:00"," ","","","","","","","","","","","","","","","","","","",""
"2012-08-23 20:00","2012","08","23","20:00"," ","23.0","","19.5","","81","","9","","11","","19.3","","97.73","","30","","","","Mainly Clear"
"2012-08-23 21:00","2012","08","23","21:00"," ","20.9","","18.7","","87","","12","","11","","24.1","","97.77","","27","","","","Mainly Clear"
"2012-08-23 22:00","2012","08","23","22:00"," ","21.9","","19.3","","85","","10","","13","","24.1","","97.78","","29","","","","Mainly Clear"
"2012-08-23 23:00","2012","08","23","23:00"," ","21.1","","18.8","","87","","13","","15","","24.1","","97.80","","28","","","","Clear"
"2012-08-24 00:00","2012","08","24","00:00"," ","21.0","","18.7","","87","","14","","13","","24.1","","97.80","","28","","","","Clear"
"2012-08-24 01:00","2012","08","24","01:00"," ","20.3","","18.5","","89","","14","","11","","24.1","","97.78","","27","","","","Clear"
"2012-08-24 02:00","2012","08","24","02:00"," ","17.7","","17.1","","96","","36","","4","","24.1","","97.83","","","","","","Clear"
"2012-08-24 03:00","2012","08","24","03:00"," ","16.0","","15.6","","97","","8","","4","","24.1","","97.82","","","","","","Mainly Clear"
"2012-08-24 04:00","2012","08","24","04:00"," ","15.3","","15.2","","99","","","","0","","24.1","","97.78","","","","","","Mainly Clear"
"2012-08-24 05:00","2012","08","24","05:00"," ","15.2","","15.2","","100","","4","","4","","19.3","","97.77","","","","","","Mainly Clear"
"2012-08-24 06:00","2012","08","24","06:00"," ","13.9","","13.9","","100","","18","","6","","19.3","","97.81","","","","","","Mostly Cloudy"
"2012-08-24 07:00","2012","08","24","07:00"," ","18.3","","18.2","","99","","19","","6","","19.3","","97.83","","","","","","Cloudy"
"2012-08-24 08:00","2012","08","24","08:00"," ","19.5","","18.9","","96","","","","0","","19.3","","97.84","","","","","","Mostly Cloudy"
"2012-08-24 09:00","2012","08","24","09:00"," ","20.9","","19.2","","90","","19","","13","","19.3","","97.87","","28","","","","Mostly Cloudy"
"2012-08-24 10:00","2012","08","24","10:00"," ","23.3","","19.9","","81","","21","","4","","24.1","","97.85","","31","","","","Mostly Cloudy"
"2012-08-24 11:00","2012","08","24","11:00"," ","25.4","","19.9","","72","","18","","9","","24.1","","97.81","","33","","","","Cloudy"
"2012-08-24 12:00","2012","08","24","12:00"," ","26.9","","20.0","","66","","18","","17","","24.1","","97.77","","34","","","","Mostly Cloudy"
"2012-08-24 13:00","2012","08","24","13:00"," ","29.4","","15.3","","42","","18","","13","","24.1","","97.73","","34","","","","Mainly Clear"
"2012-08-24 14:00","2012","08","24","14:00"," ","30.2","","14.4","","38","","14","","15","","24.1","","97.66","","34","","","","Mainly Clear"
"2012-08-24 15:00","2012","08","24","15:00"," ","31.6","","13.2","","33","","16","","13","","24.1","","97.62","","35","","","","Mainly Clear"
"2012-08-24 16:00","2012","08","24","16:00"," ","31.7","","12.8","","32","","15","","22","","24.1","","97.59","","34","","","","Mainly Clear"
"2012-08-24 17:00","2012","08","24","17:00"," ","30.6","","14.0","","36","","16","","20","","24.1","","97.60","","34","","","","Mainly Clear"
"2012-08-24 18:00","2012","08","24","18:00"," ","28.8","","17.1","","49","","18","","22","","24.1","","97.57","","34","","","","Mainly Clear"
"2012-08-24 19:00","2012","08","24","19:00"," ","26.4","","14.8","","49","","15","","17","","24.1","","97.52","","30","","","","Mostly Cloudy"
"2012-08-24 20:00","2012","08","24","20:00"," ","26.2","","15.2","","51","","15","","22","","24.1","","97.54","","30","","","","Cloudy"
"2012-08-24 21:00","2012","08","24","21:00"," ","25.4","","14.8","","52","","14","","20","","24.1","","97.50","","29","","","","Thunderstorms,Rain Showers"
"2012-08-24 22:00","2012","08","24","22:00"," ","23.4","","16.0","","63","","16","","35","","24.1","","97.54","","28","","","","Thunderstorms,Rain Showers"
"2012-08-24 23:00","2012","08","24","23:00"," ","22.3","","16.7","","71","","17","","26","","24.1","","97.61","","27","","","","Cloudy"
"2012-08-25 00:00","2012","08","25","00:00"," ","20.7","","17.6","","82","","16","","22","","24.1","","97.62","","26","","","","Rain Showers"
"2012-08-25 01:00","2012","08","25","01:00"," ","19.5","","17.7","","89","","14","","9","","24.1","","97.53","","","","","","Cloudy"
"2012-08-25 02:00","2012","08","25","02:00"," ","18.6","","17.6","","94","","14","","9","","24.1","","97.41","","","","","","Mostly Cloudy"
"2012-08-25 03:00","2012","08","25","03:00"," ","20.0","","16.4","","80","","19","","22","","24.1","","97.44","","25","","","","Mostly Cloudy"
"2012-08-25 04:00","2012","08","25","04:00"," ","19.4","","16.6","","84","","21","","24","","24.1","","97.46","","","","","","Cloudy"
"2012-08-25 05:00","2012","08","25","05:00"," ","19.0","","14.9","","77","","25","","28","","24.1","","97.49","","","","","","Mostly Cloudy"
"2012-08-25 06:00","2012","08","25","06:00"," ","15.3","","12.1","","81","","26","","20","","24.1","","97.61","","","","","","Mainly Clear"
"2012-08-25 07:00","2012","08","25","07:00"," ","14.6","","10.6","","77","","26","","24","","24.1","","97.69","","","","","","Mainly Clear"
"2012-08-25 08:00","2012","08","25","08:00"," ","15.8","","10.4","","70","","26","","26","","24.1","","97.74","","","","","","Mainly Clear"
"2012-08-25 09:00","2012","08","25","09:00"," ","17.6","","10.4","","63","","24","","35","","24.1","","97.80","","","","","","Mainly Clear"
"2012-08-25 10:00","2012","08","25","10:00"," ","19.5","","10.6","","56","","23","","28","","24.1","","97.86","","","","","","Mainly Clear"
"2012-08-25 11:00","2012","08","25","11:00"," ","21.1","","9.9","","49","","25","","35","","24.1","","97.86","","","","","","Mainly Clear"
"2012-08-25 12:00","2012","08","25","12:00"," ","22.4","","9.7","","44","","25","","28","","24.1","","97.85","","","","","","Mainly Clear"
"2012-08-25 13:00","2012","08","25","13:00"," ","22.8","","8.6","","40","","26","","28","","24.1","","97.87","","","","","","Mainly Clear"
"2012-08-25 14:00","2012","08","25","14:00"," ","23.9","","8.3","","37","","25","","26","","24.1","","97.87","","","","","","Mainly Clear"
"2012-08-25 15:00","2012","08","25","15:00"," ","24.2","","7.6","","35","","26","","30","","24.1","","97.84","","","","","","Mainly Clear"
"2012-08-25 16:00","2012","08","25","16:00"," ","24.0","","7.1","","34","","23","","33","","24.1","","97.81","","","","","","Mainly Clear"
"2012-08-25 17:00","2012","08","25","17:00"," ","23.6","","6.8","","34","","23","","20","","24.1","","97.84","","","","","","Mostly Cloudy"
"2012-08-25 18:00","2012","08","25","18:00"," ","23.6","","6.0","","32","","23","","33","","24.1","","97.83","","","","","","Mainly Clear"
"2012-08-25 19:00","2012","08","25","19:00"," ","23.0","","6.0","","33","","22","","20","","24.1","","97.81","","","","","","Mostly Cloudy"
"2012-08-25 20:00","2012","08","25","20:00"," ","21.6","","5.9","","36","","21","","19","","24.1","","97.78","","","","","","Mainly Clear"
"2012-08-25 21:00","2012","08","25","21:00"," ","20.2","","5.5","","38","","20","","22","","24.1","","97.76","","","","","","Clear"
"2012-08-25 22:00","2012","08","25","22:00"," ","19.4","","5.7","","41","","21","","32","","24.1","","97.74","","","","","","Clear"
"2012-08-25 23:00","2012","08","25","23:00"," ","18.1","","5.8","","44","","23","","24","","24.1","","97.77","","","","","","Clear"
"2012-08-26 00:00","2012","08","26","00:00"," ","16.8","","5.8","","48","","22","","26","","24.1","","97.77","","","","","","Clear"
"2012-08-26 01:00","2012","08","26","01:00"," ","15.9","","5.7","","51","","22","","19","","24.1","","97.76","","","","","","Clear"
"2012-08-26 02:00","2012","08","26","02:00"," ","15.9","","5.8","","51","","22","","24","","24.1","","97.73","","","","","","Clear"
"2012-08-26 03:00","2012","08","26","03:00"," ","15.6","","6.0","","53","","23","","24","","24.1","","97.72","","","","","","Clear"
"2012-08-26 04:00","2012","08","26","04:00"," ","15.9","","6.3","","53","","22","","26","","24.1","","97.72","","","","","","Clear"
"2012-08-26 05:00","2012","08","26","05:00"," ","16.0","","6.7","","54","","23","","28","","24.1","","97.78","","","","","","Mostly Cloudy"
"2012-08-26 06:00","2012","08","26","06:00"," ","15.3","","9.1","","66","","25","","22","","24.1","","97.85","","","","","","Mostly Cloudy"
"2012-08-26 07:00","2012","08","26","07:00"," ","15.8","","10.8","","72","","25","","22","","24.1","","97.93","","","","","","Mostly Cloudy"
"2012-08-26 08:00","2012","08","26","08:00"," ","18.7","","12.3","","66","","28","","35","","24.1","","98.00","","","","","","Mainly Clear"
"2012-08-26 09:00","2012","08","26","09:00"," ","19.9","","12.9","","64","","29","","33","","24.1","","98.10","","","","","","Mostly Cloudy"
"2012-08-26 10:00","2012","08","26","10:00"," ","21.4","","12.8","","58","","30","","35","","24.1","","98.16","","","","","","Mainly Clear"
"2012-08-26 11:00","2012","08","26","11:00"," ","22.6","","12.1","","51","","29","","35","","24.1","","98.20","","25","","","","Mainly Clear"
"2012-08-26 12:00","2012","08","26","12:00"," ","24.3","","12.3","","47","","31","","28","","24.1","","98.27","","27","","","","Mainly Clear"
"2012-08-26 13:00","2012","08","26","13:00"," ","24.8","","12.3","","46","","31","","32","","24.1","","98.31","","27","","","","Mostly Cloudy"
"2012-08-26 14:00","2012","08","26","14:00"," ","25.2","","11.5","","42","","30","","28","","24.1","","98.37","","27","","","","Mostly Cloudy"
"2012-08-26 15:00","2012","08","26","15:00"," ","24.6","","12.0","","45","","32","","33","","24.1","","98.45","","27","","","","Mostly Cloudy"
"2012-08-26 16:00","2012","08","26","16:00"," ","23.3","","12.8","","52","","32","","32","","24.1","","98.51","","26","","","","Mostly Cloudy"
"2012-08-26 17:00","2012","08","26","17:00"," ","23.5","","12.9","","51","","32","","30","","24.1","","98.54","","26","","","","Mainly Clear"
"2012-08-26 18:00","2012","08","26","18:00"," ","22.9","","13.0","","54","","33","","28","","24.1","","98.58","","26","","","","Mainly Clear"
"2012-08-26 19:00","2012","08","26","19:00"," ","21.1","","13.6","","62","","32","","15","","24.1","","98.63","","","","","","Mainly Clear"
"2012-08-26 20:00","2012","08","26","20:00"," ","18.8","","13.8","","73","","32","","11","","24.1","","98.68","","","","","","Mainly Clear"
"2012-08-26 21:00","2012","08","26","21:00"," ","14.7","","12.2","","85","","30","","11","","24.1","","98.72","","","","","","Mainly Clear"
"2012-08-26 22:00","2012","08","26","22:00"," ","13.1","","11.5","","90","","30","","9","","24.1","","98.81","","","","","","Clear"
"2012-08-26 23:00","2012","08","26","23:00"," ","13.5","","12.5","","94","","29","","13","","24.1","","98.87","","","","","","Clear"
"2012-08-27 00:00","2012","08","27","00:00"," ","12.6","","12.3","","98","","29","","11","","24.1","","98.90","","","","","","Mainly Clear"
"2012-08-27 01:00","2012","08","27","01:00"," ","12.5","","12.2","","98","","32","","6","","24.1","","98.90","","","","","","Clear"
"2012-08-27 02:00","2012","08","27","02:00"," ","13.2","","13.1","","99","","27","","7","","24.1","","98.95","","","","","","Mostly Cloudy"
"2012-08-27 03:00","2012","08","27","03:00"," ","15.0","","14.2","","95","","25","","9","","24.1","","98.98","","","","","","Mostly Cloudy"
"2012-08-27 04:00","2012","08","27","04:00"," ","15.7","","14.7","","94","","27","","7","","24.1","","99.03","","","","","","Mostly Cloudy"
"2012-08-27 05:00","2012","08","27","05:00"," ","15.5","","14.4","","93","","27","","6","","24.1","","99.08","","","","","","Mostly Cloudy"
"2012-08-27 06:00","2012","08","27","06:00"," ","15.6","","14.4","","93","","","","0","","24.1","","99.13","","","","","","Mostly Cloudy"
"2012-08-27 07:00","2012","08","27","07:00"," ","17.0","","15.5","","91","","4","","6","","24.1","","99.16","","","","","","Mostly Cloudy"
"2012-08-27 08:00","2012","08","27","08:00"," ","18.6","","15.5","","82","","","","0","","24.1","","99.20","","","","","","Mostly Cloudy"
"2012-08-27 09:00","2012","08","27","09:00"," ","20.2","","15.3","","73","","","","0","","24.1","","99.23","","","","","","Mostly Cloudy"
"2012-08-27 10:00","2012","08","27","10:00"," ","21.0","","15.2","","69","","4","","13","","24.1","","99.24","","25","","","","Mostly Cloudy"
"2012-08-27 11:00","2012","08","27","11:00"," ","22.2","","15.4","","65","","8","","11","","24.1","","99.25","","26","","","","Mostly Cloudy"
"2012-08-27 12:00","2012","08","27","12:00"," ","22.6","","15.3","","63","","12","","7","","24.1","","99.23","","27","","","","Mostly Cloudy"
"2012-08-27 13:00","2012","08","27","13:00"," ","23.3","","15.0","","60","","6","","4","","24.1","","99.19","","27","","","","Mostly Cloudy"
"2012-08-27 14:00","2012","08","27","14:00"," ","24.7","","15.2","","55","","33","","7","","24.1","","99.14","","29","","","","Mostly Cloudy"
"2012-08-27 15:00","2012","08","27","15:00"," ","24.5","","14.0","","52","","3","","7","","24.1","","99.11","","28","","","","Mainly Clear"
"2012-08-27 16:00","2012","08","27","16:00"," ","23.9","","15.0","","57","","6","","19","","24.1","","99.09","","28","","","","Mainly Clear"
"2012-08-27 17:00","2012","08","27","17:00"," ","24.2","","14.9","","56","","7","","11","","24.1","","99.08","","28","","","","Mainly Clear"
"2012-08-27 18:00","2012","08","27","18:00"," ","23.3","","14.2","","57","","5","","13","","24.1","","99.07","","27","","","","Mainly Clear"
"2012-08-27 19:00","2012","08","27","19:00"," ","21.2","","13.3","","61","","5","","17","","24.1","","99.08","","","","","","Mainly Clear"
"2012-08-27 20:00","2012","08","27","20:00"," ","17.7","","12.7","","73","","5","","13","","24.1","","99.11","","","","","","Mainly Clear"
"2012-08-27 21:00","2012","08","27","21:00"," ","16.9","","13.4","","80","","7","","11","","24.1","","99.12","","","","","","Mainly Clear"
"2012-08-27 22:00","2012","08","27","22:00"," ","16.4","","12.6","","78","","8","","11","","24.1","","99.13","","","","","","Clear"
"2012-08-27 23:00","2012","08","27","23:00"," ","15.8","","11.8","","77","","11","","15","","24.1","","99.14","","","","","","Clear"
"2012-08-28 00:00","2012","08","28","00:00"," ","14.7","","11.3","","80","","12","","7","","24.1","","99.12","","","","","","Clear"
"2012-08-28 01:00","2012","08","28","01:00"," ","15.0","","11.6","","80","","13","","9","","24.1","","99.10","","","","","","Clear"
"2012-08-28 02:00","2012","08","28","02:00"," ","14.3","","11.7","","84","","13","","13","","24.1","","99.07","","","","","","Clear"
"2012-08-28 03:00","2012","08","28","03:00"," ","14.5","","12.3","","87","","12","","13","","24.1","","99.04","","","","","","Clear"
"2012-08-28 04:00","2012","08","28","04:00"," ","13.9","","12.8","","93","","14","","9","","24.1","","99.03","","","","","","Clear"
"2012-08-28 05:00","2012","08","28","05:00"," ","13.5","","12.5","","94","","14","","9","","24.1","","99.01","","","","","","Mainly Clear"
"2012-08-28 06:00","2012","08","28","06:00"," ","13.9","","12.6","","92","","16","","11","","24.1","","99.03","","","","","","Mainly Clear"
"2012-08-28 07:00","2012","08","28","07:00"," ","16.2","","13.8","","86","","15","","9","","24.1","","99.03","","","","","","Mainly Clear"
"2012-08-28 08:00","2012","08","28","08:00"," ","19.4","","13.9","","70","","16","","20","","24.1","","99.02","","","","","","Mainly Clear"
"2012-08-28 09:00","2012","08","28","09:00"," ","22.0","","14.8","","64","","16","","15","","24.1","","99.00","","26","","","","Clear"
"2012-08-28 10:00","2012","08","28","10:00"," ","23.6","","15.0","","59","","14","","11","","24.1","","98.98","","28","","","","Mainly Clear"
"2012-08-28 11:00","2012","08","28","11:00"," ","26.2","","15.0","","50","","16","","13","","24.1","","98.95","","30","","","","Mainly Clear"
"2012-08-28 12:00","2012","08","28","12:00"," ","27.1","","14.4","","46","","14","","11","","24.1","","98.91","","31","","","","Mainly Clear"
"2012-08-28 13:00","2012","08","28","13:00"," ","28.1","","13.8","","41","","15","","17","","24.1","","98.83","","31","","","","Mainly Clear"
"2012-08-28 14:00","2012","08","28","14:00"," ","28.9","","13.9","","40","","18","","11","","24.1","","98.73","","32","","","","Mainly Clear"
"2012-08-28 15:00","2012","08","28","15:00"," ","29.9","","13.7","","37","","16","","15","","24.1","","98.66","","33","","","","Mainly Clear"
"2012-08-28 16:00","2012","08","28","16:00"," ","29.6","","13.7","","38","","16","","19","","24.1","","98.58","","33","","","","Mainly Clear"
"2012-08-28 17:00","2012","08","28","17:00"," ","29.3","","13.8","","39","","16","","13","","24.1","","98.54","","33","","","","Mainly Clear"
"2012-08-28 18:00","2012","08","28","18:00"," ","27.8","","13.7","","42","","15","","13","","24.1","","98.49","","31","","","","Mainly Clear"
"2012-08-28 19:00","2012","08","28","19:00"," ","24.7","","13.8","","51","","16","","15","","24.1","","98.43","","28","","","","Clear"
"2012-08-28 20:00","2012","08","28","20:00"," ","22.3","","13.7","","58","","14","","13","","24.1","","98.45","","25","","","","Clear"
"2012-08-28 21:00","2012","08","28","21:00"," ","21.0","","14.8","","68","","15","","15","","24.1","","98.46","","25","","","","Clear"
"2012-08-28 22:00","2012","08","28","22:00"," ","21.0","","15.0","","69","","16","","13","","24.1","","98.46","","25","","","","Clear"
"2012-08-28 23:00","2012","08","28","23:00"," ","21.4","","15.7","","70","","16","","19","","24.1","","98.43","","26","","","","Clear"
"2012-08-29 00:00","2012","08","29","00:00"," ","21.7","","16.4","","72","","17","","19","","24.1","","98.39","","27","","","","Clear"
"2012-08-29 01:00","2012","08","29","01:00"," ","20.9","","16.3","","75","","18","","22","","24.1","","98.37","","26","","","","Clear"
"2012-08-29 02:00","2012","08","29","02:00"," ","19.8","","16.2","","80","","19","","19","","24.1","","98.31","","","","","","Clear"
"2012-08-29 03:00","2012","08","29","03:00"," ","19.4","","16.3","","82","","19","","20","","24.1","","98.28","","","","","","Clear"
"2012-08-29 04:00","2012","08","29","04:00"," ","19.1","","16.5","","85","","18","","17","","24.1","","98.26","","","","","","Clear"
"2012-08-29 05:00","2012","08","29","05:00"," ","18.6","","16.6","","88","","18","","17","","24.1","","98.24","","","","","","Clear"
"2012-08-29 06:00","2012","08","29","06:00"," ","18.1","","16.6","","91","","18","","17","","24.1","","98.21","","","","","","Clear"
"2012-08-29 07:00","2012","08","29","07:00"," ","19.0","","16.9","","88","","18","","17","","24.1","","98.18","","","","","","Clear"
"2012-08-29 08:00","2012","08","29","08:00"," ","21.5","","18.0","","80","","18","","17","","24.1","","98.12","","28","","","","Clear"
"2012-08-29 09:00","2012","08","29","09:00"," ","23.8","","19.2","","75","","17","","22","","24.1","","98.08","","31","","","","Clear"
"2012-08-29 10:00","2012","08","29","10:00"," ","26.3","","20.2","","69","","17","","26","","24.1","","98.01","","34","","","","Clear"
"2012-08-29 11:00","2012","08","29","11:00"," ","29.4","","20.7","","60","","19","","30","","24.1","","97.93","","38","","","","Mainly Clear"
"2012-08-29 12:00","2012","08","29","12:00"," ","31.3","","20.7","","53","","18","","41","","24.1","","97.78","","39","","","","Mainly Clear"
"2012-08-29 13:00","2012","08","29","13:00"," ","33.5","","20.1","","45","","19","","37","","24.1","","97.70","","41","","","","Mainly Clear"
"2012-08-29 14:00","2012","08","29","14:00"," ","34.5","","19.3","","41","","20","","37","","24.1","","97.61","","42","","","","Clear"
"2012-08-29 15:00","2012","08","29","15:00"," ","35.0","","19.3","","40","","18","","30","","24.1","","97.49","","42","","","","Clear"
"2012-08-29 16:00","2012","08","29","16:00"," ","34.9","","17.4","","36","","18","","43","","24.1","","97.41","","40","","","","Clear"
"2012-08-29 17:00","2012","08","29","17:00"," ","34.7","","17.2","","35","","18","","32","","24.1","","97.33","","40","","","","Clear"
"2012-08-29 18:00","2012","08","29","18:00"," ","33.8","","17.2","","37","","18","","33","","24.1","","97.27","","39","","","","Mainly Clear"
"2012-08-29 19:00","2012","08","29","19:00"," ","31.9","","17.4","","42","","18","","24","","24.1","","97.21","","37","","","","Mainly Clear"
"2012-08-29 20:00","2012","08","29","20:00"," ","30.5","","17.4","","45","","18","","20","","24.1","","97.20","","36","","","","Mostly Cloudy"
"2012-08-29 21:00","2012","08","29","21:00"," ","30.3","","17.8","","47","","19","","26","","24.1","","97.19","","36","","","","Mostly Cloudy"
"2012-08-29 22:00","2012","08","29","22:00"," ","29.1","","18.1","","52","","22","","24","","24.1","","97.27","","35","","","","Mainly Clear"
"2012-08-29 23:00","2012","08","29","23:00"," ","27.0","","11.1","","37","","31","","32","","24.1","","97.41","","29","","","","Clear"
"2012-08-30 00:00","2012","08","30","00:00"," ","23.5","","11.8","","48","","31","","26","","24.1","","97.56","","26","","","","Clear"
"2012-08-30 01:00","2012","08","30","01:00"," ","20.5","","13.2","","63","","29","","20","","24.1","","97.65","","","","","","Clear"
"2012-08-30 02:00","2012","08","30","02:00"," ","19.3","","11.7","","61","","29","","22","","24.1","","97.72","","","","","","Mainly Clear"
"2012-08-30 03:00","2012","08","30","03:00"," ","18.8","","10.3","","58","","29","","22","","24.1","","97.80","","","","","","Clear"
"2012-08-30 04:00","2012","08","30","04:00"," ","16.8","","10.7","","67","","30","","15","","24.1","","97.83","","","","","","Clear"
"2012-08-30 05:00","2012","08","30","05:00"," ","13.9","","10.1","","78","","25","","11","","24.1","","97.90","","","","","","Mainly Clear"
"2012-08-30 06:00","2012","08","30","06:00"," ","14.2","","10.6","","79","","28","","15","","24.1","","97.97","","","","","","Mostly Cloudy"
"2012-08-30 07:00","2012","08","30","07:00"," ","16.3","","11.5","","73","","31","","15","","24.1","","98.00","","","","","","Mostly Cloudy"
"2012-08-30 08:00","2012","08","30","08:00"," ","17.6","","12.0","","70","","30","","19","","24.1","","98.03","","","","","","Mostly Cloudy"
"2012-08-30 09:00","2012","08","30","09:00"," ","19.6","","12.4","","63","","30","","22","","24.1","","98.12","","","","","","Mostly Cloudy"
"2012-08-30 10:00","2012","08","30","10:00"," ","21.4","","11.7","","54","","31","","28","","24.1","","98.21","","","","","","Mostly Cloudy"
"2012-08-30 11:00","2012","08","30","11:00"," ","23.3","","10.9","","46","","30","","30","","24.1","","98.26","","25","","","","Mostly Cloudy"
"2012-08-30 12:00","2012","08","30","12:00"," ","24.9","","9.3","","37","","29","","32","","24.1","","98.28","","26","","","","Mostly Cloudy"
"2012-08-30 13:00","2012","08","30","13:00"," ","25.9","","7.9","","32","","31","","30","","24.1","","98.27","","26","","","","Mainly Clear"
"2012-08-30 14:00","2012","08","30","14:00"," ","26.8","","6.9","","28","","32","","32","","24.1","","98.27","","27","","","","Mainly Clear"
"2012-08-30 15:00","2012","08","30","15:00"," ","27.1","","6.4","","27","","30","","33","","24.1","","98.26","","27","","","","Mainly Clear"
"2012-08-30 16:00","2012","08","30","16:00"," ","27.1","","4.5","","23","","32","","26","","24.1","","98.26","","26","","","","Mainly Clear"
"2012-08-30 17:00","2012","08","30","17:00"," ","26.4","","5.6","","26","","31","","24","","24.1","","98.29","","26","","","","Clear"
"2012-08-30 18:00","2012","08","30","18:00"," ","25.0","","5.5","","29","","32","","22","","24.1","","98.33","","","","","","Clear"
"2012-08-30 19:00","2012","08","30","19:00"," ","20.9","","6.6","","39","","31","","11","","24.1","","98.38","","","","","","Mainly Clear"
"2012-08-30 20:00","2012","08","30","20:00"," ","16.4","","6.4","","52","","30","","11","","24.1","","98.45","","","","","","Mainly Clear"
"2012-08-30 21:00","2012","08","30","21:00"," ","16.4","","7.5","","56","","26","","11","","24.1","","98.51","","","","","","Clear"
"2012-08-30 22:00","2012","08","30","22:00"," ","16.4","","8.5","","60","","26","","13","","24.1","","98.57","","","","","","Clear"
"2012-08-30 23:00","2012","08","30","23:00"," ","16.4","","8.4","","59","","26","","11","","24.1","","98.62","","","","","","Clear"
"2012-08-31 00:00","2012","08","31","00:00"," ","15.5","","6.6","","55","","27","","15","","24.1","","98.68","","","","","","Clear"
"2012-08-31 01:00","2012","08","31","01:00"," ","15.2","","6.4","","56","","26","","13","","24.1","","98.74","","","","","","Clear"
"2012-08-31 02:00","2012","08","31","02:00"," ","13.5","","6.3","","62","","26","","13","","24.1","","98.75","","","","","","Clear"
"2012-08-31 03:00","2012","08","31","03:00"," ","13.2","","6.4","","63","","27","","15","","24.1","","98.78","","","","","","Mainly Clear"
"2012-08-31 04:00","2012","08","31","04:00"," ","14.0","","6.7","","61","","27","","15","","24.1","","98.83","","","","","","Mainly Clear"
"2012-08-31 05:00","2012","08","31","05:00"," ","9.7","","5.9","","77","","27","","11","","24.1","","98.88","","","","","","Clear"
"2012-08-31 06:00","2012","08","31","06:00"," ","10.4","","6.3","","76","","27","","7","","24.1","","98.95","","","","","","Clear"
"2012-08-31 07:00","2012","08","31","07:00"," ","14.5","","9.1","","70","","","","0","","24.1","","99.03","","","","","","Clear"
"2012-08-31 08:00","2012","08","31","08:00"," ","19.1","","8.3","","50","","26","","6","","24.1","","99.06","","","","","","Clear"
"2012-08-31 09:00","2012","08","31","09:00"," ","22.7","","9.3","","42","","22","","6","","24.1","","99.07","","","","","","Mainly Clear"
"2012-08-31 10:00","2012","08","31","10:00"," ","24.7","","9.5","","38","","19","","9","","24.1","","99.10","","26","","","","Mainly Clear"
"2012-08-31 11:00","2012","08","31","11:00"," ","27.0","","8.3","","31","","21","","13","","24.1","","99.09","","28","","","","Mainly Clear"
"2012-08-31 12:00","2012","08","31","12:00"," ","28.2","","7.3","","27","","24","","19","","24.1","","99.06","","28","","","","Mainly Clear"
"2012-08-31 13:00","2012","08","31","13:00"," ","30.3","","8.2","","25","","25","","13","","24.1","","99.02","","31","","","","Mainly Clear"
"2012-08-31 14:00","2012","08","31","14:00"," ","30.6","","7.5","","24","","25","","19","","19.3","","98.97","","31","","","","Mainly Clear"
"2012-08-31 15:00","2012","08","31","15:00"," ","31.0","","6.8","","22","","22","","15","","24.1","","98.95","","31","","","","Mainly Clear"
"2012-08-31 16:00","2012","08","31","16:00"," ","30.5","","7.1","","23","","23","","20","","24.1","","98.95","","31","","","","Mostly Cloudy"
"2012-08-31 17:00","2012","08","31","17:00"," ","30.3","","6.0","","22","","12","","7","","24.1","","98.95","","30","","","","Mainly Clear"
"2012-08-31 18:00","2012","08","31","18:00"," ","29.0","","7.6","","26","","24","","7","","24.1","","98.93","","29","","","","Mostly Cloudy"
"2012-08-31 19:00","2012","08","31","19:00"," ","25.6","","7.7","","32","","22","","7","","24.1","","98.95","","26","","","","Mostly Cloudy"
"2012-08-31 20:00","2012","08","31","20:00"," ","23.6","","7.3","","35","","19","","15","","24.1","","98.98","","","","","","Mostly Cloudy"
"2012-08-31 21:00","2012","08","31","21:00"," ","19.3","","7.7","","47","","18","","13","","24.1","","99.04","","","","","","Clear"
"2012-08-31 22:00","2012","08","31","22:00"," ","18.9","","7.6","","48","","19","","11","","24.1","","99.06","","","","","","Clear"
"2012-08-31 23:00","2012","08","31","23:00"," ","16.8","","7.7","","55","","19","","13","","24.1","","99.06","","","","","","Clear"
