"Date/Time","Year","Month","Day","Time","Data Quality","Temp","Temp Flag","Dew Point Temp (°C)","Dew Point Temp Flag","Rel Hum (%)","Rel Hum Flag","Wind Dir (10s deg)","Wind Dir Flag","Wind Spd (km/h)","Wind Spd Flag","Visibility (km)","Visibility Flag","Stn Press (kPa)","Stn Press Flag","Hmdx","Hmdx Flag","Wind Chill","Wind Chill Flag","Weather"
"2011-11-01 00:00","2011","11","01","00:00"," ","5.4","","1.6","","76","","33","","19","","24.1","","97.68","","","","","","Mostly Cloudy"
"2011-11-01 01:00","2011","11","01","01:00"," ","4.4","","1.5","","81","","30","","13","","24.1","","97.76","","","","","","Mostly Cloudy"
"2011-11-01 02:00","2011","11","01","02:00"," ","5.0","","2.2","","82","","31","","19","","24.1","","97.84","","","","","","Mostly Cloudy"
"2011-11-01 03:00","2011","11","01","03:00"," ","5.1","","2.5","","83","","31","","19","","24.1","","97.92","","","","","","Mostly Cloudy"
"2011-11-01 04:00","2011","11","01","04:00"," ","4.7","","2.4","","85","","29","","15","","24.1","","97.99","","","","","","Mostly Cloudy"
"2011-11-01 05:00","2011","11","01","05:00"," ","4.0","","2.0","","87","","30","","20","","24.1","","98.06","","","","","","Mostly Cloudy"
"2011-11-01 06:00","2011","11","01","06:00"," ","4.0","","2.5","","90","","29","","13","","24.1","","98.13","","","","","","Mostly Cloudy"
"2011-11-01 07:00","2011","11","01","07:00"," ","1.1","","0.0","","92","","29","","17","","24.1","","98.21","","","","","","Mainly Clear"
"2011-11-01 08:00","2011","11","01","08:00"," ","-0.1","","-1.2","","92","","29","","13","","24.1","","98.27","","","","-4","","Mainly Clear"
"2011-11-01 09:00","2011","11","01","09:00"," ","3.0","","0.3","","82","","28","","13","","24.1","","98.34","","","","","","Clear"
"2011-11-01 10:00","2011","11","01","10:00"," ","5.8","","1.0","","71","","28","","19","","24.1","","98.41","","","","","","Clear"
"2011-11-01 11:00","2011","11","01","11:00"," ","7.7","","0.7","","61","","29","","15","","24.1","","98.46","","","","","","Clear"
"2011-11-01 12:00","2011","11","01","12:00"," ","9.4","","0.1","","52","","29","","19","","24.1","","98.48","","","","","","Clear"
"2011-11-01 13:00","2011","11","01","13:00"," ","10.3","","-0.1","","48","","30","","22","","24.1","","98.50","","","","","","Mainly Clear"
"2011-11-01 14:00","2011","11","01","14:00"," ","10.2","","-0.6","","47","","31","","17","","24.1","","98.50","","","","","","Mainly Clear"
"2011-11-01 15:00","2011","11","01","15:00"," ","10.3","","-0.8","","46","","31","","20","","24.1","","98.55","","","","","","Mainly Clear"
"2011-11-01 16:00","2011","11","01","16:00"," ","9.6","","-0.6","","49","","31","","13","","24.1","","98.59","","","","","","Mainly Clear"
"2011-11-01 17:00","2011","11","01","17:00"," ","7.2","","-1.5","","54","","28","","9","","24.1","","98.63","","","","","","Mainly Clear"
"2011-11-01 18:00","2011","11","01","18:00"," ","4.2","","-2.7","","61","","27","","11","","24.1","","98.70","","","","","","Mainly Clear"
"2011-11-01 19:00","2011","11","01","19:00"," ","1.3","","-3.5","","70","","27","","11","","24.1","","98.79","","","","","","Mainly Clear"
"2011-11-01 20:00","2011","11","01","20:00"," ","3.2","","-3.0","","64","","26","","13","","24.1","","98.86","","","","","","Mainly Clear"
"2011-11-01 21:00","2011","11","01","21:00"," ","1.3","","-3.2","","72","","27","","11","","24.1","","98.93","","","","","","Clear"
"2011-11-01 22:00","2011","11","01","22:00"," ","0.8","","-3.1","","75","","27","","15","","24.1","","98.99","","","","","","Clear"
"2011-11-01 23:00","2011","11","01","23:00"," ","0.8","","-3.2","","75","","27","","17","","24.1","","99.05","","","","","","Clear"
"2011-11-02 00:00","2011","11","02","00:00"," ","0.2","","-3.3","","77","","27","","15","","24.1","","99.12","","","","","","Clear"
"2011-11-02 01:00","2011","11","02","01:00"," ","-2.3","","-4.3","","86","","30","","6","","24.1","","99.18","","","","-5","","Mainly Clear"
"2011-11-02 02:00","2011","11","02","02:00"," ","2.4","","0.1","","85","","32","","22","","24.1","","99.23","","","","","","Rain Showers"
"2011-11-02 03:00","2011","11","02","03:00"," ","1.0","","-0.3","","91","","30","","13","","24.1","","99.28","","","","","","Mostly Cloudy"
"2011-11-02 04:00","2011","11","02","04:00"," ","-0.8","","-2.2","","90","","27","","13","","24.1","","99.32","","","","-5","","Mainly Clear"
"2011-11-02 05:00","2011","11","02","05:00"," ","-1.3","","-2.7","","90","","27","","17","","24.1","","99.38","","","","-6","","Mainly Clear"
"2011-11-02 06:00","2011","11","02","06:00"," ","-1.6","","-2.8","","92","","27","","17","","24.1","","99.42","","","","-7","","Mainly Clear"
"2011-11-02 07:00","2011","11","02","07:00"," ","-2.0","","-3.2","","91","","27","","15","","24.1","","99.48","","","","-7","","Mainly Clear"
"2011-11-02 08:00","2011","11","02","08:00"," ","-1.7","","-3.0","","91","","26","","15","","24.1","","99.51","","","","-7","","Clear"
"2011-11-02 09:00","2011","11","02","09:00"," ","-0.1","","-1.9","","88","","26","","20","","24.1","","99.51","","","","-5","","Clear"
"2011-11-02 10:00","2011","11","02","10:00"," ","2.3","","-1.3","","77","","26","","17","","24.1","","99.49","","","","","","Clear"
"2011-11-02 11:00","2011","11","02","11:00"," ","4.7","","-1.1","","66","","25","","19","","24.1","","99.48","","","","","","Clear"
"2011-11-02 12:00","2011","11","02","12:00"," ","6.7","","-2.8","","51","","25","","24","","24.1","","99.43","","","","","","Clear"
"2011-11-02 13:00","2011","11","02","13:00"," ","8.4","","-4.1","","41","","27","","24","","24.1","","99.37","","","","","","Clear"
"2011-11-02 14:00","2011","11","02","14:00"," ","8.6","","-5.1","","37","","28","","28","","24.1","","99.33","","","","","","Mainly Clear"
"2011-11-02 15:00","2011","11","02","15:00"," ","8.9","","-5.5","","36","","27","","26","","24.1","","99.29","","","","","","Mainly Clear"
"2011-11-02 16:00","2011","11","02","16:00"," ","7.9","","-6.5","","35","","28","","19","","24.1","","99.28","","","","","","Mainly Clear"
"2011-11-02 17:00","2011","11","02","17:00"," ","5.4","","-6.8","","41","","23","","9","","24.1","","99.27","","","","","","Mainly Clear"
"2011-11-02 18:00","2011","11","02","18:00"," ","3.4","","-6.5","","48","","22","","13","","24.1","","99.26","","","","","","Mainly Clear"
"2011-11-02 19:00","2011","11","02","19:00"," ","2.0","","-6.4","","54","","22","","13","","24.1","","99.25","","","","","","Clear"
"2011-11-02 20:00","2011","11","02","20:00"," ","1.6","","-7.4","","51","","22","","15","","24.1","","99.20","","","","","","Clear"
"2011-11-02 21:00","2011","11","02","21:00"," ","0.5","","-7.8","","54","","21","","15","","24.1","","99.22","","","","","","Clear"
"2011-11-02 22:00","2011","11","02","22:00"," ","0.7","","-7.3","","55","","21","","17","","24.1","","99.21","","","","","","Clear"
"2011-11-02 23:00","2011","11","02","23:00"," ","0.0","","-7.5","","57","","23","","17","","24.1","","99.20","","","","-5","","Clear"
"2011-11-03 00:00","2011","11","03","00:00"," ","-0.1","","-7.6","","57","","21","","17","","24.1","","99.17","","","","-5","","Clear"
"2011-11-03 01:00","2011","11","03","01:00"," ","-0.9","","-7.9","","59","","19","","17","","24.1","","99.14","","","","-6","","Clear"
"2011-11-03 02:00","2011","11","03","02:00"," ","-0.4","","-7.8","","57","","20","","19","","24.1","","99.11","","","","-6","","Clear"
"2011-11-03 03:00","2011","11","03","03:00"," ","-0.1","","-7.5","","57","","20","","22","","24.1","","99.09","","","","-6","","Clear"
"2011-11-03 04:00","2011","11","03","04:00"," ","-0.5","","-7.6","","59","","20","","20","","24.1","","99.02","","","","-6","","Clear"
"2011-11-03 05:00","2011","11","03","05:00"," ","-1.8","","-7.7","","64","","19","","17","","24.1","","99.00","","","","-7","","Clear"
"2011-11-03 06:00","2011","11","03","06:00"," ","-1.7","","-7.7","","64","","20","","20","","24.1","","98.96","","","","-7","","Mainly Clear"
"2011-11-03 07:00","2011","11","03","07:00"," ","-1.8","","-7.7","","64","","19","","19","","24.1","","98.96","","","","-7","","Mainly Clear"
"2011-11-03 08:00","2011","11","03","08:00"," ","-2.4","","-7.8","","66","","18","","17","","24.1","","98.98","","","","-8","","Mostly Cloudy"
"2011-11-03 09:00","2011","11","03","09:00"," ","-0.5","","-7.4","","60","","19","","19","","24.1","","98.97","","","","-6","","Mostly Cloudy"
"2011-11-03 10:00","2011","11","03","10:00"," ","2.0","","-6.3","","54","","20","","20","","24.1","","98.94","","","","","","Mostly Cloudy"
"2011-11-03 11:00","2011","11","03","11:00"," ","4.4","","-5.2","","50","","18","","22","","24.1","","98.92","","","","","","Cloudy"
"2011-11-03 12:00","2011","11","03","12:00"," ","6.7","","-4.4","","45","","18","","22","","24.1","","98.89","","","","","","Cloudy"
"2011-11-03 13:00","2011","11","03","13:00"," ","8.1","","-3.8","","43","","19","","26","","24.1","","98.84","","","","","","Cloudy"
"2011-11-03 14:00","2011","11","03","14:00"," ","9.6","","-3.5","","39","","18","","24","","24.1","","98.77","","","","","","Cloudy"
"2011-11-03 15:00","2011","11","03","15:00"," ","11.0","","-4.5","","33","","19","","24","","24.1","","98.73","","","","","","Mostly Cloudy"
"2011-11-03 16:00","2011","11","03","16:00"," ","10.4","","-5.3","","33","","18","","24","","24.1","","98.70","","","","","","Mostly Cloudy"
"2011-11-03 17:00","2011","11","03","17:00"," ","5.8","","-5.4","","44","","16","","15","","24.1","","98.68","","","","","","Mostly Cloudy"
"2011-11-03 18:00","2011","11","03","18:00"," ","6.6","","-5.7","","41","","17","","19","","24.1","","98.68","","","","","","Mainly Clear"
"2011-11-03 19:00","2011","11","03","19:00"," ","5.8","","-6.3","","41","","17","","19","","24.1","","98.65","","","","","","Clear"
"2011-11-03 20:00","2011","11","03","20:00"," ","6.0","","-7.0","","39","","18","","28","","24.1","","98.57","","","","","","Clear"
"2011-11-03 21:00","2011","11","03","21:00"," ","5.8","","-6.6","","40","","18","","30","","24.1","","98.56","","","","","","Clear"
"2011-11-03 22:00","2011","11","03","22:00"," ","5.4","","-6.8","","41","","18","","33","","24.1","","98.53","","","","","","Clear"
"2011-11-03 23:00","2011","11","03","23:00"," ","4.9","","-6.7","","43","","18","","30","","24.1","","98.50","","","","","","Mostly Cloudy"
"2011-11-04 00:00","2011","11","04","00:00"," ","4.1","","-6.7","","45","","18","","30","","24.1","","98.48","","","","","","Mostly Cloudy"
"2011-11-04 01:00","2011","11","04","01:00"," ","4.3","","-6.5","","45","","18","","30","","24.1","","98.50","","","","","","Mostly Cloudy"
"2011-11-04 02:00","2011","11","04","02:00"," ","3.9","","-6.8","","46","","18","","24","","24.1","","98.51","","","","","","Cloudy"
"2011-11-04 03:00","2011","11","04","03:00"," ","3.5","","-6.7","","47","","17","","30","","24.1","","98.42","","","","","","Cloudy"
"2011-11-04 04:00","2011","11","04","04:00"," ","3.6","","-6.5","","48","","18","","32","","24.1","","98.32","","","","","","Cloudy"
"2011-11-04 05:00","2011","11","04","05:00"," ","3.8","","-6.6","","47","","18","","33","","24.1","","98.26","","","","","","Cloudy"
"2011-11-04 06:00","2011","11","04","06:00"," ","4.4","","-7.0","","43","","18","","37","","24.1","","98.19","","","","","","Mostly Cloudy"
"2011-11-04 07:00","2011","11","04","07:00"," ","4.1","","-7.0","","44","","18","","39","","24.1","","98.15","","","","","","Mostly Cloudy"
"2011-11-04 08:00","2011","11","04","08:00"," ","3.7","","-7.1","","45","","18","","39","","24.1","","98.16","","","","","","Mostly Cloudy"
"2011-11-04 09:00","2011","11","04","09:00"," ","4.3","","-6.7","","45","","18","","41","","24.1","","98.07","","","","","","Mostly Cloudy"
"2011-11-04 10:00","2011","11","04","10:00"," ","5.7","","-6.5","","41","","18","","41","","24.1","","98.05","","","","","","Mostly Cloudy"
"2011-11-04 11:00","2011","11","04","11:00"," ","7.4","","-5.6","","39","","19","","43","","24.1","","98.00","","","","","","Mostly Cloudy"
"2011-11-04 12:00","2011","11","04","12:00"," ","8.2","","-5.0","","39","","19","","39","","24.1","","97.94","","","","","","Mostly Cloudy"
"2011-11-04 13:00","2011","11","04","13:00"," ","8.9","","-4.9","","37","","19","","41","","24.1","","97.88","","","","","","Mostly Cloudy"
"2011-11-04 14:00","2011","11","04","14:00"," ","10.4","","-3.9","","36","","20","","39","","24.1","","97.84","","","","","","Mostly Cloudy"
"2011-11-04 15:00","2011","11","04","15:00"," ","10.2","","-4.1","","36","","20","","43","","24.1","","97.83","","","","","","Mostly Cloudy"
"2011-11-04 16:00","2011","11","04","16:00"," ","10.0","","-4.0","","37","","20","","26","","24.1","","97.83","","","","","","Mostly Cloudy"
"2011-11-04 17:00","2011","11","04","17:00"," ","8.3","","-3.9","","42","","21","","20","","24.1","","97.81","","","","","","Mostly Cloudy"
"2011-11-04 18:00","2011","11","04","18:00"," ","7.2","","-4.1","","44","","20","","15","","24.1","","97.83","","","","","","Mainly Clear"
"2011-11-04 19:00","2011","11","04","19:00"," ","6.2","","-4.4","","47","","19","","19","","24.1","","97.82","","","","","","Clear"
"2011-11-04 20:00","2011","11","04","20:00"," ","3.4","","-4.7","","55","","18","","15","","24.1","","97.81","","","","","","Clear"
"2011-11-04 21:00","2011","11","04","21:00"," ","3.9","","-4.7","","53","","18","","17","","24.1","","97.80","","","","","","Clear"
"2011-11-04 22:00","2011","11","04","22:00"," ","4.7","","-5.2","","49","","18","","22","","24.1","","97.77","","","","","","Clear"
"2011-11-04 23:00","2011","11","04","23:00"," ","3.7","","-6.7","","47","","19","","19","","24.1","","97.75","","","","","","Clear"
"2011-11-05 00:00","2011","11","05","00:00"," ","4.5","","-6.3","","45","","19","","22","","24.1","","97.73","","","","","","Clear"
"2011-11-05 01:00","2011","11","05","01:00"," ","3.5","","-5.9","","50","","19","","20","","24.1","","97.72","","","","","","Mainly Clear"
"2011-11-05 02:00","2011","11","05","02:00"," ","3.4","","-5.4","","52","","18","","20","","24.1","","97.73","","","","","","Mainly Clear"
"2011-11-05 03:00","2011","11","05","03:00"," ","2.9","","-5.0","","56","","18","","20","","24.1","","97.70","","","","","","Mainly Clear"
"2011-11-05 04:00","2011","11","05","04:00"," ","2.4","","-4.5","","60","","17","","19","","24.1","","97.67","","","","","","Mainly Clear"
"2011-11-05 05:00","2011","11","05","05:00"," ","2.4","","-4.0","","63","","19","","15","","24.1","","97.68","","","","","","Mainly Clear"
"2011-11-05 06:00","2011","11","05","06:00"," ","1.2","","-4.0","","68","","17","","13","","24.1","","97.65","","","","","","Mostly Cloudy"
"2011-11-05 07:00","2011","11","05","07:00"," ","0.9","","-3.4","","73","","16","","15","","24.1","","97.59","","","","","","Mostly Cloudy"
"2011-11-05 08:00","2011","11","05","08:00"," ","3.0","","-2.0","","70","","17","","13","","24.1","","97.60","","","","","","Cloudy"
"2011-11-05 09:00","2011","11","05","09:00"," ","5.1","","-0.8","","66","","18","","15","","24.1","","97.62","","","","","","Cloudy"
"2011-11-05 10:00","2011","11","05","10:00"," ","4.8","","-0.8","","67","","15","","15","","24.1","","97.61","","","","","","Cloudy"
"2011-11-05 11:00","2011","11","05","11:00"," ","6.2","","-0.1","","64","","14","","17","","24.1","","97.59","","","","","","Cloudy"
"2011-11-05 12:00","2011","11","05","12:00"," ","7.5","","0.5","","61","","14","","15","","24.1","","97.56","","","","","","Mostly Cloudy"
"2011-11-05 13:00","2011","11","05","13:00"," ","8.1","","1.1","","61","","13","","19","","24.1","","97.47","","","","","","Mostly Cloudy"
"2011-11-05 14:00","2011","11","05","14:00"," ","8.5","","1.3","","60","","10","","26","","24.1","","97.36","","","","","","Cloudy"
"2011-11-05 15:00","2011","11","05","15:00"," ","9.3","","1.2","","57","","11","","26","","24.1","","97.31","","","","","","Cloudy"
"2011-11-05 16:00","2011","11","05","16:00"," ","8.9","","1.4","","59","","10","","17","","24.1","","97.30","","","","","","Cloudy"
"2011-11-05 17:00","2011","11","05","17:00"," ","8.5","","1.3","","60","","8","","19","","24.1","","97.30","","","","","","Cloudy"
"2011-11-05 18:00","2011","11","05","18:00"," ","7.5","","2.0","","68","","7","","20","","24.1","","97.27","","","","","","Cloudy"
"2011-11-05 19:00","2011","11","05","19:00"," ","6.6","","2.0","","72","","6","","26","","24.1","","97.21","","","","","","Cloudy"
"2011-11-05 20:00","2011","11","05","20:00"," ","6.6","","2.0","","72","","7","","19","","24.1","","97.15","","","","","","Mostly Cloudy"
"2011-11-05 21:00","2011","11","05","21:00"," ","6.7","","2.0","","72","","8","","19","","24.1","","97.06","","","","","","Mostly Cloudy"
"2011-11-05 22:00","2011","11","05","22:00"," ","7.6","","2.1","","68","","10","","26","","24.1","","97.01","","","","","","Mostly Cloudy"
"2011-11-05 23:00","2011","11","05","23:00"," ","7.6","","2.2","","69","","11","","24","","24.1","","96.93","","","","","","Mostly Cloudy"
"2011-11-06 00:00","2011","11","06","00:00"," ","7.9","","2.6","","69","","11","","22","","24.1","","96.84","","","","","","Cloudy"
"2011-11-06 01:00","2011","11","06","01:00"," ","8.1","","3.0","","70","","12","","20","","24.1","","96.76","","","","","","Cloudy"
"2011-11-06 02:00","2011","11","06","02:00"," ","9.6","","3.9","","68","","13","","26","","24.1","","96.69","","","","","","Cloudy"
"2011-11-06 03:00","2011","11","06","03:00"," ","9.7","","4.5","","70","","12","","26","","24.1","","96.59","","","","","","Cloudy"
"2011-11-06 04:00","2011","11","06","04:00"," ","9.6","","5.2","","74","","14","","28","","24.1","","96.48","","","","","","Mostly Cloudy"
"2011-11-06 05:00","2011","11","06","05:00"," ","9.3","","5.1","","75","","15","","32","","24.1","","96.42","","","","","","Mostly Cloudy"
"2011-11-06 06:00","2011","11","06","06:00"," ","9.3","","5.4","","77","","16","","28","","24.1","","96.35","","","","","","Cloudy"
"2011-11-06 07:00","2011","11","06","07:00"," ","9.3","","5.9","","79","","15","","24","","24.1","","96.30","","","","","","Rain"
"2011-11-06 08:00","2011","11","06","08:00"," ","9.3","","6.0","","80","","15","","19","","24.1","","96.25","","","","","","Rain"
"2011-11-06 09:00","2011","11","06","09:00"," ","8.6","","7.0","","90","","13","","17","","9.7","","96.16","","","","","","Rain,Fog"
"2011-11-06 10:00","2011","11","06","10:00"," ","8.2","","7.8","","97","","13","","15","","9.7","","96.06","","","","","","Rain,Fog"
"2011-11-06 11:00","2011","11","06","11:00"," ","8.4","","6.2","","86","","18","","26","","16.1","","96.02","","","","","","Cloudy"
"2011-11-06 12:00","2011","11","06","12:00"," ","7.1","","3.9","","80","","19","","33","","24.1","","96.04","","","","","","Cloudy"
"2011-11-06 13:00","2011","11","06","13:00"," ","6.2","","2.9","","79","","19","","32","","24.1","","96.03","","","","","","Cloudy"
"2011-11-06 14:00","2011","11","06","14:00"," ","5.8","","3.1","","83","","22","","35","","19.3","","96.08","","","","","","Cloudy"
"2011-11-06 15:00","2011","11","06","15:00"," ","4.9","","2.4","","84","","23","","32","","16.1","","96.18","","","","","","Rain"
"2011-11-06 16:00","2011","11","06","16:00"," ","4.1","","1.3","","82","","23","","32","","24.1","","96.29","","","","","","Rain"
"2011-11-06 17:00","2011","11","06","17:00"," ","2.8","","1.7","","92","","22","","26","","8.0","","96.39","","","","","","Rain,Fog"
"2011-11-06 18:00","2011","11","06","18:00"," ","1.9","","1.1","","94","","23","","32","","8.0","","96.45","","","","","","Rain,Fog"
"2011-11-06 19:00","2011","11","06","19:00"," ","0.9","","0.5","","97","","22","","35","","6.4","","96.51","","","","","","Rain,Snow,Fog"
"2011-11-06 20:00","2011","11","06","20:00"," ","0.6","","0.2","","97","","23","","26","","3.2","","96.58","","","","","","Snow,Fog"
"2011-11-06 21:00","2011","11","06","21:00"," ","0.6","","0.3","","98","","24","","22","","3.2","","96.67","","","","","","Rain,Snow,Fog"
"2011-11-06 22:00","2011","11","06","22:00"," ","0.5","","0.2","","98","","26","","28","","4.0","","96.77","","","","","","Rain,Snow"
"2011-11-06 23:00","2011","11","06","23:00"," ","0.6","","0.1","","96","","27","","33","","6.4","","96.91","","","","","","Snow"
"2011-11-07 00:00","2011","11","07","00:00"," ","0.0","","0.0","","100","","28","","37","","3.2","","97.06","","","","-7","","Snow"
"2011-11-07 01:00","2011","11","07","01:00"," ","0.0","","0.0","","100","","28","","33","","6.4","","97.20","","","","-7","","Snow"
"2011-11-07 02:00","2011","11","07","02:00"," ","-0.1","","-0.4","","98","","28","","35","","4.8","","97.36","","","","-7","","Snow"
"2011-11-07 03:00","2011","11","07","03:00"," ","-0.3","","-0.7","","97","","28","","37","","4.0","","97.53","","","","-8","","Snow"
"2011-11-07 04:00","2011","11","07","04:00"," ","-0.5","","-0.7","","99","","28","","37","","4.0","","97.67","","","","-8","","Snow"
"2011-11-07 05:00","2011","11","07","05:00"," ","-0.9","","-1.2","","98","","28","","35","","4.8","","97.82","","","","-8","","Snow"
"2011-11-07 06:00","2011","11","07","06:00"," ","-0.6","","-1.1","","96","","28","","35","","9.7","","97.96","","","","-8","","Snow"
"2011-11-07 07:00","2011","11","07","07:00"," ","-0.5","","-1.6","","92","","28","","33","","16.1","","98.09","","","","-7","","Snow"
"2011-11-07 08:00","2011","11","07","08:00"," ","-0.3","","-2.1","","88","","29","","28","","24.1","","98.22","","","","-7","","Snow"
"2011-11-07 09:00","2011","11","07","09:00"," ","-0.2","","-1.9","","88","","29","","24","","24.1","","98.35","","","","-6","","Snow"
"2011-11-07 10:00","2011","11","07","10:00"," ","0.1","","-1.9","","86","","28","","30","","24.1","","98.47","","","","","","Cloudy"
"2011-11-07 11:00","2011","11","07","11:00"," ","-0.2","","-1.9","","88","","27","","19","","24.1","","98.59","","","","-5","","Cloudy"
"2011-11-07 12:00","2011","11","07","12:00"," ","-0.2","","-2.4","","85","","27","","26","","24.1","","98.69","","","","-6","","Cloudy"
"2011-11-07 13:00","2011","11","07","13:00"," ","0.0","","-2.6","","83","","26","","20","","24.1","","98.78","","","","-5","","Cloudy"
"2011-11-07 14:00","2011","11","07","14:00"," ","0.3","","-2.7","","80","","27","","20","","24.1","","98.83","","","","","","Cloudy"
"2011-11-07 15:00","2011","11","07","15:00"," ","0.7","","-2.5","","79","","27","","17","","24.1","","98.90","","","","","","Cloudy"
"2011-11-07 16:00","2011","11","07","16:00"," ","0.7","","-2.6","","79","","26","","11","","24.1","","98.97","","","","","","Mostly Cloudy"
"2011-11-07 17:00","2011","11","07","17:00"," ","-2.2","","-3.9","","88","","28","","11","","24.1","","98.99","","","","-6","","Mainly Clear"
"2011-11-07 18:00","2011","11","07","18:00"," ","-1.7","","-3.3","","89","","25","","6","","24.1","","99.04","","","","-4","","Clear"
"2011-11-07 19:00","2011","11","07","19:00"," ","-2.9","","-4.7","","87","","21","","7","","24.1","","99.10","","","","-6","","Clear"
"2011-11-07 20:00","2011","11","07","20:00"," ","-3.7","","-4.5","","94","","19","","6","","24.1","","99.14","","","","-6","","Clear"
"2011-11-07 21:00","2011","11","07","21:00"," ","-3.0","","-4.8","","87","","21","","9","","24.1","","99.19","","","","-7","","Clear"
"2011-11-07 22:00","2011","11","07","22:00"," ","-4.2","","-5.9","","88","","21","","9","","24.1","","99.21","","","","-8","","Clear"
"2011-11-07 23:00","2011","11","07","23:00"," ","-4.4","","-6.3","","87","","22","","13","","24.1","","99.20","","","","-9","","Clear"
"2011-11-08 00:00","2011","11","08","00:00"," ","-5.3","","-7.1","","87","","22","","11","","24.1","","99.17","","","","-10","","Clear"
"2011-11-08 01:00","2011","11","08","01:00"," ","-5.9","","-7.4","","89","","23","","9","","24.1","","99.13","","","","-10","","Clear"
"2011-11-08 02:00","2011","11","08","02:00"," ","-7.3","","-8.5","","91","","19","","6","","24.1","","99.14","","","","-10","","Mainly Clear"
"2011-11-08 03:00","2011","11","08","03:00"," ","-7.7","","-9.4","","88","","17","","7","","24.1","","99.17","","","","-11","","Clear"
"2011-11-08 04:00","2011","11","08","04:00"," ","-6.5","","-7.3","","94","","20","","7","","24.1","","99.15","","","","-10","","Mainly Clear"
"2011-11-08 05:00","2011","11","08","05:00"," ","-7.0","","-7.9","","93","","21","","7","","24.1","","99.14","","","","-11","","Clear"
"2011-11-08 06:00","2011","11","08","06:00"," ","-8.2","","-9.2","","92","","","","0","","9.7","","99.13","","","","","","Fog"
"2011-11-08 07:00","2011","11","08","07:00"," ","-8.0","","-8.5","","96","","18","","9","","9.7","","99.14","","","","-13","","Fog"
"2011-11-08 08:00","2011","11","08","08:00"," ","-7.6","","-8.5","","93","","18","","15","","9.7","","99.18","","","","-14","","Fog"
"2011-11-08 09:00","2011","11","08","09:00"," ","-4.8","","-5.9","","92","","18","","11","","12.9","","99.18","","","","-9","","Mainly Clear"
"2011-11-08 10:00","2011","11","08","10:00"," ","-2.8","","-4.6","","87","","17","","11","","19.3","","99.10","","","","-7","","Clear"
"2011-11-08 11:00","2011","11","08","11:00"," ","-0.7","","-3.5","","81","","17","","9","","19.3","","99.09","","","","-4","","Clear"
"2011-11-08 12:00","2011","11","08","12:00"," ","0.2","","-2.4","","83","","16","","7","","24.1","","99.03","","","","","","Clear"
"2011-11-08 13:00","2011","11","08","13:00"," ","1.5","","-1.8","","79","","15","","7","","24.1","","98.97","","","","","","Clear"
"2011-11-08 14:00","2011","11","08","14:00"," ","2.5","","-1.2","","77","","18","","13","","24.1","","98.96","","","","","","Clear"
"2011-11-08 15:00","2011","11","08","15:00"," ","2.6","","-0.5","","80","","17","","11","","24.1","","98.95","","","","","","Clear"
"2011-11-08 16:00","2011","11","08","16:00"," ","2.4","","-0.4","","82","","16","","11","","24.1","","98.94","","","","","","Clear"
"2011-11-08 17:00","2011","11","08","17:00"," ","0.7","","-1.3","","86","","15","","11","","24.1","","98.95","","","","","","Mainly Clear"
"2011-11-08 18:00","2011","11","08","18:00"," ","-0.5","","-2.0","","90","","13","","9","","24.1","","98.92","","","","-4","","Mainly Clear"
"2011-11-08 19:00","2011","11","08","19:00"," ","-0.7","","-2.2","","90","","15","","9","","24.1","","98.90","","","","-4","","Mainly Clear"
"2011-11-08 20:00","2011","11","08","20:00"," ","-1.9","","-3.4","","89","","14","","7","","24.1","","98.88","","","","-5","","Clear"
"2011-11-08 21:00","2011","11","08","21:00"," ","-1.5","","-3.4","","87","","15","","13","","24.1","","98.86","","","","-6","","Mostly Cloudy"
"2011-11-08 22:00","2011","11","08","22:00"," ","-1.2","","-3.1","","87","","16","","9","","24.1","","98.83","","","","-4","","Mostly Cloudy"
"2011-11-08 23:00","2011","11","08","23:00"," ","0.9","","-3.0","","75","","19","","15","","24.1","","98.79","","","","","","Mostly Cloudy"
"2011-11-09 00:00","2011","11","09","00:00"," ","0.6","","-3.0","","77","","23","","15","","24.1","","98.77","","","","","","Mostly Cloudy"
"2011-11-09 01:00","2011","11","09","01:00"," ","-0.7","","-3.1","","84","","26","","17","","24.1","","98.80","","","","-6","","Mainly Clear"
"2011-11-09 02:00","2011","11","09","02:00"," ","-1.9","","-3.8","","87","","25","","17","","24.1","","98.82","","","","-7","","Clear"
"2011-11-09 03:00","2011","11","09","03:00"," ","-2.3","","-4.3","","86","","25","","19","","24.1","","98.83","","","","-8","","Clear"
"2011-11-09 04:00","2011","11","09","04:00"," ","-2.8","","-4.7","","87","","26","","15","","24.1","","98.83","","","","-8","","Mostly Cloudy"
"2011-11-09 05:00","2011","11","09","05:00"," ","-2.9","","-4.7","","87","","27","","17","","24.1","","98.84","","","","-8","","Mostly Cloudy"
"2011-11-09 06:00","2011","11","09","06:00"," ","-2.4","","-4.1","","88","","26","","15","","24.1","","98.85","","","","-7","","Cloudy"
"2011-11-09 07:00","2011","11","09","07:00"," ","-2.0","","-3.8","","87","","28","","19","","24.1","","98.87","","","","-8","","Cloudy"
"2011-11-09 08:00","2011","11","09","08:00"," ","-2.3","","-4.2","","87","","26","","19","","24.1","","98.90","","","","-8","","Cloudy"
"2011-11-09 09:00","2011","11","09","09:00"," ","-2.0","","-3.7","","88","","28","","26","","16.1","","98.92","","","","-9","","Cloudy"
"2011-11-09 10:00","2011","11","09","10:00"," ","-0.9","","-2.1","","92","","28","","24","","19.3","","98.94","","","","-7","","Cloudy"
"2011-11-09 11:00","2011","11","09","11:00"," ","0.3","","-1.5","","88","","30","","22","","19.3","","98.98","","","","","","Snow"
"2011-11-09 12:00","2011","11","09","12:00"," ","0.6","","-1.4","","86","","32","","30","","16.1","","98.97","","","","","","Snow"
"2011-11-09 13:00","2011","11","09","13:00"," ","0.4","","-1.8","","85","","32","","30","","16.1","","98.97","","","","","","Snow"
"2011-11-09 14:00","2011","11","09","14:00"," ","0.6","","-1.5","","86","","32","","26","","16.1","","98.98","","","","","","Snow"
"2011-11-09 15:00","2011","11","09","15:00"," ","0.7","","-1.1","","88","","32","","28","","16.1","","98.97","","","","","","Snow"
"2011-11-09 16:00","2011","11","09","16:00"," ","0.6","","-0.9","","90","","32","","24","","9.7","","98.99","","","","","","Snow"
"2011-11-09 17:00","2011","11","09","17:00"," ","0.6","","-0.7","","91","","32","","22","","16.1","","99.00","","","","","","Snow"
"2011-11-09 18:00","2011","11","09","18:00"," ","0.6","","-0.8","","90","","32","","24","","24.1","","99.00","","","","","","Cloudy"
"2011-11-09 19:00","2011","11","09","19:00"," ","0.8","","-0.9","","88","","32","","28","","24.1","","98.99","","","","","","Cloudy"
"2011-11-09 20:00","2011","11","09","20:00"," ","0.6","","-1.2","","88","","32","","26","","24.1","","98.98","","","","","","Cloudy"
"2011-11-09 21:00","2011","11","09","21:00"," ","0.4","","-1.3","","88","","32","","26","","24.1","","99.00","","","","","","Snow Showers"
"2011-11-09 22:00","2011","11","09","22:00"," ","0.5","","-1.9","","84","","32","","33","","24.1","","99.01","","","","","","Snow Showers"
"2011-11-09 23:00","2011","11","09","23:00"," ","0.2","","-2.0","","85","","32","","30","","24.1","","99.01","","","","","","Snow Showers"
"2011-11-10 00:00","2011","11","10","00:00"," ","-0.1","","-2.4","","84","","32","","28","","24.1","","99.01","","","","-6","","Mostly Cloudy"
"2011-11-10 01:00","2011","11","10","01:00"," ","0.2","","-2.5","","82","","32","","26","","24.1","","99.03","","","","","","Cloudy"
"2011-11-10 02:00","2011","11","10","02:00"," ","0.1","","-2.5","","83","","33","","22","","24.1","","99.04","","","","","","Cloudy"
"2011-11-10 03:00","2011","11","10","03:00"," ","-0.2","","-2.5","","84","","32","","22","","24.1","","99.07","","","","-6","","Cloudy"
"2011-11-10 04:00","2011","11","10","04:00"," ","-0.8","","-3.2","","84","","32","","24","","24.1","","99.07","","","","-7","","Mostly Cloudy"
"2011-11-10 05:00","2011","11","10","05:00"," ","-1.5","","-4.2","","82","","32","","28","","24.1","","99.10","","","","-8","","Mostly Cloudy"
"2011-11-10 06:00","2011","11","10","06:00"," ","-2.8","","-4.7","","87","","32","","20","","24.1","","99.09","","","","-9","","Mainly Clear"
"2011-11-10 07:00","2011","11","10","07:00"," ","-3.9","","-5.7","","87","","32","","15","","24.1","","99.07","","","","-9","","Mainly Clear"
"2011-11-10 08:00","2011","11","10","08:00"," ","-5.1","","-6.6","","89","","31","","13","","24.1","","99.06","","","","-10","","Mainly Clear"
"2011-11-10 09:00","2011","11","10","09:00"," ","-3.7","","-5.7","","86","","28","","7","","24.1","","99.01","","","","-7","","Mainly Clear"
"2011-11-10 10:00","2011","11","10","10:00"," ","-1.7","","-4.4","","82","","29","","22","","24.1","","99.01","","","","-8","","Mainly Clear"
"2011-11-10 11:00","2011","11","10","11:00"," ","-0.8","","-3.2","","84","","28","","19","","24.1","","98.98","","","","-6","","Mainly Clear"
"2011-11-10 12:00","2011","11","10","12:00"," ","0.3","","-3.6","","75","","28","","19","","24.1","","98.87","","","","","","Mainly Clear"
"2011-11-10 13:00","2011","11","10","13:00"," ","0.9","","-3.7","","71","","27","","20","","24.1","","98.82","","","","","","Mainly Clear"
"2011-11-10 14:00","2011","11","10","14:00"," ","1.6","","-4.0","","66","","26","","13","","24.1","","98.70","","","","","","Mainly Clear"
"2011-11-10 15:00","2011","11","10","15:00"," ","1.3","","-5.2","","62","","23","","11","","24.1","","98.58","","","","","","Mostly Cloudy"
"2011-11-10 16:00","2011","11","10","16:00"," ","0.1","","-4.9","","69","","21","","11","","24.1","","98.52","","","","","","Mostly Cloudy"
"2011-11-10 17:00","2011","11","10","17:00"," ","-1.5","","-5.2","","76","","15","","7","","24.1","","98.44","","","","-4","","Mostly Cloudy"
"2011-11-10 18:00","2011","11","10","18:00"," ","-0.2","","-4.6","","72","","15","","17","","24.1","","98.27","","","","-5","","Mostly Cloudy"
"2011-11-10 19:00","2011","11","10","19:00"," ","-0.2","","-4.8","","71","","15","","15","","24.1","","98.13","","","","-5","","Mostly Cloudy"
"2011-11-10 20:00","2011","11","10","20:00"," ","0.5","","-5.7","","63","","16","","19","","24.1","","98.06","","","","","","Cloudy"
"2011-11-10 21:00","2011","11","10","21:00"," ","0.7","","-5.8","","62","","17","","24","","24.1","","97.94","","","","","","Cloudy"
"2011-11-10 22:00","2011","11","10","22:00"," ","1.1","","-6.1","","59","","15","","26","","24.1","","97.77","","","","","","Cloudy"
"2011-11-10 23:00","2011","11","10","23:00"," ","0.6","","-5.1","","66","","14","","24","","24.1","","97.62","","","","","","Cloudy"
"2011-11-11 00:00","2011","11","11","00:00"," ","1.4","","-5.8","","59","","16","","28","","24.1","","97.48","","","","","","Cloudy"
"2011-11-11 01:00","2011","11","11","01:00"," ","1.3","","-5.0","","63","","17","","26","","24.1","","97.35","","","","","","Cloudy"
"2011-11-11 02:00","2011","11","11","02:00"," ","1.3","","-4.7","","64","","18","","28","","24.1","","97.24","","","","","","Mostly Cloudy"
"2011-11-11 03:00","2011","11","11","03:00"," ","1.4","","-4.6","","64","","18","","26","","24.1","","97.13","","","","","","Cloudy"
"2011-11-11 04:00","2011","11","11","04:00"," ","1.6","","-4.8","","62","","18","","28","","24.1","","97.02","","","","","","Mostly Cloudy"
"2011-11-11 05:00","2011","11","11","05:00"," ","1.9","","-4.8","","61","","20","","26","","24.1","","96.99","","","","","","Mostly Cloudy"
"2011-11-11 06:00","2011","11","11","06:00"," ","1.3","","-4.7","","64","","21","","19","","24.1","","96.94","","","","","","Mostly Cloudy"
"2011-11-11 07:00","2011","11","11","07:00"," ","0.3","","-4.3","","71","","21","","17","","24.1","","96.86","","","","","","Mostly Cloudy"
"2011-11-11 08:00","2011","11","11","08:00"," ","0.1","","-3.8","","75","","23","","17","","24.1","","96.85","","","","","","Mostly Cloudy"
"2011-11-11 09:00","2011","11","11","09:00"," ","1.2","","-2.6","","76","","26","","20","","24.1","","96.86","","","","","","Mainly Clear"
"2011-11-11 10:00","2011","11","11","10:00"," ","3.2","","-0.6","","76","","28","","24","","24.1","","96.87","","","","","","Mainly Clear"
"2011-11-11 11:00","2011","11","11","11:00"," ","4.2","","0.6","","77","","30","","28","","24.1","","96.92","","","","","","Mostly Cloudy"
"2011-11-11 12:00","2011","11","11","12:00"," ","4.4","","1.4","","81","","31","","26","","24.1","","96.96","","","","","","Mostly Cloudy"
"2011-11-11 13:00","2011","11","11","13:00"," ","4.5","","1.5","","81","","30","","22","","24.1","","97.01","","","","","","Cloudy"
"2011-11-11 14:00","2011","11","11","14:00"," ","4.3","","1.5","","82","","32","","22","","24.1","","97.03","","","","","","Cloudy"
"2011-11-11 15:00","2011","11","11","15:00"," ","4.2","","1.6","","83","","30","","15","","24.1","","97.06","","","","","","Mostly Cloudy"
"2011-11-11 16:00","2011","11","11","16:00"," ","4.1","","1.6","","84","","30","","13","","24.1","","97.08","","","","","","Mostly Cloudy"
"2011-11-11 17:00","2011","11","11","17:00"," ","3.7","","1.2","","84","","32","","11","","24.1","","97.10","","","","","","Mostly Cloudy"
"2011-11-11 18:00","2011","11","11","18:00"," ","2.7","","1.1","","89","","34","","7","","24.1","","97.07","","","","","","Cloudy"
"2011-11-11 19:00","2011","11","11","19:00"," ","2.6","","0.1","","84","","4","","13","","24.1","","97.06","","","","","","Cloudy"
"2011-11-11 20:00","2011","11","11","20:00"," ","2.1","","0.0","","86","","","","0","","24.1","","97.08","","","","","","Cloudy"
"2011-11-11 21:00","2011","11","11","21:00"," ","1.1","","-0.8","","87","","15","","4","","24.1","","97.05","","","","","","Mostly Cloudy"
"2011-11-11 22:00","2011","11","11","22:00"," ","0.0","","-1.3","","91","","7","","4","","24.1","","97.07","","","","-1","","Cloudy"
"2011-11-11 23:00","2011","11","11","23:00"," ","0.4","","-0.7","","92","","9","","6","","24.1","","97.04","","","","","","Cloudy"
"2011-11-12 00:00","2011","11","12","00:00"," ","0.3","","-1.1","","90","","10","","9","","24.1","","97.00","","","","","","Cloudy"
"2011-11-12 01:00","2011","11","12","01:00"," ","1.1","","-0.7","","88","","11","","9","","24.1","","96.97","","","","","","Mostly Cloudy"
"2011-11-12 02:00","2011","11","12","02:00"," ","0.9","","-1.1","","86","","10","","13","","24.1","","96.93","","","","","","Cloudy"
"2011-11-12 03:00","2011","11","12","03:00"," ","0.8","","-2.0","","82","","10","","13","","24.1","","96.92","","","","","","Cloudy"
"2011-11-12 04:00","2011","11","12","04:00"," ","-1.1","","-2.8","","88","","13","","6","","24.1","","96.93","","","","-3","","Mostly Cloudy"
"2011-11-12 05:00","2011","11","12","05:00"," ","-1.3","","-2.8","","90","","9","","13","","24.1","","96.88","","","","-6","","Mainly Clear"
"2011-11-12 06:00","2011","11","12","06:00"," ","-0.9","","-2.4","","90","","10","","15","","24.1","","96.85","","","","-6","","Mainly Clear"
"2011-11-12 07:00","2011","11","12","07:00"," ","-0.6","","-2.0","","90","","9","","15","","24.1","","96.77","","","","-5","","Mainly Clear"
"2011-11-12 08:00","2011","11","12","08:00"," ","-0.8","","-1.7","","94","","8","","13","","24.1","","96.76","","","","-5","","Mostly Cloudy"
"2011-11-12 09:00","2011","11","12","09:00"," ","0.2","","-0.9","","92","","9","","15","","24.1","","96.70","","","","","","Cloudy"
"2011-11-12 10:00","2011","11","12","10:00"," ","1.6","","0.2","","90","","10","","15","","24.1","","96.63","","","","","","Cloudy"
"2011-11-12 11:00","2011","11","12","11:00"," ","2.3","","0.6","","89","","10","","15","","24.1","","96.56","","","","","","Cloudy"
"2011-11-12 12:00","2011","11","12","12:00"," ","2.8","","1.1","","89","","10","","15","","24.1","","96.45","","","","","","Cloudy"
"2011-11-12 13:00","2011","11","12","13:00"," ","3.7","","1.4","","85","","12","","15","","24.1","","96.30","","","","","","Cloudy"
"2011-11-12 14:00","2011","11","12","14:00"," ","4.4","","1.8","","83","","12","","13","","24.1","","96.22","","","","","","Cloudy"
"2011-11-12 15:00","2011","11","12","15:00"," ","4.9","","2.1","","82","","8","","7","","24.1","","96.08","","","","","","Cloudy"
"2011-11-12 16:00","2011","11","12","16:00"," ","4.3","","2.3","","87","","6","","4","","24.1","","96.05","","","","","","Cloudy"
"2011-11-12 17:00","2011","11","12","17:00"," ","3.6","","1.9","","89","","5","","9","","24.1","","95.94","","","","","","Cloudy"
"2011-11-12 18:00","2011","11","12","18:00"," ","2.9","","1.6","","91","","9","","11","","24.1","","95.87","","","","","","Cloudy"
"2011-11-12 19:00","2011","11","12","19:00"," ","3.1","","1.6","","90","","18","","9","","24.1","","95.82","","","","","","Rain,Snow"
"2011-11-12 20:00","2011","11","12","20:00"," ","1.1","","0.1","","93","","22","","7","","24.1","","95.74","","","","","","Mostly Cloudy"
"2011-11-12 21:00","2011","11","12","21:00"," ","0.7","","0.4","","98","","27","","11","","24.1","","95.68","","","","","","Cloudy"
"2011-11-12 22:00","2011","11","12","22:00"," ","0.8","","0.4","","97","","28","","26","","6.4","","95.71","","","","","","Fog"
"2011-11-12 23:00","2011","11","12","23:00"," ","1.0","","0.1","","94","","29","","20","","9.7","","95.70","","","","","","Fog"
"2011-11-13 00:00","2011","11","13","00:00"," ","1.4","","0.4","","93","","28","","20","","9.7","","95.74","","","","","","Fog"
"2011-11-13 01:00","2011","11","13","01:00"," ","1.9","","0.6","","91","","30","","19","","19.3","","95.74","","","","","","Cloudy"
"2011-11-13 02:00","2011","11","13","02:00"," ","1.8","","0.5","","91","","30","","17","","24.1","","95.76","","","","","","Cloudy"
"2011-11-13 03:00","2011","11","13","03:00"," ","1.5","","0.2","","91","","30","","24","","19.3","","95.80","","","","","","Cloudy"
"2011-11-13 04:00","2011","11","13","04:00"," ","1.3","","0.3","","93","","28","","20","","19.3","","95.83","","","","","","Cloudy"
"2011-11-13 05:00","2011","11","13","05:00"," ","0.9","","0.4","","96","","29","","19","","19.3","","95.87","","","","","","Cloudy"
"2011-11-13 06:00","2011","11","13","06:00"," ","0.5","","0.4","","99","","28","","20","","9.7","","95.92","","","","","","Drizzle,Fog"
"2011-11-13 07:00","2011","11","13","07:00"," ","0.6","","0.3","","98","","27","","17","","16.1","","95.98","","","","","","Drizzle"
"2011-11-13 08:00","2011","11","13","08:00"," ","0.5","","0.3","","99","","28","","17","","8.0","","96.03","","","","","","Fog"
"2011-11-13 09:00","2011","11","13","09:00"," ","0.7","","0.1","","96","","30","","17","","24.1","","96.04","","","","","","Cloudy"
"2011-11-13 10:00","2011","11","13","10:00"," ","1.1","","-1.2","","85","","31","","13","","24.1","","96.10","","","","","","Cloudy"
"2011-11-13 11:00","2011","11","13","11:00"," ","1.3","","-2.2","","77","","34","","17","","24.1","","96.12","","","","","","Cloudy"
"2011-11-13 12:00","2011","11","13","12:00"," ","1.2","","-2.6","","76","","32","","13","","24.1","","96.12","","","","","","Cloudy"
"2011-11-13 13:00","2011","11","13","13:00"," ","1.6","","-2.5","","74","","29","","7","","24.1","","96.12","","","","","","Mostly Cloudy"
"2011-11-13 14:00","2011","11","13","14:00"," ","1.4","","-2.8","","74","","30","","7","","24.1","","96.10","","","","","","Cloudy"
"2011-11-13 15:00","2011","11","13","15:00"," ","1.5","","-2.1","","77","","26","","7","","24.1","","96.12","","","","","","Cloudy"
"2011-11-13 16:00","2011","11","13","16:00"," ","1.3","","-1.9","","79","","26","","6","","9.7","","96.18","","","","","","Snow"
"2011-11-13 17:00","2011","11","13","17:00"," ","0.4","","-0.8","","92","","","","0","","4.8","","96.22","","","","","","Snow"
"2011-11-13 18:00","2011","11","13","18:00"," ","-0.1","","-0.4","","98","","","","0","","6.4","","96.25","","","","","","Snow"
"2011-11-13 19:00","2011","11","13","19:00"," ","-0.2","","-0.4","","99","","14","","4","","24.1","","96.26","","","","-1","","Snow"
"2011-11-13 20:00","2011","11","13","20:00"," ","0.1","","-0.1","","99","","9","","4","","4.0","","96.24","","","","","","Snow"
"2011-11-13 21:00","2011","11","13","21:00"," ","0.0","","-0.3","","98","","12","","13","","4.0","","96.23","","","","-4","","Snow"
"2011-11-13 22:00","2011","11","13","22:00"," ","0.1","","-0.4","","96","","12","","11","","4.8","","96.24","","","","","","Snow"
"2011-11-13 23:00","2011","11","13","23:00"," ","0.0","","-0.3","","98","","11","","9","","4.8","","96.20","","","","-3","","Snow"
"2011-11-14 00:00","2011","11","14","00:00"," ","0.0","","-0.3","","98","","9","","7","","19.3","","96.22","","","","-2","","Cloudy"
"2011-11-14 01:00","2011","11","14","01:00"," ","0.0","","-0.3","","98","","10","","9","","19.3","","96.23","","","","-3","","Cloudy"
"2011-11-14 02:00","2011","11","14","02:00"," ","0.0","","-0.3","","98","","10","","9","","9.7","","96.24","","","","-3","","Fog"
"2011-11-14 03:00","2011","11","14","03:00"," ","-0.1","","-0.3","","99","","12","","4","","19.3","","96.25","","","","-1","","Cloudy"
"2011-11-14 04:00","2011","11","14","04:00"," ","-0.1","","-0.3","","99","","13","","4","","19.3","","96.23","","","","-1","","Cloudy"
"2011-11-14 05:00","2011","11","14","05:00"," ","-0.2","","-0.3","","99","","27","","4","","19.3","","96.25","","","","-1","","Cloudy"
"2011-11-14 06:00","2011","11","14","06:00"," ","-0.1","","-0.1","","100","","32","","6","","9.7","","96.29","","","","-2","","Fog"
"2011-11-14 07:00","2011","11","14","07:00"," ","-0.2","","-0.2","","100","","22","","6","","3.2","","96.27","","","","-2","","Fog"
"2011-11-14 08:00","2011","11","14","08:00"," ","-0.6","","-0.6","","100","","22","","7","","0.8","","96.32","","","","-3","","Freezing Fog"
"2011-11-14 09:00","2011","11","14","09:00"," ","-1.0","","-1.0","","100","","24","","6","","0.8","","96.31","","","","-3","","Freezing Fog"
"2011-11-14 10:00","2011","11","14","10:00"," ","-1.0","","-1.0","","100","","23","","9","","0.4","","96.30","","","","-4","","Freezing Fog"
"2011-11-14 11:00","2011","11","14","11:00"," ","-0.9","","-1.0","","99","","21","","11","","0.6","","96.31","","","","-5","","Freezing Fog"
"2011-11-14 12:00","2011","11","14","12:00"," ","-1.2","","-1.3","","99","","24","","17","","8.0","","96.33","","","","-6","","Fog"
"2011-11-14 13:00","2011","11","14","13:00"," ","-0.5","","-1.2","","95","","25","","13","","12.9","","96.31","","","","-5","","Cloudy"
"2011-11-14 14:00","2011","11","14","14:00"," ","0.2","","-0.4","","96","","22","","15","","24.1","","96.31","","","","","","Cloudy"
"2011-11-14 15:00","2011","11","14","15:00"," ","2.5","","0.4","","86","","27","","15","","24.1","","96.34","","","","","","Cloudy"
"2011-11-14 16:00","2011","11","14","16:00"," ","2.4","","0.4","","87","","28","","13","","24.1","","96.38","","","","","","Mostly Cloudy"
"2011-11-14 17:00","2011","11","14","17:00"," ","1.7","","-0.1","","88","","27","","11","","24.1","","96.48","","","","","","Mostly Cloudy"
"2011-11-14 18:00","2011","11","14","18:00"," ","-0.4","","-1.5","","92","","23","","11","","24.1","","96.52","","","","-4","","Mainly Clear"
"2011-11-14 19:00","2011","11","14","19:00"," ","0.2","","-1.0","","92","","21","","9","","24.1","","96.54","","","","","","Mostly Cloudy"
"2011-11-14 20:00","2011","11","14","20:00"," ","-0.9","","-1.9","","93","","17","","7","","24.1","","96.50","","","","-3","","Mainly Clear"
"2011-11-14 21:00","2011","11","14","21:00"," ","-1.9","","-2.1","","99","","24","","9","","24.1","","96.56","","","","-5","","Mainly Clear"
"2011-11-14 22:00","2011","11","14","22:00"," ","-0.8","","-2.8","","86","","25","","15","","24.1","","96.60","","","","-5","","Mainly Clear"
"2011-11-14 23:00","2011","11","14","23:00"," ","-0.6","","-2.9","","84","","25","","19","","24.1","","96.65","","","","-6","","Mostly Cloudy"
"2011-11-15 00:00","2011","11","15","00:00"," ","-0.6","","-2.1","","90","","27","","24","","24.1","","96.68","","","","-7","","Mostly Cloudy"
"2011-11-15 01:00","2011","11","15","01:00"," ","0.1","","-1.2","","91","","30","","32","","24.1","","96.77","","","","","","Snow Showers"
"2011-11-15 02:00","2011","11","15","02:00"," ","-0.8","","-2.0","","92","","30","","20","","24.1","","96.81","","","","-6","","Snow Showers"
"2011-11-15 03:00","2011","11","15","03:00"," ","-1.5","","-2.0","","96","","27","","11","","24.1","","96.87","","","","-5","","Mostly Cloudy"
"2011-11-15 04:00","2011","11","15","04:00"," ","-2.6","","-3.2","","96","","25","","11","","24.1","","96.90","","","","-7","","Clear"
"2011-11-15 05:00","2011","11","15","05:00"," ","-3.0","","-3.8","","94","","22","","13","","24.1","","96.93","","","","-8","","Clear"
"2011-11-15 06:00","2011","11","15","06:00"," ","-4.4","","-5.7","","91","","23","","13","","24.1","","96.97","","","","-9","","Clear"
"2011-11-15 07:00","2011","11","15","07:00"," ","-4.7","","-6.0","","91","","24","","13","","24.1","","97.02","","","","-10","","Mainly Clear"
"2011-11-15 08:00","2011","11","15","08:00"," ","-4.8","","-6.0","","91","","25","","13","","24.1","","97.08","","","","-10","","Mostly Cloudy"
"2011-11-15 09:00","2011","11","15","09:00"," ","-3.9","","-5.1","","91","","27","","7","","24.1","","97.13","","","","-7","","Mostly Cloudy"
"2011-11-15 10:00","2011","11","15","10:00"," ","-2.8","","-4.0","","91","","28","","11","","24.1","","97.21","","","","-7","","Mostly Cloudy"
"2011-11-15 11:00","2011","11","15","11:00"," ","-2.0","","-3.2","","91","","28","","13","","19.3","","97.25","","","","-6","","Snow"
"2011-11-15 12:00","2011","11","15","12:00"," ","-0.7","","-2.1","","90","","30","","20","","24.1","","97.25","","","","-6","","Snow"
"2011-11-15 13:00","2011","11","15","13:00"," ","-0.1","","-2.2","","86","","29","","24","","24.1","","97.29","","","","-6","","Mostly Cloudy"
"2011-11-15 14:00","2011","11","15","14:00"," ","-0.7","","-5.2","","72","","29","","30","","24.1","","97.36","","","","-7","","Mostly Cloudy"
"2011-11-15 15:00","2011","11","15","15:00"," ","-1.2","","-5.5","","73","","29","","28","","24.1","","97.43","","","","-8","","Mostly Cloudy"
"2011-11-15 16:00","2011","11","15","16:00"," ","-1.2","","-5.7","","71","","29","","24","","24.1","","97.51","","","","-7","","Cloudy"
"2011-11-15 17:00","2011","11","15","17:00"," ","-1.3","","-5.5","","73","","28","","20","","24.1","","97.60","","","","-7","","Cloudy"
"2011-11-15 18:00","2011","11","15","18:00"," ","-1.9","","-6.4","","71","","28","","35","","24.1","","97.68","","","","-9","","Cloudy"
"2011-11-15 19:00","2011","11","15","19:00"," ","-2.1","","-6.6","","71","","28","","26","","24.1","","97.75","","","","-9","","Cloudy"
"2011-11-15 20:00","2011","11","15","20:00"," ","-2.9","","-7.0","","73","","28","","28","","24.1","","97.80","","","","-10","","Mostly Cloudy"
"2011-11-15 21:00","2011","11","15","21:00"," ","-4.5","","-8.0","","76","","28","","24","","24.1","","97.86","","","","-12","","Mainly Clear"
"2011-11-15 22:00","2011","11","15","22:00"," ","-5.1","","-8.2","","79","","28","","19","","24.1","","97.90","","","","-12","","Mainly Clear"
"2011-11-15 23:00","2011","11","15","23:00"," ","-4.2","","-8.5","","72","","27","","28","","24.1","","97.95","","","","-12","","Mostly Cloudy"
"2011-11-16 00:00","2011","11","16","00:00"," ","-5.1","","-9.5","","71","","27","","24","","24.1","","97.99","","","","-12","","Mostly Cloudy"
"2011-11-16 01:00","2011","11","16","01:00"," ","-7.0","","-10.3","","77","","27","","20","","24.1","","98.03","","","","-14","","Mainly Clear"
"2011-11-16 02:00","2011","11","16","02:00"," ","-7.3","","-10.6","","77","","27","","19","","24.1","","98.05","","","","-14","","Mainly Clear"
"2011-11-16 03:00","2011","11","16","03:00"," ","-7.9","","-10.6","","81","","27","","19","","24.1","","98.08","","","","-15","","Clear"
"2011-11-16 04:00","2011","11","16","04:00"," ","-8.3","","-10.7","","83","","25","","15","","24.1","","98.13","","","","-15","","Mainly Clear"
"2011-11-16 05:00","2011","11","16","05:00"," ","-8.8","","-11.3","","82","","27","","17","","24.1","","98.16","","","","-16","","Mainly Clear"
"2011-11-16 06:00","2011","11","16","06:00"," ","-8.6","","-10.9","","83","","26","","17","","24.1","","98.22","","","","-15","","Mostly Cloudy"
"2011-11-16 07:00","2011","11","16","07:00"," ","-7.9","","-10.4","","82","","26","","19","","24.1","","98.27","","","","-15","","Mostly Cloudy"
"2011-11-16 08:00","2011","11","16","08:00"," ","-7.3","","-9.8","","82","","27","","22","","24.1","","98.30","","","","-15","","Snow Showers"
"2011-11-16 09:00","2011","11","16","09:00"," ","-6.6","","-8.6","","86","","26","","24","","8.0","","98.35","","","","-14","","Snow Showers"
"2011-11-16 10:00","2011","11","16","10:00"," ","-5.9","","-7.7","","87","","27","","30","","4.8","","98.36","","","","-14","","Snow Showers"
"2011-11-16 11:00","2011","11","16","11:00"," ","-4.9","","-6.7","","87","","28","","32","","9.7","","98.39","","","","-13","","Snow Showers"
"2011-11-16 12:00","2011","11","16","12:00"," ","-3.9","","-5.6","","88","","28","","33","","3.2","","98.43","","","","-12","","Snow Showers"
"2011-11-16 13:00","2011","11","16","13:00"," ","","","","","","","","","","","","","","","","","","",""
"2011-11-16 14:00","2011","11","16","14:00"," ","-2.8","","-6.9","","73","","31","","35","","16.1","","98.60","","","","-11","","Snow Showers"
"2011-11-16 15:00","2011","11","16","15:00"," ","-2.8","","-6.8","","74","","32","","33","","24.1","","98.67","","","","-10","","Cloudy"
"2011-11-16 16:00","2011","11","16","16:00"," ","-3.6","","-6.8","","78","","31","","26","","19.3","","98.75","","","","-11","","Snow Showers"
"2011-11-16 17:00","2011","11","16","17:00"," ","-4.2","","-7.2","","80","","31","","26","","24.1","","98.84","","","","-11","","Cloudy"
"2011-11-16 18:00","2011","11","16","18:00"," ","-4.6","","-7.9","","78","","32","","28","","16.1","","98.90","","","","-12","","Snow Showers"
"2011-11-16 19:00","2011","11","16","19:00"," ","-5.0","","-8.1","","79","","32","","20","","16.1","","98.94","","","","-12","","Snow Showers"
"2011-11-16 20:00","2011","11","16","20:00"," ","-5.7","","-9.7","","73","","32","","32","","19.3","","98.99","","","","-14","","Snow Showers"
"2011-11-16 21:00","2011","11","16","21:00"," ","-6.9","","-10.9","","73","","34","","20","","24.1","","99.03","","","","-14","","Snow Showers"
"2011-11-16 22:00","2011","11","16","22:00"," ","-7.3","","-10.9","","75","","34","","7","","24.1","","99.04","","","","-11","","Cloudy"
"2011-11-16 23:00","2011","11","16","23:00"," ","-7.6","","-12.2","","70","","34","","17","","24.1","","99.05","","","","-14","","Cloudy"
"2011-11-17 00:00","2011","11","17","00:00"," ","-7.8","","-11.6","","74","","33","","9","","24.1","","99.04","","","","-12","","Snow Showers"
"2011-11-17 01:00","2011","11","17","01:00"," ","-8.1","","-10.3","","84","","27","","11","","9.7","","99.05","","","","-13","","Snow Showers"
"2011-11-17 02:00","2011","11","17","02:00"," ","-9.1","","-11.0","","86","","28","","9","","24.1","","99.06","","","","-14","","Snow Showers"
"2011-11-17 03:00","2011","11","17","03:00"," ","-10.1","","-12.0","","86","","27","","15","","24.1","","99.05","","","","-17","","Snow Showers"
"2011-11-17 04:00","2011","11","17","04:00"," ","-9.6","","-11.3","","87","","26","","7","","9.7","","99.02","","","","-14","","Snow Showers"
"2011-11-17 05:00","2011","11","17","05:00"," ","-10.2","","-12.4","","84","","27","","17","","24.1","","99.02","","","","-17","","Snow Showers"
"2011-11-17 06:00","2011","11","17","06:00"," ","-11.3","","-13.4","","84","","27","","11","","19.3","","99.00","","","","-17","","Snow Showers"
"2011-11-17 07:00","2011","11","17","07:00"," ","-10.8","","-12.7","","86","","27","","7","","12.9","","99.00","","","","-15","","Snow Showers"
"2011-11-17 08:00","2011","11","17","08:00"," ","-10.2","","-12.1","","86","","27","","7","","16.1","","98.98","","","","-14","","Snow Showers"
"2011-11-17 09:00","2011","11","17","09:00"," ","-10.7","","-12.8","","84","","25","","9","","12.9","","99.03","","","","-16","","Snow Showers"
"2011-11-17 10:00","2011","11","17","10:00"," ","-10.6","","-12.7","","85","","26","","9","","16.1","","99.01","","","","-16","","Snow Showers"
"2011-11-17 11:00","2011","11","17","11:00"," ","-9.3","","-12.3","","79","","27","","9","","24.1","","98.97","","","","-14","","Snow Showers"
"2011-11-17 12:00","2011","11","17","12:00"," ","-7.7","","-11.6","","74","","27","","7","","24.1","","98.88","","","","-11","","Mostly Cloudy"
"2011-11-17 13:00","2011","11","17","13:00"," ","-7.0","","-12.2","","66","","26","","6","","24.1","","98.82","","","","-10","","Mostly Cloudy"
"2011-11-17 14:00","2011","11","17","14:00"," ","-7.0","","-13.5","","60","","","","0","","24.1","","98.76","","","","","","Mostly Cloudy"
"2011-11-17 15:00","2011","11","17","15:00"," ","-6.8","","-12.9","","62","","","","0","","24.1","","98.70","","","","","","Mostly Cloudy"
"2011-11-17 16:00","2011","11","17","16:00"," ","-7.1","","-12.8","","64","","17","","11","","24.1","","98.61","","","","-12","","Mostly Cloudy"
"2011-11-17 17:00","2011","11","17","17:00"," ","-7.2","","-12.5","","66","","15","","17","","24.1","","98.58","","","","-14","","Cloudy"
"2011-11-17 18:00","2011","11","17","18:00"," ","-7.5","","-12.4","","68","","13","","15","","24.1","","98.53","","","","-14","","Cloudy"
"2011-11-17 19:00","2011","11","17","19:00"," ","-7.4","","-12.8","","65","","14","","19","","24.1","","98.45","","","","-14","","Cloudy"
"2011-11-17 20:00","2011","11","17","20:00"," ","-7.5","","-12.9","","65","","12","","20","","24.1","","98.43","","","","-15","","Cloudy"
"2011-11-17 21:00","2011","11","17","21:00"," ","-7.6","","-12.4","","68","","12","","22","","24.1","","98.44","","","","-15","","Cloudy"
"2011-11-17 22:00","2011","11","17","22:00"," ","-8.4","","-10.4","","85","","11","","22","","4.8","","98.41","","","","-16","","Snow"
"2011-11-17 23:00","2011","11","17","23:00"," ","-8.6","","-10.5","","86","","12","","24","","4.8","","98.31","","","","-17","","Snow"
"2011-11-18 00:00","2011","11","18","00:00"," ","-8.6","","-10.5","","86","","11","","24","","4.8","","98.16","","","","-17","","Snow"
"2011-11-18 01:00","2011","11","18","01:00"," ","-8.6","","-10.7","","85","","9","","24","","16.1","","98.06","","","","-17","","Snow"
"2011-11-18 02:00","2011","11","18","02:00"," ","-8.4","","-10.6","","84","","9","","19","","24.1","","98.00","","","","-16","","Snow"
"2011-11-18 03:00","2011","11","18","03:00"," ","-8.3","","-10.6","","83","","8","","19","","24.1","","97.99","","","","-16","","Cloudy"
"2011-11-18 04:00","2011","11","18","04:00"," ","-8.1","","-10.3","","84","","8","","17","","24.1","","97.95","","","","-15","","Cloudy"
"2011-11-18 05:00","2011","11","18","05:00"," ","-7.7","","-9.9","","84","","7","","15","","24.1","","97.97","","","","-14","","Snow"
"2011-11-18 06:00","2011","11","18","06:00"," ","-7.8","","-9.7","","86","","7","","22","","24.1","","97.91","","","","-15","","Snow"
"2011-11-18 07:00","2011","11","18","07:00"," ","-7.7","","-9.7","","86","","7","","19","","24.1","","97.93","","","","-15","","Cloudy"
"2011-11-18 08:00","2011","11","18","08:00"," ","-7.2","","-9.5","","84","","7","","20","","24.1","","97.94","","","","-14","","Mostly Cloudy"
"2011-11-18 09:00","2011","11","18","09:00"," ","-6.6","","-9.1","","82","","9","","20","","24.1","","97.99","","","","-14","","Cloudy"
"2011-11-18 10:00","2011","11","18","10:00"," ","-5.8","","-8.4","","82","","8","","19","","24.1","","97.96","","","","-12","","Cloudy"
"2011-11-18 11:00","2011","11","18","11:00"," ","-5.6","","-8.6","","79","","8","","17","","24.1","","98.01","","","","-12","","Cloudy"
"2011-11-18 12:00","2011","11","18","12:00"," ","-5.4","","-8.3","","80","","7","","22","","16.1","","97.90","","","","-12","","Snow"
"2011-11-18 13:00","2011","11","18","13:00"," ","-5.2","","-8.2","","79","","6","","20","","24.1","","97.85","","","","-12","","Cloudy"
"2011-11-18 14:00","2011","11","18","14:00"," ","-5.8","","-7.8","","86","","5","","22","","4.8","","97.86","","","","-13","","Snow"
"2011-11-18 15:00","2011","11","18","15:00"," ","-6.4","","-7.9","","89","","3","","26","","3.2","","97.89","","","","-14","","Snow"
"2011-11-18 16:00","2011","11","18","16:00"," ","-6.6","","-8.0","","90","","4","","20","","1.2","","97.89","","","","-14","","Snow"
"2011-11-18 17:00","2011","11","18","17:00"," ","-6.6","","-8.0","","90","","4","","20","","4.8","","97.94","","","","-14","","Snow"
"2011-11-18 18:00","2011","11","18","18:00"," ","-6.7","","-8.1","","90","","4","","20","","6.4","","97.96","","","","-14","","Snow"
"2011-11-18 19:00","2011","11","18","19:00"," ","-6.8","","-8.2","","90","","2","","17","","4.8","","98.04","","","","-13","","Snow"
"2011-11-18 20:00","2011","11","18","20:00"," ","-6.9","","-7.9","","93","","1","","20","","1.6","","98.09","","","","-14","","Snow"
"2011-11-18 21:00","2011","11","18","21:00"," ","-8.0","","-9.4","","90","","34","","26","","1.6","","98.19","","","","-16","","Snow"
"2011-11-18 22:00","2011","11","18","22:00"," ","-8.7","","-10.2","","89","","35","","33","","1.6","","98.25","","","","-18","","Snow"
"2011-11-18 23:00","2011","11","18","23:00"," ","-9.9","","-11.9","","85","","36","","28","","4.8","","98.30","","","","-19","","Snow"
"2011-11-19 00:00","2011","11","19","00:00"," ","-11.6","","-14.2","","81","","34","","32","","24.1","","98.49","","","","-22","","Cloudy"
"2011-11-19 01:00","2011","11","19","01:00"," ","-12.5","","-14.5","","85","","35","","22","","24.1","","98.60","","","","-21","","Mainly Clear"
"2011-11-19 02:00","2011","11","19","02:00"," ","-15.6","","-16.6","","92","","34","","13","","24.1","","98.55","","","","-23","","Mainly Clear"
"2011-11-19 03:00","2011","11","19","03:00"," ","-18.1","","-18.9","","93","","30","","13","","24.1","","98.77","","","","-26","","Mainly Clear"
"2011-11-19 04:00","2011","11","19","04:00"," ","-17.3","","-18.2","","93","","32","","22","","24.1","","98.83","","","","-28","","Mainly Clear"
"2011-11-19 05:00","2011","11","19","05:00"," ","-16.7","","-18.0","","90","","33","","24","","24.1","","98.90","","","","-27","","Mainly Clear"
"2011-11-19 06:00","2011","11","19","06:00"," ","-17.1","","-22.3","","64","","33","","24","","24.1","","99.00","","","","-28","","Mainly Clear"
"2011-11-19 07:00","2011","11","19","07:00"," ","-18.4","","-22.2","","72","","33","","15","","24.1","","99.11","","","","-27","","Mainly Clear"
"2011-11-19 08:00","2011","11","19","08:00"," ","-21.3","","-24.7","","74","","33","","15","","24.1","","99.18","","","","-31","","Mainly Clear"
"2011-11-19 09:00","2011","11","19","09:00"," ","-21.2","","-24.7","","73","","33","","11","","24.1","","99.23","","","","-29","","Mainly Clear"
"2011-11-19 10:00","2011","11","19","10:00"," ","-15.0","","-18.1","","77","","34","","24","","24.1","","99.31","","","","-25","","Mainly Clear"
"2011-11-19 11:00","2011","11","19","11:00"," ","-14.2","","-18.2","","72","","34","","22","","24.1","","99.30","","","","-24","","Mainly Clear"
"2011-11-19 12:00","2011","11","19","12:00"," ","-13.9","","-18.1","","70","","34","","20","","24.1","","99.27","","","","-23","","Mainly Clear"
"2011-11-19 13:00","2011","11","19","13:00"," ","-13.7","","-17.9","","71","","32","","20","","24.1","","99.26","","","","-23","","Mainly Clear"
"2011-11-19 14:00","2011","11","19","14:00"," ","-13.3","","-17.6","","70","","32","","13","","24.1","","99.32","","","","-20","","Mainly Clear"
"2011-11-19 15:00","2011","11","19","15:00"," ","-13.8","","-18.1","","70","","28","","11","","24.1","","99.36","","","","-20","","Mainly Clear"
"2011-11-19 16:00","2011","11","19","16:00"," ","-16.2","","-20.4","","70","","30","","15","","24.1","","99.43","","","","-24","","Mostly Cloudy"
"2011-11-19 17:00","2011","11","19","17:00"," ","-19.5","","-23.0","","74","","31","","11","","24.1","","99.46","","","","-27","","Mainly Clear"
"2011-11-19 18:00","2011","11","19","18:00"," ","-21.0","","-23.8","","78","","1","","7","","24.1","","99.46","","","","-27","","Mainly Clear"
"2011-11-19 19:00","2011","11","19","19:00"," ","-19.5","","-22.7","","76","","29","","13","","24.1","","99.53","","","","-28","","Mainly Clear"
"2011-11-19 20:00","2011","11","19","20:00"," ","-19.1","","-22.9","","72","","26","","15","","24.1","","99.60","","","","-28","","Mostly Cloudy"
"2011-11-19 21:00","2011","11","19","21:00"," ","-17.7","","-21.2","","74","","28","","13","","24.1","","99.64","","","","-26","","Mostly Cloudy"
"2011-11-19 22:00","2011","11","19","22:00"," ","-17.3","","-20.3","","77","","27","","9","","24.1","","99.70","","","","-24","","Cloudy"
"2011-11-19 23:00","2011","11","19","23:00"," ","-16.8","","-19.8","","78","","27","","9","","24.1","","99.71","","","","-23","","Cloudy"
"2011-11-20 00:00","2011","11","20","00:00"," ","-17.2","","-20.0","","79","","29","","15","","24.1","","99.68","","","","-26","","Cloudy"
"2011-11-20 01:00","2011","11","20","01:00"," ","-16.1","","-19.1","","78","","28","","13","","24.1","","99.71","","","","-24","","Cloudy"
"2011-11-20 02:00","2011","11","20","02:00"," ","-16.2","","-19.4","","76","","27","","9","","24.1","","99.71","","","","-22","","Cloudy"
"2011-11-20 03:00","2011","11","20","03:00"," ","-16.7","","-20.1","","75","","27","","6","","24.1","","99.73","","","","-21","","Cloudy"
"2011-11-20 04:00","2011","11","20","04:00"," ","-16.4","","-20.0","","74","","","","0","","24.1","","99.70","","","","","","Cloudy"
"2011-11-20 05:00","2011","11","20","05:00"," ","-15.4","","-19.4","","71","","","","0","","24.1","","99.71","","","","","","Cloudy"
"2011-11-20 06:00","2011","11","20","06:00"," ","-15.0","","-18.3","","76","","20","","6","","9.7","","99.73","","","","-19","","Snow"
"2011-11-20 07:00","2011","11","20","07:00"," ","-15.8","","-18.7","","78","","23","","9","","9.7","","99.78","","","","-22","","Snow"
"2011-11-20 08:00","2011","11","20","08:00"," ","-16.4","","-19.2","","79","","22","","7","","9.7","","99.80","","","","-21","","Snow"
"2011-11-20 09:00","2011","11","20","09:00"," ","-16.7","","-19.5","","79","","18","","11","","12.9","","99.81","","","","-24","","Snow"
"2011-11-20 10:00","2011","11","20","10:00"," ","-14.7","","-17.8","","77","","18","","13","","24.1","","99.78","","","","-22","","Mainly Clear"
"2011-11-20 11:00","2011","11","20","11:00"," ","-13.5","","-17.1","","74","","19","","19","","24.1","","99.77","","","","-22","","Mainly Clear"
"2011-11-20 12:00","2011","11","20","12:00"," ","-12.8","","-16.6","","73","","18","","17","","24.1","","99.72","","","","-21","","Clear"
"2011-11-20 13:00","2011","11","20","13:00"," ","-12.4","","-16.5","","71","","18","","20","","24.1","","99.65","","","","-21","","Clear"
"2011-11-20 14:00","2011","11","20","14:00"," ","-11.8","","-15.5","","74","","17","","20","","24.1","","99.58","","","","-20","","Mainly Clear"
"2011-11-20 15:00","2011","11","20","15:00"," ","-11.3","","-14.7","","76","","18","","22","","24.1","","99.52","","","","-20","","Mainly Clear"
"2011-11-20 16:00","2011","11","20","16:00"," ","-11.4","","-15.1","","74","","17","","22","","24.1","","99.45","","","","-20","","Mainly Clear"
"2011-11-20 17:00","2011","11","20","17:00"," ","-12.2","","-15.5","","76","","17","","22","","24.1","","99.40","","","","-21","","Mainly Clear"
"2011-11-20 18:00","2011","11","20","18:00"," ","-12.4","","-15.7","","76","","17","","24","","24.1","","99.36","","","","-22","","Mainly Clear"
"2011-11-20 19:00","2011","11","20","19:00"," ","-12.1","","-15.4","","76","","16","","19","","24.1","","99.24","","","","-20","","Mainly Clear"
"2011-11-20 20:00","2011","11","20","20:00"," ","-11.3","","-14.6","","77","","17","","24","","24.1","","99.20","","","","-20","","Cloudy"
"2011-11-20 21:00","2011","11","20","21:00"," ","-10.5","","-13.5","","79","","17","","22","","24.1","","99.10","","","","-19","","Cloudy"
"2011-11-20 22:00","2011","11","20","22:00"," ","-9.9","","-13.2","","77","","18","","26","","24.1","","99.07","","","","-19","","Cloudy"
"2011-11-20 23:00","2011","11","20","23:00"," ","-9.9","","-12.7","","80","","18","","22","","24.1","","99.02","","","","-18","","Mainly Clear"
"2011-11-21 00:00","2011","11","21","00:00"," ","-9.8","","-12.2","","83","","18","","24","","24.1","","99.00","","","","-18","","Mainly Clear"
"2011-11-21 01:00","2011","11","21","01:00"," ","-10.2","","-12.7","","82","","19","","24","","24.1","","98.97","","","","-19","","Mainly Clear"
"2011-11-21 02:00","2011","11","21","02:00"," ","-11.3","","-13.4","","84","","18","","17","","24.1","","98.98","","","","-19","","Mainly Clear"
"2011-11-21 03:00","2011","11","21","03:00"," ","-11.4","","-13.5","","84","","19","","19","","24.1","","99.04","","","","-19","","Clear"
"2011-11-21 04:00","2011","11","21","04:00"," ","-12.0","","-14.0","","85","","20","","15","","24.1","","99.08","","","","-19","","Mainly Clear"
"2011-11-21 05:00","2011","11","21","05:00"," ","-12.8","","-14.3","","88","","21","","11","","24.1","","99.09","","","","-19","","Clear"
"2011-11-21 06:00","2011","11","21","06:00"," ","-13.9","","-14.9","","92","","23","","13","","24.1","","99.18","","","","-21","","Mainly Clear"
"2011-11-21 07:00","2011","11","21","07:00"," ","-14.3","","-15.0","","94","","26","","13","","24.1","","99.22","","","","-21","","Mainly Clear"
"2011-11-21 08:00","2011","11","21","08:00"," ","-16.7","","-17.1","","97","","27","","6","","24.1","","99.23","","","","-21","","Mainly Clear"
"2011-11-21 09:00","2011","11","21","09:00"," ","-16.1","","-16.3","","98","","18","","9","","24.1","","99.27","","","","-22","","Mostly Cloudy"
"2011-11-21 10:00","2011","11","21","10:00"," ","-14.5","","-15.5","","92","","18","","7","","24.1","","99.30","","","","-19","","Mostly Cloudy"
"2011-11-21 11:00","2011","11","21","11:00"," ","-12.4","","-14.1","","87","","18","","9","","24.1","","99.36","","","","-18","","Mainly Clear"
"2011-11-21 12:00","2011","11","21","12:00"," ","-10.3","","-13.9","","75","","","","0","","24.1","","99.31","","","","","","Mainly Clear"
"2011-11-21 13:00","2011","11","21","13:00"," ","-9.1","","-13.8","","69","","19","","15","","24.1","","99.26","","","","-16","","Mainly Clear"
"2011-11-21 14:00","2011","11","21","14:00"," ","-8.8","","-13.7","","68","","19","","9","","24.1","","99.20","","","","-13","","Mainly Clear"
"2011-11-21 15:00","2011","11","21","15:00"," ","-8.6","","-13.7","","67","","18","","7","","24.1","","99.19","","","","-12","","Mainly Clear"
"2011-11-21 16:00","2011","11","21","16:00"," ","-10.6","","-13.9","","77","","17","","11","","24.1","","99.18","","","","-16","","Mainly Clear"
"2011-11-21 17:00","2011","11","21","17:00"," ","-10.9","","-13.3","","82","","15","","11","","24.1","","99.15","","","","-17","","Mainly Clear"
"2011-11-21 18:00","2011","11","21","18:00"," ","-11.7","","-13.4","","87","","15","","17","","24.1","","99.13","","","","-19","","Mainly Clear"
"2011-11-21 19:00","2011","11","21","19:00"," ","-11.6","","-13.0","","89","","14","","15","","24.1","","99.07","","","","-19","","Mainly Clear"
"2011-11-21 20:00","2011","11","21","20:00"," ","-11.4","","-12.9","","89","","15","","13","","24.1","","99.02","","","","-18","","Mainly Clear"
"2011-11-21 21:00","2011","11","21","21:00"," ","-9.2","","-11.0","","87","","16","","17","","24.1","","98.98","","","","-16","","Mainly Clear"
"2011-11-21 22:00","2011","11","21","22:00"," ","-7.9","","-10.0","","85","","16","","22","","24.1","","98.92","","","","-16","","Mainly Clear"
"2011-11-21 23:00","2011","11","21","23:00"," ","-5.1","","-7.6","","83","","17","","30","","24.1","","98.89","","","","-13","","Mostly Cloudy"
"2011-11-22 00:00","2011","11","22","00:00"," ","-4.8","","-7.1","","84","","18","","26","","24.1","","98.85","","","","-12","","Cloudy"
"2011-11-22 01:00","2011","11","22","01:00"," ","-4.2","","-6.5","","84","","18","","32","","24.1","","98.75","","","","-12","","Mostly Cloudy"
"2011-11-22 02:00","2011","11","22","02:00"," ","-4.2","","-6.1","","87","","18","","28","","24.1","","98.68","","","","-12","","Cloudy"
"2011-11-22 03:00","2011","11","22","03:00"," ","-4.4","","-6.1","","88","","18","","33","","24.1","","98.62","","","","-13","","Mostly Cloudy"
"2011-11-22 04:00","2011","11","22","04:00"," ","-5.2","","-6.6","","90","","18","","37","","24.1","","98.50","","","","-14","","Mainly Clear"
"2011-11-22 05:00","2011","11","22","05:00"," ","-4.9","","-5.9","","93","","18","","39","","4.8","","98.42","","","","-14","","Fog"
"2011-11-22 06:00","2011","11","22","06:00"," ","-4.4","","-5.3","","93","","18","","35","","4.8","","98.39","","","","-13","","Fog"
"2011-11-22 07:00","2011","11","22","07:00"," ","-3.7","","-4.6","","93","","18","","35","","4.8","","98.35","","","","-12","","Fog"
"2011-11-22 08:00","2011","11","22","08:00"," ","-3.9","","-4.9","","93","","18","","35","","4.8","","98.28","","","","-12","","Fog"
"2011-11-22 09:00","2011","11","22","09:00"," ","-3.7","","-4.9","","91","","19","","32","","8.0","","98.24","","","","-12","","Fog"
"2011-11-22 10:00","2011","11","22","10:00"," ","-2.9","","-4.7","","87","","19","","35","","12.9","","98.25","","","","-11","","Mainly Clear"
"2011-11-22 11:00","2011","11","22","11:00"," ","-2.0","","-4.3","","84","","20","","22","","16.1","","98.35","","","","-8","","Mainly Clear"
"2011-11-22 12:00","2011","11","22","12:00"," ","-1.3","","-4.1","","81","","19","","24","","24.1","","98.30","","","","-7","","Clear"
"2011-11-22 13:00","2011","11","22","13:00"," ","-0.2","","-3.5","","78","","18","","28","","24.1","","98.22","","","","-7","","Clear"
"2011-11-22 14:00","2011","11","22","14:00"," ","0.8","","-3.1","","75","","20","","24","","24.1","","98.22","","","","","","Mainly Clear"
"2011-11-22 15:00","2011","11","22","15:00"," ","1.1","","-2.4","","77","","20","","20","","24.1","","98.24","","","","","","Mainly Clear"
"2011-11-22 16:00","2011","11","22","16:00"," ","1.0","","-2.1","","80","","19","","20","","24.1","","98.24","","","","","","Mainly Clear"
"2011-11-22 17:00","2011","11","22","17:00"," ","-0.3","","-2.0","","88","","18","","19","","24.1","","98.27","","","","-5","","Mainly Clear"
"2011-11-22 18:00","2011","11","22","18:00"," ","-1.0","","-2.4","","90","","18","","22","","24.1","","98.25","","","","-7","","Clear"
"2011-11-22 19:00","2011","11","22","19:00"," ","-0.9","","-2.3","","90","","18","","22","","24.1","","98.27","","","","-7","","Clear"
"2011-11-22 20:00","2011","11","22","20:00"," ","-1.0","","-2.3","","91","","18","","24","","24.1","","98.20","","","","-7","","Mainly Clear"
"2011-11-22 21:00","2011","11","22","21:00"," ","-1.0","","-2.7","","88","","18","","28","","24.1","","98.14","","","","-8","","Mainly Clear"
"2011-11-22 22:00","2011","11","22","22:00"," ","-1.2","","-3.1","","87","","18","","28","","24.1","","98.11","","","","-8","","Mainly Clear"
"2011-11-22 23:00","2011","11","22","23:00"," ","-1.7","","-3.4","","88","","18","","30","","24.1","","98.00","","","","-9","","Mainly Clear"
"2011-11-23 00:00","2011","11","23","00:00"," ","-1.7","","-3.3","","89","","18","","33","","24.1","","97.98","","","","-9","","Mainly Clear"
"2011-11-23 01:00","2011","11","23","01:00"," ","-1.5","","-3.2","","88","","18","","32","","24.1","","97.90","","","","-9","","Mainly Clear"
"2011-11-23 02:00","2011","11","23","02:00"," ","-1.2","","-3.3","","86","","19","","33","","24.1","","97.84","","","","-8","","Mainly Clear"
"2011-11-23 03:00","2011","11","23","03:00"," ","-1.4","","-3.5","","86","","19","","30","","24.1","","97.78","","","","-8","","Mostly Cloudy"
"2011-11-23 04:00","2011","11","23","04:00"," ","-1.3","","-3.6","","84","","19","","35","","24.1","","97.73","","","","-9","","Mainly Clear"
"2011-11-23 05:00","2011","11","23","05:00"," ","-0.8","","-3.4","","83","","19","","30","","24.1","","97.72","","","","-8","","Mainly Clear"
"2011-11-23 06:00","2011","11","23","06:00"," ","-1.3","","-3.5","","85","","19","","24","","24.1","","97.76","","","","-7","","Mainly Clear"
"2011-11-23 07:00","2011","11","23","07:00"," ","-1.3","","-3.5","","85","","18","","20","","24.1","","97.76","","","","-7","","Mainly Clear"
"2011-11-23 08:00","2011","11","23","08:00"," ","-1.2","","-3.3","","86","","19","","17","","24.1","","97.84","","","","-6","","Mainly Clear"
"2011-11-23 09:00","2011","11","23","09:00"," ","-0.4","","-2.7","","84","","21","","17","","24.1","","97.94","","","","-5","","Mainly Clear"
"2011-11-23 10:00","2011","11","23","10:00"," ","2.0","","-1.1","","80","","22","","13","","24.1","","97.96","","","","","","Mainly Clear"
"2011-11-23 11:00","2011","11","23","11:00"," ","3.7","","0.0","","77","","24","","15","","24.1","","97.97","","","","","","Mainly Clear"
"2011-11-23 12:00","2011","11","23","12:00"," ","4.9","","0.7","","74","","26","","19","","24.1","","97.97","","","","","","Mostly Cloudy"
"2011-11-23 13:00","2011","11","23","13:00"," ","5.7","","1.2","","73","","27","","11","","24.1","","97.98","","","","","","Mostly Cloudy"
"2011-11-23 14:00","2011","11","23","14:00"," ","6.6","","1.6","","70","","21","","15","","24.1","","98.00","","","","","","Mostly Cloudy"
"2011-11-23 15:00","2011","11","23","15:00"," ","6.4","","2.7","","77","","16","","11","","24.1","","97.93","","","","","","Mostly Cloudy"
"2011-11-23 16:00","2011","11","23","16:00"," ","5.1","","2.7","","84","","18","","17","","24.1","","97.89","","","","","","Mostly Cloudy"
"2011-11-23 17:00","2011","11","23","17:00"," ","3.2","","2.0","","92","","17","","15","","24.1","","97.83","","","","","","Mostly Cloudy"
"2011-11-23 18:00","2011","11","23","18:00"," ","5.1","","2.8","","85","","18","","28","","24.1","","97.74","","","","","","Mostly Cloudy"
"2011-11-23 19:00","2011","11","23","19:00"," ","5.2","","2.4","","82","","18","","32","","24.1","","97.62","","","","","","Mainly Clear"
"2011-11-23 20:00","2011","11","23","20:00"," ","4.9","","2.1","","82","","18","","30","","24.1","","97.55","","","","","","Mainly Clear"
"2011-11-23 21:00","2011","11","23","21:00"," ","4.3","","1.5","","82","","18","","32","","24.1","","97.48","","","","","","Mainly Clear"
"2011-11-23 22:00","2011","11","23","22:00"," ","3.6","","1.0","","83","","18","","28","","24.1","","97.43","","","","","","Mainly Clear"
"2011-11-23 23:00","2011","11","23","23:00"," ","3.4","","0.6","","82","","18","","26","","24.1","","97.36","","","","","","Mostly Cloudy"
"2011-11-24 00:00","2011","11","24","00:00"," ","2.6","","0.3","","85","","18","","24","","24.1","","97.31","","","","","","Mostly Cloudy"
"2011-11-24 01:00","2011","11","24","01:00"," ","2.5","","0.0","","84","","18","","28","","24.1","","97.24","","","","","","Mainly Clear"
"2011-11-24 02:00","2011","11","24","02:00"," ","2.0","","-0.1","","86","","19","","24","","24.1","","97.19","","","","","","Mainly Clear"
"2011-11-24 03:00","2011","11","24","03:00"," ","2.6","","-0.1","","82","","18","","22","","24.1","","97.19","","","","","","Mainly Clear"
"2011-11-24 04:00","2011","11","24","04:00"," ","2.3","","-0.1","","84","","18","","20","","24.1","","97.14","","","","","","Mainly Clear"
"2011-11-24 05:00","2011","11","24","05:00"," ","2.2","","-0.3","","84","","19","","24","","24.1","","97.17","","","","","","Mainly Clear"
"2011-11-24 06:00","2011","11","24","06:00"," ","2.3","","-0.4","","82","","19","","15","","24.1","","97.18","","","","","","Mainly Clear"
"2011-11-24 07:00","2011","11","24","07:00"," ","2.2","","-0.4","","83","","20","","17","","24.1","","97.19","","","","","","Mainly Clear"
"2011-11-24 08:00","2011","11","24","08:00"," ","0.9","","-1.2","","86","","19","","11","","24.1","","97.20","","","","","","Mostly Cloudy"
"2011-11-24 09:00","2011","11","24","09:00"," ","0.3","","-1.1","","90","","18","","13","","24.1","","97.20","","","","","","Mostly Cloudy"
"2011-11-24 10:00","2011","11","24","10:00"," ","2.8","","-0.3","","80","","19","","15","","24.1","","97.22","","","","","","Mostly Cloudy"
"2011-11-24 11:00","2011","11","24","11:00"," ","4.2","","0.3","","76","","20","","11","","24.1","","97.21","","","","","","Cloudy"
"2011-11-24 12:00","2011","11","24","12:00"," ","5.1","","1.0","","75","","20","","22","","24.1","","97.17","","","","","","Cloudy"
"2011-11-24 13:00","2011","11","24","13:00"," ","6.9","","2.1","","71","","21","","17","","24.1","","97.24","","","","","","Mostly Cloudy"
"2011-11-24 14:00","2011","11","24","14:00"," ","7.9","","2.9","","71","","22","","19","","24.1","","97.21","","","","","","Mostly Cloudy"
"2011-11-24 15:00","2011","11","24","15:00"," ","9.2","","3.5","","67","","23","","17","","24.1","","97.22","","","","","","Mostly Cloudy"
"2011-11-24 16:00","2011","11","24","16:00"," ","9.2","","2.5","","63","","24","","19","","24.1","","97.23","","","","","","Mainly Clear"
"2011-11-24 17:00","2011","11","24","17:00"," ","8.7","","1.8","","62","","24","","22","","24.1","","97.26","","","","","","Mainly Clear"
"2011-11-24 18:00","2011","11","24","18:00"," ","6.5","","1.9","","72","","27","","19","","24.1","","97.42","","","","","","Clear"
"2011-11-24 19:00","2011","11","24","19:00"," ","3.4","","0.9","","84","","29","","19","","24.1","","97.55","","","","","","Clear"
"2011-11-24 20:00","2011","11","24","20:00"," ","2.0","","0.4","","89","","33","","15","","24.1","","97.64","","","","","","Clear"
"2011-11-24 21:00","2011","11","24","21:00"," ","1.9","","0.2","","88","","35","","22","","24.1","","97.75","","","","","","Clear"
"2011-11-24 22:00","2011","11","24","22:00"," ","0.7","","-0.3","","93","","32","","19","","24.1","","97.81","","","","","","Cloudy"
"2011-11-24 23:00","2011","11","24","23:00"," ","0.4","","-1.2","","89","","33","","19","","24.1","","97.88","","","","","","Mostly Cloudy"
"2011-11-25 00:00","2011","11","25","00:00"," ","0.5","","-1.1","","89","","35","","19","","24.1","","97.90","","","","","","Cloudy"
"2011-11-25 01:00","2011","11","25","01:00"," ","0.6","","-1.5","","86","","1","","22","","24.1","","97.94","","","","","","Cloudy"
"2011-11-25 02:00","2011","11","25","02:00"," ","0.1","","-2.0","","86","","36","","22","","24.1","","98.01","","","","","","Cloudy"
"2011-11-25 03:00","2011","11","25","03:00"," ","-0.4","","-1.7","","91","","2","","24","","24.1","","98.02","","","","-6","","Cloudy"
"2011-11-25 04:00","2011","11","25","04:00"," ","-0.7","","-1.7","","93","","3","","20","","24.1","","98.01","","","","-6","","Cloudy"
"2011-11-25 05:00","2011","11","25","05:00"," ","-0.8","","-2.0","","92","","5","","13","","24.1","","98.10","","","","-5","","Cloudy"
"2011-11-25 06:00","2011","11","25","06:00"," ","-1.2","","-2.5","","91","","5","","19","","24.1","","98.12","","","","-7","","Cloudy"
"2011-11-25 07:00","2011","11","25","07:00"," ","-1.2","","-2.6","","90","","4","","19","","24.1","","98.12","","","","-7","","Cloudy"
"2011-11-25 08:00","2011","11","25","08:00"," ","-1.3","","-2.7","","90","","6","","17","","16.1","","98.15","","","","-6","","Cloudy"
"2011-11-25 09:00","2011","11","25","09:00"," ","-1.0","","-2.4","","90","","8","","13","","16.1","","98.19","","","","-5","","Cloudy"
"2011-11-25 10:00","2011","11","25","10:00"," ","-0.8","","-2.2","","90","","7","","17","","16.1","","98.14","","","","-6","","Cloudy"
"2011-11-25 11:00","2011","11","25","11:00"," ","-0.8","","-2.6","","88","","8","","11","","19.3","","98.21","","","","-5","","Cloudy"
"2011-11-25 12:00","2011","11","25","12:00"," ","-0.4","","-2.3","","87","","8","","13","","24.1","","98.12","","","","-5","","Cloudy"
"2011-11-25 13:00","2011","11","25","13:00"," ","-0.2","","-2.0","","88","","6","","11","","24.1","","98.13","","","","-4","","Cloudy"
"2011-11-25 14:00","2011","11","25","14:00"," ","-0.1","","-2.0","","87","","7","","15","","24.1","","98.05","","","","-5","","Cloudy"
"2011-11-25 15:00","2011","11","25","15:00"," ","0.1","","-2.0","","86","","8","","17","","24.1","","98.00","","","","","","Cloudy"
"2011-11-25 16:00","2011","11","25","16:00"," ","0.4","","-1.9","","85","","7","","13","","24.1","","98.05","","","","","","Cloudy"
"2011-11-25 17:00","2011","11","25","17:00"," ","0.5","","-1.8","","85","","7","","11","","24.1","","98.09","","","","","","Cloudy"
"2011-11-25 18:00","2011","11","25","18:00"," ","-0.1","","-1.6","","90","","5","","11","","24.1","","98.13","","","","-4","","Cloudy"
"2011-11-25 19:00","2011","11","25","19:00"," ","-0.3","","-1.5","","92","","1","","9","","24.1","","98.22","","","","-3","","Cloudy"
"2011-11-25 20:00","2011","11","25","20:00"," ","-0.3","","-1.7","","90","","2","","11","","24.1","","98.27","","","","-4","","Snow"
"2011-11-25 21:00","2011","11","25","21:00"," ","-0.7","","-1.2","","96","","4","","13","","3.2","","98.33","","","","-5","","Snow"
"2011-11-25 22:00","2011","11","25","22:00"," ","-0.8","","-0.8","","100","","5","","11","","2.8","","98.34","","","","-5","","Snow"
"2011-11-25 23:00","2011","11","25","23:00"," ","-0.7","","-0.7","","100","","6","","7","","2.8","","98.37","","","","-3","","Snow"
"2011-11-26 00:00","2011","11","26","00:00"," ","-0.7","","-0.7","","100","","7","","7","","2.4","","98.40","","","","-3","","Snow"
"2011-11-26 01:00","2011","11","26","01:00"," ","-0.8","","-0.8","","100","","8","","6","","2.4","","98.44","","","","-3","","Snow"
"2011-11-26 02:00","2011","11","26","02:00"," ","-0.8","","-0.8","","100","","8","","6","","2.4","","98.46","","","","-3","","Snow"
"2011-11-26 03:00","2011","11","26","03:00"," ","-0.8","","-0.8","","100","","","","0","","2.4","","98.52","","","","","","Snow"
"2011-11-26 04:00","2011","11","26","04:00"," ","-1.2","","-1.2","","100","","2","","6","","4.0","","98.52","","","","-3","","Snow,Fog"
"2011-11-26 05:00","2011","11","26","05:00"," ","-1.2","","-1.2","","100","","35","","6","","2.4","","98.59","","","","-3","","Snow,Fog"
"2011-11-26 06:00","2011","11","26","06:00"," ","-1.5","","-1.5","","100","","32","","7","","2.0","","98.64","","","","-4","","Snow,Fog"
"2011-11-26 07:00","2011","11","26","07:00"," ","-1.7","","-1.7","","100","","34","","9","","3.2","","98.68","","","","-5","","Snow"
"2011-11-26 08:00","2011","11","26","08:00"," ","-1.7","","-1.8","","99","","33","","6","","19.3","","98.74","","","","-4","","Cloudy"
"2011-11-26 09:00","2011","11","26","09:00"," ","-1.6","","-1.6","","100","","31","","7","","1.6","","98.80","","","","-4","","Snow,Fog"
"2011-11-26 10:00","2011","11","26","10:00"," ","-0.9","","-0.9","","100","","32","","15","","2.4","","98.85","","","","-6","","Snow,Fog"
"2011-11-26 11:00","2011","11","26","11:00"," ","-0.2","","-0.2","","100","","32","","20","","4.0","","98.93","","","","-5","","Freezing Drizzle,Fog"
"2011-11-26 12:00","2011","11","26","12:00"," ","0.2","","0.1","","99","","33","","24","","3.2","","98.96","","","","","","Drizzle,Fog"
"2011-11-26 13:00","2011","11","26","13:00"," ","0.6","","-0.3","","94","","33","","26","","16.1","","98.98","","","","","","Cloudy"
"2011-11-26 14:00","2011","11","26","14:00"," ","0.6","","-0.9","","90","","33","","32","","16.1","","99.08","","","","","","Cloudy"
"2011-11-26 15:00","2011","11","26","15:00"," ","0.5","","-1.8","","85","","33","","33","","16.1","","99.15","","","","","","Cloudy"
"2011-11-26 16:00","2011","11","26","16:00"," ","0.4","","-1.9","","85","","32","","35","","16.1","","99.29","","","","","","Cloudy"
"2011-11-26 17:00","2011","11","26","17:00"," ","0.2","","-2.1","","84","","33","","33","","16.1","","99.38","","","","","","Cloudy"
"2011-11-26 18:00","2011","11","26","18:00"," ","-0.2","","-2.4","","85","","33","","26","","24.1","","99.48","","","","-6","","Cloudy"
"2011-11-26 19:00","2011","11","26","19:00"," ","-0.3","","-2.3","","86","","33","","26","","24.1","","99.54","","","","-6","","Cloudy"
"2011-11-26 20:00","2011","11","26","20:00"," ","-0.7","","-2.6","","87","","32","","30","","24.1","","99.58","","","","-7","","Cloudy"
"2011-11-26 21:00","2011","11","26","21:00"," ","-0.8","","-2.5","","88","","33","","22","","24.1","","99.59","","","","-7","","Cloudy"
"2011-11-26 22:00","2011","11","26","22:00"," ","-1.1","","-2.8","","88","","33","","24","","24.1","","99.63","","","","-7","","Cloudy"
"2011-11-26 23:00","2011","11","26","23:00"," ","-1.8","","-3.1","","91","","32","","30","","24.1","","99.65","","","","-9","","Cloudy"
"2011-11-27 00:00","2011","11","27","00:00"," ","-2.3","","-4.1","","87","","32","","28","","24.1","","99.68","","","","-9","","Cloudy"
"2011-11-27 01:00","2011","11","27","01:00"," ","-2.8","","-4.6","","87","","32","","24","","24.1","","99.69","","","","-9","","Cloudy"
"2011-11-27 02:00","2011","11","27","02:00"," ","-3.9","","-5.9","","86","","31","","22","","24.1","","99.70","","","","-10","","Mostly Cloudy"
"2011-11-27 03:00","2011","11","27","03:00"," ","-7.8","","-9.1","","90","","31","","17","","24.1","","99.71","","","","-14","","Mainly Clear"
"2011-11-27 04:00","2011","11","27","04:00"," ","-11.7","","-12.4","","95","","29","","17","","24.1","","99.70","","","","-19","","Mainly Clear"
"2011-11-27 05:00","2011","11","27","05:00"," ","-12.1","","-12.8","","95","","","","0","","24.1","","99.76","","","","","","Clear"
"2011-11-27 06:00","2011","11","27","06:00"," ","-13.3","","-13.6","","98","","28","","6","","24.1","","99.69","","","","-17","","Clear"
"2011-11-27 07:00","2011","11","27","07:00"," ","-13.8","","-14.4","","95","","27","","9","","3.2","","99.70","","","","-19","","Fog"
"2011-11-27 08:00","2011","11","27","08:00"," ","-13.5","","-14.3","","94","","28","","13","","1.2","","99.74","","","","-20","","Fog"
"2011-11-27 09:00","2011","11","27","09:00"," ","-14.5","","-15.4","","93","","","","0","","0.8","","99.66","","","","","","Freezing Fog"
"2011-11-27 10:00","2011","11","27","10:00"," ","-10.2","","-11.2","","92","","","","0","","1.2","","99.62","","","","","","Fog"
"2011-11-27 11:00","2011","11","27","11:00"," ","-7.0","","-7.4","","97","","18","","11","","0.4","","99.53","","","","-12","","Freezing Fog"
"2011-11-27 12:00","2011","11","27","12:00"," ","-6.9","","-7.2","","98","","18","","11","","0.4","","99.41","","","","-12","","Freezing Fog"
"2011-11-27 13:00","2011","11","27","13:00"," ","-6.9","","-7.3","","97","","18","","9","","1.6","","99.30","","","","-11","","Fog"
"2011-11-27 14:00","2011","11","27","14:00"," ","-6.9","","-7.3","","97","","18","","19","","12.9","","99.20","","","","-14","","Mostly Cloudy"
"2011-11-27 15:00","2011","11","27","15:00"," ","-6.8","","-7.2","","97","","18","","20","","19.3","","99.17","","","","-14","","Mainly Clear"
"2011-11-27 16:00","2011","11","27","16:00"," ","-6.6","","-7.5","","93","","16","","22","","24.1","","99.02","","","","-14","","Mostly Cloudy"
"2011-11-27 17:00","2011","11","27","17:00"," ","-5.6","","-6.5","","93","","17","","32","","24.1","","98.85","","","","-14","","Mainly Clear"
"2011-11-27 18:00","2011","11","27","18:00"," ","-4.9","","-6.1","","91","","17","","30","","24.1","","98.74","","","","-13","","Mainly Clear"
"2011-11-27 19:00","2011","11","27","19:00"," ","-3.4","","-5.5","","85","","17","","37","","24.1","","98.58","","","","-12","","Mostly Cloudy"
"2011-11-27 20:00","2011","11","27","20:00"," ","-3.2","","-5.7","","83","","18","","37","","24.1","","98.43","","","","-11","","Mostly Cloudy"
"2011-11-27 21:00","2011","11","27","21:00"," ","-2.5","","-5.8","","78","","18","","43","","24.1","","98.27","","","","-11","","Mostly Cloudy"
"2011-11-27 22:00","2011","11","27","22:00"," ","-2.2","","-5.9","","76","","18","","41","","24.1","","98.12","","","","-10","","Cloudy"
"2011-11-27 23:00","2011","11","27","23:00"," ","-2.0","","-6.0","","74","","18","","48","","24.1","","97.95","","","","-11","","Cloudy"
"2011-11-28 00:00","2011","11","28","00:00"," ","-2.1","","-6.0","","75","","18","","41","","24.1","","97.87","","","","-10","","Cloudy"
"2011-11-28 01:00","2011","11","28","01:00"," ","-2.3","","-6.0","","76","","18","","37","","24.1","","97.74","","","","-10","","Cloudy"
"2011-11-28 02:00","2011","11","28","02:00"," ","-2.4","","-5.9","","77","","18","","43","","24.1","","97.61","","","","-11","","Cloudy"
"2011-11-28 03:00","2011","11","28","03:00"," ","-2.2","","-6.0","","75","","18","","41","","24.1","","97.61","","","","-10","","Cloudy"
"2011-11-28 04:00","2011","11","28","04:00"," ","-1.9","","-5.7","","75","","19","","33","","24.1","","97.52","","","","-9","","Cloudy"
"2011-11-28 05:00","2011","11","28","05:00"," ","-2.0","","-5.6","","76","","19","","33","","24.1","","97.51","","","","-9","","Mostly Cloudy"
"2011-11-28 06:00","2011","11","28","06:00"," ","-1.7","","-5.2","","77","","19","","32","","24.1","","97.46","","","","-9","","Mostly Cloudy"
"2011-11-28 07:00","2011","11","28","07:00"," ","-1.2","","-4.3","","79","","18","","19","","24.1","","97.61","","","","-7","","Cloudy"
"2011-11-28 08:00","2011","11","28","08:00"," ","2.6","","-1.7","","73","","26","","19","","24.1","","97.79","","","","","","Mostly Cloudy"
"2011-11-28 09:00","2011","11","28","09:00"," ","2.5","","0.1","","84","","29","","19","","24.1","","98.01","","","","","","Mostly Cloudy"
"2011-11-28 10:00","2011","11","28","10:00"," ","3.5","","0.5","","81","","32","","33","","24.1","","98.29","","","","","","Mainly Clear"
"2011-11-28 11:00","2011","11","28","11:00"," ","3.4","","0.5","","81","","32","","19","","24.1","","98.47","","","","","","Mainly Clear"
"2011-11-28 12:00","2011","11","28","12:00"," ","4.0","","-0.9","","70","","31","","33","","24.1","","98.62","","","","","","Clear"
"2011-11-28 13:00","2011","11","28","13:00"," ","3.6","","-2.3","","65","","33","","30","","24.1","","98.79","","","","","","Clear"
"2011-11-28 14:00","2011","11","28","14:00"," ","3.2","","-3.2","","63","","32","","20","","24.1","","98.95","","","","","","Mainly Clear"
"2011-11-28 15:00","2011","11","28","15:00"," ","2.5","","-3.4","","65","","30","","22","","24.1","","99.07","","","","","","Clear"
"2011-11-28 16:00","2011","11","28","16:00"," ","0.7","","-6.0","","61","","30","","20","","24.1","","99.21","","","","","","Clear"
"2011-11-28 17:00","2011","11","28","17:00"," ","-2.8","","-6.7","","74","","28","","17","","24.1","","99.31","","","","-8","","Clear"
"2011-11-28 18:00","2011","11","28","18:00"," ","-5.0","","-7.9","","80","","30","","13","","24.1","","99.43","","","","-10","","Clear"
"2011-11-28 19:00","2011","11","28","19:00"," ","-4.2","","-8.5","","72","","30","","15","","24.1","","99.54","","","","-10","","Clear"
"2011-11-28 20:00","2011","11","28","20:00"," ","-6.0","","-8.5","","82","","29","","19","","24.1","","99.62","","","","-13","","Clear"
"2011-11-28 21:00","2011","11","28","21:00"," ","-6.2","","-8.2","","86","","27","","15","","24.1","","99.71","","","","-12","","Clear"
"2011-11-28 22:00","2011","11","28","22:00"," ","-8.7","","-10.1","","90","","28","","17","","24.1","","99.77","","","","-16","","Clear"
"2011-11-28 23:00","2011","11","28","23:00"," ","-9.0","","-10.7","","87","","29","","15","","24.1","","99.83","","","","-16","","Clear"
"2011-11-29 00:00","2011","11","29","00:00"," ","-8.7","","-10.4","","87","","25","","11","","24.1","","99.83","","","","-14","","Clear"
"2011-11-29 01:00","2011","11","29","01:00"," ","-9.2","","-11.1","","86","","26","","11","","24.1","","99.84","","","","-15","","Clear"
"2011-11-29 02:00","2011","11","29","02:00"," ","-9.5","","-11.1","","88","","26","","11","","24.1","","99.86","","","","-15","","Clear"
"2011-11-29 03:00","2011","11","29","03:00"," ","-8.3","","-10.4","","85","","26","","13","","24.1","","99.87","","","","-14","","Clear"
"2011-11-29 04:00","2011","11","29","04:00"," ","-8.0","","-10.7","","81","","25","","13","","24.1","","99.83","","","","-14","","Clear"
"2011-11-29 05:00","2011","11","29","05:00"," ","-10.7","","-12.5","","87","","21","","7","","24.1","","99.74","","","","-15","","Clear"
"2011-11-29 06:00","2011","11","29","06:00"," ","-10.5","","-12.1","","88","","21","","7","","24.1","","99.69","","","","-15","","Clear"
"2011-11-29 07:00","2011","11","29","07:00"," ","-10.7","","-12.3","","88","","22","","11","","24.1","","99.71","","","","-16","","Clear"
"2011-11-29 08:00","2011","11","29","08:00"," ","-11.0","","-13.0","","85","","18","","13","","24.1","","99.59","","","","-17","","Clear"
"2011-11-29 09:00","2011","11","29","09:00"," ","-8.4","","-11.4","","79","","18","","19","","24.1","","99.48","","","","-16","","Mainly Clear"
"2011-11-29 10:00","2011","11","29","10:00"," ","-5.7","","-10.0","","72","","19","","22","","24.1","","99.43","","","","-13","","Mainly Clear"
"2011-11-29 11:00","2011","11","29","11:00"," ","-4.4","","-9.2","","69","","19","","28","","24.1","","99.36","","","","-12","","Mainly Clear"
"2011-11-29 12:00","2011","11","29","12:00"," ","-2.4","","-7.9","","66","","19","","35","","24.1","","99.20","","","","-10","","Mainly Clear"
"2011-11-29 13:00","2011","11","29","13:00"," ","-1.1","","-6.4","","67","","19","","39","","24.1","","99.00","","","","-9","","Mainly Clear"
"2011-11-29 14:00","2011","11","29","14:00"," ","-0.2","","-5.2","","69","","18","","28","","24.1","","98.87","","","","-7","","Mainly Clear"
"2011-11-29 15:00","2011","11","29","15:00"," ","0.2","","-4.5","","71","","19","","39","","24.1","","98.69","","","","","","Mostly Cloudy"
"2011-11-29 16:00","2011","11","29","16:00"," ","0.7","","-3.7","","72","","19","","32","","24.1","","98.68","","","","","","Mostly Cloudy"
"2011-11-29 17:00","2011","11","29","17:00"," ","1.1","","-3.7","","70","","20","","26","","24.1","","98.65","","","","","","Mostly Cloudy"
"2011-11-29 18:00","2011","11","29","18:00"," ","1.5","","-3.9","","67","","20","","30","","24.1","","98.58","","","","","","Mostly Cloudy"
"2011-11-29 19:00","2011","11","29","19:00"," ","0.1","","-4.0","","74","","19","","20","","24.1","","98.52","","","","","","Mostly Cloudy"
"2011-11-29 20:00","2011","11","29","20:00"," ","-0.4","","-4.5","","74","","20","","19","","24.1","","98.47","","","","-6","","Clear"
"2011-11-29 21:00","2011","11","29","21:00"," ","-1.0","","-4.9","","75","","22","","13","","24.1","","98.42","","","","-5","","Clear"
"2011-11-29 22:00","2011","11","29","22:00"," ","-2.0","","-4.8","","81","","22","","15","","24.1","","98.38","","","","-7","","Clear"
"2011-11-29 23:00","2011","11","29","23:00"," ","-3.6","","-5.2","","89","","28","","9","","24.1","","98.37","","","","-7","","Clear"
"2011-11-30 00:00","2011","11","30","00:00"," ","-5.5","","-6.5","","93","","31","","9","","24.1","","98.38","","","","-10","","Clear"
"2011-11-30 01:00","2011","11","30","01:00"," ","-6.7","","-7.4","","95","","30","","9","","24.1","","98.39","","","","-11","","Mostly Cloudy"
"2011-11-30 02:00","2011","11","30","02:00"," ","-6.7","","-7.6","","93","","30","","11","","24.1","","98.43","","","","-12","","Mostly Cloudy"
"2011-11-30 03:00","2011","11","30","03:00"," ","-5.6","","-6.6","","93","","30","","7","","24.1","","98.48","","","","-9","","Cloudy"
"2011-11-30 04:00","2011","11","30","04:00"," ","-6.2","","-7.1","","93","","32","","11","","24.1","","98.52","","","","-11","","Cloudy"
"2011-11-30 05:00","2011","11","30","05:00"," ","-3.3","","-5.0","","88","","36","","15","","24.1","","98.55","","","","-8","","Cloudy"
"2011-11-30 06:00","2011","11","30","06:00"," ","-3.3","","-4.9","","89","","1","","17","","24.1","","98.58","","","","-9","","Cloudy"
"2011-11-30 07:00","2011","11","30","07:00"," ","-3.3","","-4.8","","89","","1","","19","","24.1","","98.63","","","","-9","","Cloudy"
"2011-11-30 08:00","2011","11","30","08:00"," ","-3.5","","-4.8","","91","","1","","17","","24.1","","98.69","","","","-9","","Cloudy"
"2011-11-30 09:00","2011","11","30","09:00"," ","-3.7","","-5.1","","90","","2","","15","","24.1","","98.75","","","","-9","","Cloudy"
"2011-11-30 10:00","2011","11","30","10:00"," ","-3.7","","-5.2","","89","","3","","13","","24.1","","98.82","","","","-9","","Cloudy"
"2011-11-30 11:00","2011","11","30","11:00"," ","-2.8","","-4.2","","90","","2","","17","","24.1","","98.90","","","","-8","","Cloudy"
"2011-11-30 12:00","2011","11","30","12:00"," ","-2.0","","-3.4","","90","","2","","20","","24.1","","98.92","","","","-8","","Cloudy"
"2011-11-30 13:00","2011","11","30","13:00"," ","-1.7","","-3.6","","87","","2","","26","","24.1","","98.95","","","","-8","","Cloudy"
"2011-11-30 14:00","2011","11","30","14:00"," ","-2.0","","-5.1","","79","","2","","28","","24.1","","99.02","","","","-9","","Mostly Cloudy"
"2011-11-30 15:00","2011","11","30","15:00"," ","-2.6","","-6.6","","74","","3","","20","","24.1","","99.12","","","","-9","","Cloudy"
"2011-11-30 16:00","2011","11","30","16:00"," ","-3.3","","-6.6","","78","","3","","17","","24.1","","99.24","","","","-9","","Cloudy"
"2011-11-30 17:00","2011","11","30","17:00"," ","-4.1","","-7.2","","79","","2","","15","","24.1","","99.37","","","","-9","","Cloudy"
"2011-11-30 18:00","2011","11","30","18:00"," ","-4.6","","-7.6","","80","","1","","19","","24.1","","99.51","","","","-11","","Mostly Cloudy"
"2011-11-30 19:00","2011","11","30","19:00"," ","-6.1","","-8.5","","83","","2","","19","","24.1","","99.61","","","","-13","","Mostly Cloudy"
"2011-11-30 20:00","2011","11","30","20:00"," ","-7.1","","-14.8","","54","","36","","24","","24.1","","99.76","","","","-15","","Mainly Clear"
"2011-11-30 21:00","2011","11","30","21:00"," ","-8.1","","-14.5","","60","","36","","20","","24.1","","99.89","","","","-15","","Mostly Cloudy"
"2011-11-30 22:00","2011","11","30","22:00"," ","-8.9","","-13.0","","72","","35","","17","","24.1","","99.97","","","","-16","","Mostly Cloudy"
"2011-11-30 23:00","2011","11","30","23:00"," ","-9.9","","-13.5","","75","","33","","15","","24.1","","100.05","","","","-17","","Mostly Cloudy"
