"Date/Time","Year","Month","Day","Time","Data Quality","Temp","Temp Flag","Dew Point Temp (°C)","Dew Point Temp Flag","Rel Hum (%)","Rel Hum Flag","Wind Dir (10s deg)","Wind Dir Flag","Wind Spd (km/h)","Wind Spd Flag","Visibility (km)","Visibility Flag","Stn Press (kPa)","Stn Press Flag","Hmdx","Hmdx Flag","Wind Chill","Wind Chill Flag","Weather"
"2012-03-01 00:00","2012","03","01","00:00"," ","-6.1","","-7.2","","92","","","","0","","24.1","","98.02","","","","","","Cloudy"
"2012-03-01 01:00","2012","03","01","01:00"," ","-5.6","","-6.7","","92","","34","","6","","24.1","","98.02","","","","-8","","Cloudy"
"2012-03-01 02:00","2012","03","01","02:00"," ","-4.9","","-6.5","","89","","6","","7","","24.1","","98.03","","","","-8","","Cloudy"
"2012-03-01 03:00","2012","03","01","03:00"," ","-4.9","","-6.4","","89","","3","","6","","24.1","","98.04","","","","-8","","Cloudy"
"2012-03-01 04:00","2012","03","01","04:00"," ","-4.8","","-6.2","","90","","7","","6","","24.1","","97.99","","","","-8","","Cloudy"
"2012-03-01 05:00","2012","03","01","05:00"," ","-4.7","","-5.7","","93","","7","","6","","24.1","","97.94","","","","-7","","Snow"
"2012-03-01 06:00","2012","03","01","06:00"," ","-3.7","","-5.2","","89","","10","","11","","24.1","","97.90","","","","-8","","Cloudy"
"2012-03-01 07:00","2012","03","01","07:00"," ","-3.7","","-5.4","","88","","9","","13","","24.1","","97.86","","","","-9","","Cloudy"
"2012-03-01 08:00","2012","03","01","08:00"," ","-3.5","","-5.1","","89","","12","","9","","24.1","","97.89","","","","-7","","Cloudy"
"2012-03-01 09:00","2012","03","01","09:00"," ","-2.8","","-4.5","","88","","11","","13","","24.1","","97.89","","","","-7","","Cloudy"
"2012-03-01 10:00","2012","03","01","10:00"," ","-2.4","","-3.9","","89","","15","","11","","24.1","","97.90","","","","-6","","Cloudy"
"2012-03-01 11:00","2012","03","01","11:00"," ","-1.5","","-2.8","","91","","14","","11","","24.1","","97.84","","","","-5","","Cloudy"
"2012-03-01 12:00","2012","03","01","12:00"," ","-0.6","","-2.6","","86","","13","","9","","24.1","","97.83","","","","-4","","Cloudy"
"2012-03-01 13:00","2012","03","01","13:00"," ","-0.5","","-2.0","","90","","15","","9","","24.1","","97.80","","","","-4","","Cloudy"
"2012-03-01 14:00","2012","03","01","14:00"," ","-0.4","","-1.8","","90","","13","","7","","24.1","","97.76","","","","-3","","Snow"
"2012-03-01 15:00","2012","03","01","15:00"," ","-0.2","","-1.5","","91","","10","","9","","24.1","","97.69","","","","-3","","Snow"
"2012-03-01 16:00","2012","03","01","16:00"," ","-0.1","","-2.0","","87","","9","","11","","24.1","","97.67","","","","-4","","Cloudy"
"2012-03-01 17:00","2012","03","01","17:00"," ","0.0","","-2.0","","86","","8","","15","","24.1","","97.67","","","","-4","","Cloudy"
"2012-03-01 18:00","2012","03","01","18:00"," ","-0.2","","-1.9","","88","","7","","13","","24.1","","97.69","","","","-4","","Cloudy"
"2012-03-01 19:00","2012","03","01","19:00"," ","-0.3","","-1.8","","90","","7","","13","","24.1","","97.71","","","","-4","","Cloudy"
"2012-03-01 20:00","2012","03","01","20:00"," ","-0.7","","-1.7","","93","","7","","13","","16.1","","97.71","","","","-5","","Snow"
"2012-03-01 21:00","2012","03","01","21:00"," ","-0.9","","-1.4","","96","","7","","17","","3.2","","97.66","","","","-6","","Snow"
"2012-03-01 22:00","2012","03","01","22:00"," ","-0.9","","-0.9","","100","","9","","15","","2.4","","97.65","","","","-6","","Snow"
"2012-03-01 23:00","2012","03","01","23:00"," ","-1.1","","-1.1","","100","","8","","17","","3.2","","97.62","","","","-6","","Snow"
"2012-03-02 00:00","2012","03","02","00:00"," ","-1.3","","-1.3","","100","","7","","17","","2.4","","97.57","","","","-6","","Snow"
"2012-03-02 01:00","2012","03","02","01:00"," ","-1.4","","-1.4","","100","","6","","19","","2.4","","97.53","","","","-7","","Snow"
"2012-03-02 02:00","2012","03","02","02:00"," ","-2.0","","-2.1","","99","","6","","19","","4.0","","97.50","","","","-8","","Snow"
"2012-03-02 03:00","2012","03","02","03:00"," ","-2.2","","-2.6","","97","","5","","19","","4.8","","97.45","","","","-8","","Snow"
"2012-03-02 04:00","2012","03","02","04:00"," ","-2.4","","-2.7","","98","","5","","20","","2.4","","97.40","","","","-8","","Snow"
"2012-03-02 05:00","2012","03","02","05:00"," ","-2.6","","-3.0","","97","","5","","24","","3.2","","97.39","","","","-9","","Snow"
"2012-03-02 06:00","2012","03","02","06:00"," ","-2.6","","-3.0","","97","","4","","20","","3.2","","97.43","","","","-9","","Snow"
"2012-03-02 07:00","2012","03","02","07:00"," ","-2.8","","-3.1","","98","","3","","24","","3.2","","97.46","","","","-9","","Snow"
"2012-03-02 08:00","2012","03","02","08:00"," ","-3.0","","-3.2","","99","","3","","28","","1.2","","97.48","","","","-10","","Snow"
"2012-03-02 09:00","2012","03","02","09:00"," ","-2.9","","-3.5","","96","","3","","37","","4.8","","97.51","","","","-11","","Snow"
"2012-03-02 10:00","2012","03","02","10:00"," ","-4.1","","-4.8","","95","","2","","43","","1.6","","97.54","","","","-13","","Snow,Blowing Snow"
"2012-03-02 11:00","2012","03","02","11:00"," ","-4.7","","-5.4","","95","","2","","46","","2.0","","97.59","","","","-14","","Snow,Blowing Snow"
"2012-03-02 12:00","2012","03","02","12:00"," ","-4.9","","-5.8","","93","","1","","46","","4.8","","97.64","","","","-14","","Snow,Blowing Snow"
"2012-03-02 13:00","2012","03","02","13:00"," ","-5.2","","-6.2","","93","","1","","44","","2.4","","97.66","","","","-15","","Snow,Blowing Snow"
"2012-03-02 14:00","2012","03","02","14:00"," ","-5.4","","-6.8","","90","","36","","39","","3.2","","97.69","","","","-15","","Snow,Blowing Snow"
"2012-03-02 15:00","2012","03","02","15:00"," ","-5.9","","-7.4","","89","","1","","43","","2.4","","97.75","","","","-16","","Snow,Blowing Snow"
"2012-03-02 16:00","2012","03","02","16:00"," ","-6.3","","-8.3","","86","","36","","35","","3.2","","97.83","","","","-15","","Snow,Blowing Snow"
"2012-03-02 17:00","2012","03","02","17:00"," ","-7.7","","-9.4","","88","","35","","28","","9.7","","97.91","","","","-16","","Snow"
"2012-03-02 18:00","2012","03","02","18:00"," ","-8.5","","-10.0","","89","","35","","30","","4.8","","98.00","","","","-18","","Snow"
"2012-03-02 19:00","2012","03","02","19:00"," ","-9.0","","-10.2","","91","","35","","35","","4.8","","98.06","","","","-19","","Snow"
"2012-03-02 20:00","2012","03","02","20:00"," ","-9.4","","-10.8","","90","","35","","33","","4.8","","98.11","","","","-19","","Snow"
"2012-03-02 21:00","2012","03","02","21:00"," ","-9.5","","-10.9","","90","","35","","28","","8.0","","98.12","","","","-19","","Snow"
"2012-03-02 22:00","2012","03","02","22:00"," ","-9.4","","-10.8","","90","","35","","30","","8.0","","98.14","","","","-19","","Snow"
"2012-03-02 23:00","2012","03","02","23:00"," ","-9.7","","-11.1","","89","","34","","26","","8.0","","98.15","","","","-19","","Snow"
"2012-03-03 00:00","2012","03","03","00:00"," ","-10.4","","-11.6","","91","","35","","24","","8.0","","98.18","","","","-19","","Snow"
"2012-03-03 01:00","2012","03","03","01:00"," ","-11.2","","-12.4","","91","","34","","19","","8.0","","98.19","","","","-19","","Snow"
"2012-03-03 02:00","2012","03","03","02:00"," ","-12.5","","-13.7","","91","","34","","19","","12.9","","98.22","","","","-21","","Snow"
"2012-03-03 03:00","2012","03","03","03:00"," ","-13.3","","-14.4","","91","","33","","24","","9.7","","98.24","","","","-23","","Snow"
"2012-03-03 04:00","2012","03","03","04:00"," ","-14.6","","-15.4","","94","","33","","19","","12.9","","98.24","","","","-23","","Ice Crystals"
"2012-03-03 05:00","2012","03","03","05:00"," ","-16.5","","-17.3","","94","","32","","20","","16.1","","98.32","","","","-26","","Ice Crystals"
"2012-03-03 06:00","2012","03","03","06:00"," ","-17.4","","-18.2","","93","","34","","17","","24.1","","98.35","","","","-26","","Ice Crystals"
"2012-03-03 07:00","2012","03","03","07:00"," ","-19.0","","-19.6","","95","","33","","15","","24.1","","98.39","","","","-28","","Mainly Clear"
"2012-03-03 08:00","2012","03","03","08:00"," ","-19.4","","-20.2","","93","","33","","19","","24.1","","98.45","","","","-29","","Clear"
"2012-03-03 09:00","2012","03","03","09:00"," ","-18.2","","-19.0","","93","","34","","11","","24.1","","98.48","","","","-25","","Clear"
"2012-03-03 10:00","2012","03","03","10:00"," ","-15.1","","-16.5","","89","","1","","19","","24.1","","98.50","","","","-24","","Mainly Clear"
"2012-03-03 11:00","2012","03","03","11:00"," ","-14.4","","-15.9","","88","","35","","19","","24.1","","98.53","","","","-23","","Clear"
"2012-03-03 12:00","2012","03","03","12:00"," ","-13.5","","-15.6","","84","","33","","17","","24.1","","98.52","","","","-22","","Clear"
"2012-03-03 13:00","2012","03","03","13:00"," ","-13.0","","-15.4","","82","","31","","15","","24.1","","98.50","","","","-20","","Clear"
"2012-03-03 14:00","2012","03","03","14:00"," ","-12.4","","-15.1","","80","","31","","13","","24.1","","98.47","","","","-19","","Mainly Clear"
"2012-03-03 15:00","2012","03","03","15:00"," ","-12.0","","-14.9","","79","","32","","9","","24.1","","98.42","","","","-17","","Mainly Clear"
"2012-03-03 16:00","2012","03","03","16:00"," ","-11.8","","-14.8","","78","","29","","7","","24.1","","98.44","","","","-16","","Mainly Clear"
"2012-03-03 17:00","2012","03","03","17:00"," ","-12.9","","-15.6","","80","","31","","7","","24.1","","98.42","","","","-17","","Mainly Clear"
"2012-03-03 18:00","2012","03","03","18:00"," ","-14.8","","-16.7","","85","","30","","11","","24.1","","98.41","","","","-21","","Mainly Clear"
"2012-03-03 19:00","2012","03","03","19:00"," ","-17.4","","-18.6","","90","","29","","7","","24.1","","98.42","","","","-23","","Mainly Clear"
"2012-03-03 20:00","2012","03","03","20:00"," ","-17.0","","-17.8","","93","","27","","7","","24.1","","98.39","","","","-22","","Clear"
"2012-03-03 21:00","2012","03","03","21:00"," ","-17.9","","-18.7","","93","","","","0","","24.1","","98.37","","","","","","Mainly Clear"
"2012-03-03 22:00","2012","03","03","22:00"," ","-17.4","","-18.6","","90","","","","0","","24.1","","98.32","","","","","","Clear"
"2012-03-03 23:00","2012","03","03","23:00"," ","-16.9","","-17.8","","93","","18","","6","","24.1","","98.31","","","","-21","","Clear"
"2012-03-04 00:00","2012","03","04","00:00"," ","-17.6","","-18.6","","92","","17","","7","","24.1","","98.31","","","","-23","","Clear"
"2012-03-04 01:00","2012","03","04","01:00"," ","-18.0","","-18.9","","93","","18","","6","","24.1","","98.30","","","","-23","","Clear"
"2012-03-04 02:00","2012","03","04","02:00"," ","-17.9","","-18.7","","93","","15","","9","","24.1","","98.28","","","","-24","","Mainly Clear"
"2012-03-04 03:00","2012","03","04","03:00"," ","-16.7","","-17.5","","93","","16","","11","","9.7","","98.27","","","","-24","","Ice Crystals"
"2012-03-04 04:00","2012","03","04","04:00"," ","-16.7","","-17.5","","93","","18","","9","","9.7","","98.26","","","","-23","","Ice Crystals"
"2012-03-04 05:00","2012","03","04","05:00"," ","-16.7","","-17.5","","93","","17","","7","","9.7","","98.29","","","","-22","","Snow"
"2012-03-04 06:00","2012","03","04","06:00"," ","-16.2","","-17.0","","94","","17","","9","","8.0","","98.36","","","","-22","","Snow"
"2012-03-04 07:00","2012","03","04","07:00"," ","-16.0","","-16.8","","94","","18","","9","","1.6","","98.39","","","","-22","","Snow"
"2012-03-04 08:00","2012","03","04","08:00"," ","-15.0","","-16.0","","92","","16","","9","","3.2","","98.44","","","","-21","","Snow"
"2012-03-04 09:00","2012","03","04","09:00"," ","-14.1","","-15.1","","92","","11","","7","","9.7","","98.50","","","","-19","","Snow"
"2012-03-04 10:00","2012","03","04","10:00"," ","-13.1","","-14.4","","90","","10","","6","","8.0","","98.55","","","","-17","","Snow"
"2012-03-04 11:00","2012","03","04","11:00"," ","-11.5","","-13.5","","85","","13","","4","","6.4","","98.62","","","","-14","","Snow"
"2012-03-04 12:00","2012","03","04","12:00"," ","-10.0","","-12.4","","83","","16","","7","","9.7","","98.67","","","","-14","","Snow"
"2012-03-04 13:00","2012","03","04","13:00"," ","-9.4","","-12.2","","80","","21","","7","","24.1","","98.73","","","","-13","","Mainly Clear"
"2012-03-04 14:00","2012","03","04","14:00"," ","-8.8","","-11.9","","78","","19","","7","","24.1","","98.74","","","","-13","","Clear"
"2012-03-04 15:00","2012","03","04","15:00"," ","-9.7","","-12.6","","79","","23","","11","","24.1","","98.77","","","","-15","","Clear"
"2012-03-04 16:00","2012","03","04","16:00"," ","-9.6","","-12.7","","78","","25","","11","","24.1","","98.80","","","","-15","","Clear"
"2012-03-04 17:00","2012","03","04","17:00"," ","-10.9","","-13.3","","82","","23","","9","","24.1","","98.83","","","","-16","","Clear"
"2012-03-04 18:00","2012","03","04","18:00"," ","-11.9","","-14.1","","84","","18","","11","","24.1","","98.83","","","","-18","","Clear"
"2012-03-04 19:00","2012","03","04","19:00"," ","-13.1","","-14.6","","88","","19","","11","","24.1","","98.83","","","","-19","","Mainly Clear"
"2012-03-04 20:00","2012","03","04","20:00"," ","-15.0","","-16.3","","90","","19","","13","","24.1","","98.80","","","","-22","","Clear"
"2012-03-04 21:00","2012","03","04","21:00"," ","-14.7","","-15.9","","91","","19","","13","","24.1","","98.77","","","","-22","","Clear"
"2012-03-04 22:00","2012","03","04","22:00"," ","-14.7","","-15.3","","95","","19","","19","","24.1","","98.73","","","","-24","","Clear"
"2012-03-04 23:00","2012","03","04","23:00"," ","-14.9","","-15.7","","94","","19","","17","","24.1","","98.69","","","","-23","","Clear"
"2012-03-05 00:00","2012","03","05","00:00"," ","-16.9","","-17.9","","92","","17","","17","","19.3","","98.63","","","","-26","","Ice Crystals"
"2012-03-05 01:00","2012","03","05","01:00"," ","-14.0","","-14.9","","93","","19","","20","","19.3","","98.63","","","","-23","","Ice Crystals"
"2012-03-05 02:00","2012","03","05","02:00"," ","-13.7","","-14.6","","93","","18","","19","","19.3","","98.59","","","","-22","","Ice Crystals"
"2012-03-05 03:00","2012","03","05","03:00"," ","-13.8","","-14.7","","93","","18","","17","","24.1","","98.52","","","","-22","","Mostly Cloudy"
"2012-03-05 04:00","2012","03","05","04:00"," ","-13.2","","-14.1","","93","","19","","22","","24.1","","98.48","","","","-22","","Mostly Cloudy"
"2012-03-05 05:00","2012","03","05","05:00"," ","","","","","","","","","","","","","","","","","","",""
"2012-03-05 06:00","2012","03","05","06:00"," ","-12.0","","-12.9","","93","","18","","24","","24.1","","98.39","","","","-21","","Mostly Cloudy"
"2012-03-05 07:00","2012","03","05","07:00"," ","-11.6","","-12.5","","93","","18","","19","","24.1","","98.36","","","","-20","","Cloudy"
"2012-03-05 08:00","2012","03","05","08:00"," ","-10.5","","-11.6","","92","","18","","32","","24.1","","98.32","","","","-20","","Mostly Cloudy"
"2012-03-05 09:00","2012","03","05","09:00"," ","-8.6","","-9.9","","90","","18","","28","","24.1","","98.26","","","","-17","","Mostly Cloudy"
"2012-03-05 10:00","2012","03","05","10:00"," ","-7.1","","-8.5","","90","","18","","33","","24.1","","98.19","","","","-16","","Cloudy"
"2012-03-05 11:00","2012","03","05","11:00"," ","-6.0","","-7.2","","91","","18","","28","","24.1","","98.13","","","","-14","","Cloudy"
"2012-03-05 12:00","2012","03","05","12:00"," ","-4.7","","-5.9","","91","","17","","22","","24.1","","98.07","","","","-12","","Cloudy"
"2012-03-05 13:00","2012","03","05","13:00"," ","-2.0","","-3.7","","88","","14","","20","","24.1","","97.97","","","","-8","","Cloudy"
"2012-03-05 14:00","2012","03","05","14:00"," ","-1.3","","-3.3","","86","","14","","17","","24.1","","97.94","","","","-6","","Cloudy"
"2012-03-05 15:00","2012","03","05","15:00"," ","-0.7","","-3.2","","83","","14","","19","","24.1","","97.89","","","","-6","","Cloudy"
"2012-03-05 16:00","2012","03","05","16:00"," ","-0.7","","-3.0","","84","","13","","13","","24.1","","97.85","","","","-5","","Cloudy"
"2012-03-05 17:00","2012","03","05","17:00"," ","-0.7","","-2.8","","86","","17","","9","","24.1","","97.82","","","","-4","","Cloudy"
"2012-03-05 18:00","2012","03","05","18:00"," ","-0.8","","-2.9","","86","","15","","15","","24.1","","97.84","","","","-5","","Cloudy"
"2012-03-05 19:00","2012","03","05","19:00"," ","-0.6","","-3.1","","83","","12","","17","","24.1","","97.80","","","","-6","","Cloudy"
"2012-03-05 20:00","2012","03","05","20:00"," ","-1.8","","-4.0","","85","","11","","22","","24.1","","97.79","","","","-8","","Cloudy"
"2012-03-05 21:00","2012","03","05","21:00"," ","-2.0","","-4.1","","86","","10","","28","","24.1","","97.77","","","","-9","","Cloudy"
"2012-03-05 22:00","2012","03","05","22:00"," ","-2.1","","-4.3","","85","","10","","24","","24.1","","97.76","","","","-8","","Cloudy"
"2012-03-05 23:00","2012","03","05","23:00"," ","-2.1","","-4.6","","83","","11","","20","","24.1","","97.71","","","","-8","","Cloudy"
"2012-03-06 00:00","2012","03","06","00:00"," ","-2.1","","-4.6","","83","","11","","24","","24.1","","97.64","","","","-8","","Cloudy"
"2012-03-06 01:00","2012","03","06","01:00"," ","-2.1","","-4.5","","84","","12","","19","","24.1","","97.60","","","","-8","","Cloudy"
"2012-03-06 02:00","2012","03","06","02:00"," ","-2.1","","-4.3","","85","","12","","20","","19.3","","97.50","","","","-8","","Snow"
"2012-03-06 03:00","2012","03","06","03:00"," ","-2.1","","-4.1","","86","","12","","22","","19.3","","97.42","","","","-8","","Snow"
"2012-03-06 04:00","2012","03","06","04:00"," ","-1.9","","-4.1","","85","","11","","24","","19.3","","97.30","","","","-8","","Snow"
"2012-03-06 05:00","2012","03","06","05:00"," ","-2.0","","-4.1","","86","","9","","20","","24.1","","97.20","","","","-8","","Cloudy"
"2012-03-06 06:00","2012","03","06","06:00"," ","-2.0","","-3.7","","88","","5","","15","","24.1","","97.24","","","","-7","","Cloudy"
"2012-03-06 07:00","2012","03","06","07:00"," ","-2.4","","-3.7","","91","","5","","17","","24.1","","97.23","","","","-8","","Cloudy"
"2012-03-06 08:00","2012","03","06","08:00"," ","-2.1","","-3.6","","89","","8","","22","","16.1","","97.11","","","","-8","","Cloudy"
"2012-03-06 09:00","2012","03","06","09:00"," ","-2.0","","-3.3","","91","","8","","20","","16.1","","97.10","","","","-8","","Cloudy"
"2012-03-06 10:00","2012","03","06","10:00"," ","-1.8","","-3.2","","90","","7","","20","","16.1","","97.06","","","","-8","","Cloudy"
"2012-03-06 11:00","2012","03","06","11:00"," ","-1.0","","-2.8","","88","","10","","20","","16.1","","97.02","","","","-7","","Cloudy"
"2012-03-06 12:00","2012","03","06","12:00"," ","-0.1","","-2.1","","86","","11","","20","","16.1","","96.97","","","","-5","","Cloudy"
"2012-03-06 13:00","2012","03","06","13:00"," ","0.7","","-1.8","","83","","7","","11","","16.1","","96.96","","","","","","Cloudy"
"2012-03-06 14:00","2012","03","06","14:00"," ","-0.1","","-2.1","","86","","2","","17","","19.3","","97.07","","","","-5","","Cloudy"
"2012-03-06 15:00","2012","03","06","15:00"," ","-0.3","","-1.7","","90","","3","","26","","16.1","","96.94","","","","-6","","Cloudy"
"2012-03-06 16:00","2012","03","06","16:00"," ","-0.3","","-1.7","","90","","36","","15","","16.1","","97.18","","","","-5","","Cloudy"
"2012-03-06 17:00","2012","03","06","17:00"," ","-1.0","","-2.0","","93","","2","","22","","16.1","","97.16","","","","-7","","Ice Pellets"
"2012-03-06 18:00","2012","03","06","18:00"," ","-1.5","","-2.2","","95","","36","","19","","24.1","","97.23","","","","-7","","Cloudy"
"2012-03-06 19:00","2012","03","06","19:00"," ","-1.7","","-2.2","","96","","34","","22","","24.1","","97.38","","","","-8","","Cloudy"
"2012-03-06 20:00","2012","03","06","20:00"," ","-1.9","","-2.2","","98","","1","","15","","4.8","","97.36","","","","-7","","Snow"
"2012-03-06 21:00","2012","03","06","21:00"," ","-2.0","","-2.5","","96","","36","","11","","12.9","","97.42","","","","-6","","Snow"
"2012-03-06 22:00","2012","03","06","22:00"," ","-2.0","","-2.7","","95","","32","","22","","24.1","","97.58","","","","-8","","Cloudy"
"2012-03-06 23:00","2012","03","06","23:00"," ","-2.0","","-2.6","","96","","32","","20","","24.1","","97.56","","","","-8","","Cloudy"
"2012-03-07 00:00","2012","03","07","00:00"," ","-2.4","","-2.6","","99","","32","","28","","12.9","","97.67","","","","-9","","Cloudy"
"2012-03-07 01:00","2012","03","07","01:00"," ","-3.2","","-3.8","","96","","34","","24","","24.1","","97.74","","","","-10","","Cloudy"
"2012-03-07 02:00","2012","03","07","02:00"," ","-4.4","","-5.4","","93","","34","","28","","24.1","","97.85","","","","-12","","Cloudy"
"2012-03-07 03:00","2012","03","07","03:00"," ","-6.3","","-7.4","","92","","33","","39","","24.1","","97.89","","","","-16","","Cloudy"
"2012-03-07 04:00","2012","03","07","04:00"," ","-7.7","","-9.1","","90","","34","","35","","24.1","","97.91","","","","-17","","Cloudy"
"2012-03-07 05:00","2012","03","07","05:00"," ","-9.1","","-10.6","","89","","34","","33","","24.1","","97.96","","","","-19","","Cloudy"
"2012-03-07 06:00","2012","03","07","06:00"," ","-10.2","","-11.9","","87","","34","","32","","24.1","","98.10","","","","-20","","Snow"
"2012-03-07 07:00","2012","03","07","07:00"," ","-11.0","","-12.7","","87","","34","","28","","16.1","","98.16","","","","-21","","Snow"
"2012-03-07 08:00","2012","03","07","08:00"," ","-12.7","","-14.4","","87","","34","","28","","24.1","","98.25","","","","-23","","Mostly Cloudy"
"2012-03-07 09:00","2012","03","07","09:00"," ","-13.4","","-15.0","","88","","32","","24","","24.1","","98.34","","","","-23","","Mainly Clear"
"2012-03-07 10:00","2012","03","07","10:00"," ","-13.2","","-15.2","","85","","32","","19","","24.1","","98.43","","","","-22","","Mainly Clear"
"2012-03-07 11:00","2012","03","07","11:00"," ","-12.3","","-14.5","","84","","33","","20","","24.1","","98.48","","","","-21","","Mainly Clear"
"2012-03-07 12:00","2012","03","07","12:00"," ","-10.4","","-13.3","","79","","33","","20","","24.1","","98.46","","","","-18","","Clear"
"2012-03-07 13:00","2012","03","07","13:00"," ","-8.7","","-11.0","","83","","31","","26","","24.1","","98.44","","","","-17","","Clear"
"2012-03-07 14:00","2012","03","07","14:00"," ","-8.0","","-10.2","","84","","31","","30","","24.1","","98.42","","","","-17","","Clear"
"2012-03-07 15:00","2012","03","07","15:00"," ","-8.1","","-10.6","","82","","30","","26","","24.1","","98.46","","","","-16","","Mainly Clear"
"2012-03-07 16:00","2012","03","07","16:00"," ","-8.6","","-11.8","","78","","30","","26","","24.1","","98.50","","","","-17","","Mainly Clear"
"2012-03-07 17:00","2012","03","07","17:00"," ","-8.4","","-11.5","","78","","30","","19","","24.1","","98.51","","","","-16","","Mostly Cloudy"
"2012-03-07 18:00","2012","03","07","18:00"," ","-10.1","","-13.0","","79","","30","","9","","24.1","","98.50","","","","-15","","Mainly Clear"
"2012-03-07 19:00","2012","03","07","19:00"," ","-10.6","","-13.6","","79","","27","","7","","24.1","","98.55","","","","-15","","Mainly Clear"
"2012-03-07 20:00","2012","03","07","20:00"," ","-10.2","","-14.1","","73","","27","","9","","24.1","","98.58","","","","-15","","Mostly Cloudy"
"2012-03-07 21:00","2012","03","07","21:00"," ","-9.6","","-12.9","","77","","22","","9","","24.1","","98.61","","","","-14","","Mostly Cloudy"
"2012-03-07 22:00","2012","03","07","22:00"," ","-9.3","","-12.3","","79","","23","","11","","24.1","","98.62","","","","-15","","Cloudy"
"2012-03-07 23:00","2012","03","07","23:00"," ","-8.2","","-12.4","","72","","25","","13","","24.1","","98.61","","","","-14","","Cloudy"
"2012-03-08 00:00","2012","03","08","00:00"," ","-9.0","","-12.3","","77","","25","","11","","24.1","","98.59","","","","-14","","Cloudy"
"2012-03-08 01:00","2012","03","08","01:00"," ","-8.3","","-9.5","","91","","26","","15","","19.3","","98.58","","","","-15","","Snow"
"2012-03-08 02:00","2012","03","08","02:00"," ","-7.7","","-8.7","","93","","27","","15","","19.3","","98.60","","","","-14","","Snow"
"2012-03-08 03:00","2012","03","08","03:00"," ","-8.5","","-9.4","","93","","26","","15","","24.1","","98.60","","","","-15","","Mostly Cloudy"
"2012-03-08 04:00","2012","03","08","04:00"," ","-9.3","","-10.2","","93","","26","","15","","24.1","","98.60","","","","-16","","Clear"
"2012-03-08 05:00","2012","03","08","05:00"," ","-10.8","","-11.5","","95","","26","","15","","24.1","","98.65","","","","-18","","Clear"
"2012-03-08 06:00","2012","03","08","06:00"," ","-9.7","","-11.1","","89","","25","","17","","24.1","","98.58","","","","-17","","Mostly Cloudy"
"2012-03-08 07:00","2012","03","08","07:00"," ","-10.0","","-11.4","","89","","22","","20","","24.1","","98.43","","","","-18","","Mainly Clear"
"2012-03-08 08:00","2012","03","08","08:00"," ","-8.1","","-10.2","","85","","23","","19","","24.1","","98.40","","","","-15","","Mostly Cloudy"
"2012-03-08 09:00","2012","03","08","09:00"," ","-6.6","","-8.2","","88","","23","","13","","1.6","","98.32","","","","-12","","Snow"
"2012-03-08 10:00","2012","03","08","10:00"," ","-4.8","","-6.6","","87","","27","","35","","9.7","","98.32","","","","-13","","Snow"
"2012-03-08 11:00","2012","03","08","11:00"," ","-5.7","","-6.2","","96","","31","","48","","2.4","","98.47","","","","-16","","Snow,Blowing Snow"
"2012-03-08 12:00","2012","03","08","12:00"," ","-6.7","","-8.3","","88","","34","","50","","1.6","","98.82","","","","-17","","Snow,Blowing Snow"
"2012-03-08 13:00","2012","03","08","13:00"," ","-6.6","","-10.1","","76","","33","","43","","19.3","","98.99","","","","-17","","Mainly Clear"
"2012-03-08 14:00","2012","03","08","14:00"," ","-8.5","","-10.9","","83","","31","","41","","19.3","","99.14","","","","-19","","Mainly Clear"
"2012-03-08 15:00","2012","03","08","15:00"," ","-8.6","","-12.2","","75","","31","","44","","24.1","","99.35","","","","-19","","Clear"
"2012-03-08 16:00","2012","03","08","16:00"," ","-9.0","","-12.4","","76","","31","","35","","24.1","","99.52","","","","-19","","Clear"
"2012-03-08 17:00","2012","03","08","17:00"," ","-9.6","","-12.9","","77","","32","","35","","24.1","","99.67","","","","-20","","Clear"
"2012-03-08 18:00","2012","03","08","18:00"," ","-10.9","","-14.2","","77","","32","","28","","24.1","","99.82","","","","-20","","Clear"
"2012-03-08 19:00","2012","03","08","19:00"," ","-11.9","","-15.2","","76","","32","","30","","24.1","","99.98","","","","-22","","Clear"
"2012-03-08 20:00","2012","03","08","20:00"," ","-14.4","","-17.0","","81","","31","","19","","24.1","","100.08","","","","-23","","Clear"
"2012-03-08 21:00","2012","03","08","21:00"," ","-15.6","","-18.1","","81","","31","","15","","24.1","","100.17","","","","-24","","Clear"
"2012-03-08 22:00","2012","03","08","22:00"," ","-18.1","","-20.0","","85","","32","","11","","24.1","","100.23","","","","-25","","Clear"
"2012-03-08 23:00","2012","03","08","23:00"," ","-16.9","","-19.2","","82","","1","","6","","24.1","","100.24","","","","-21","","Clear"
"2012-03-09 00:00","2012","03","09","00:00"," ","-18.9","","-20.3","","89","","36","","4","","24.1","","100.23","","","","-22","","Clear"
"2012-03-09 01:00","2012","03","09","01:00"," ","-17.8","","-19.0","","90","","23","","17","","24.1","","100.27","","","","-27","","Clear"
"2012-03-09 02:00","2012","03","09","02:00"," ","-17.6","","-19.5","","85","","24","","11","","24.1","","100.33","","","","-25","","Clear"
"2012-03-09 03:00","2012","03","09","03:00"," ","-16.2","","-18.6","","82","","21","","7","","24.1","","100.30","","","","-21","","Mainly Clear"
"2012-03-09 04:00","2012","03","09","04:00"," ","-16.4","","-18.5","","84","","20","","7","","24.1","","100.26","","","","-21","","Mostly Cloudy"
"2012-03-09 05:00","2012","03","09","05:00"," ","-15.9","","-18.0","","84","","17","","7","","24.1","","100.21","","","","-21","","Mostly Cloudy"
"2012-03-09 06:00","2012","03","09","06:00"," ","-14.9","","-17.4","","81","","18","","11","","24.1","","100.17","","","","-21","","Mostly Cloudy"
"2012-03-09 07:00","2012","03","09","07:00"," ","-15.6","","-18.2","","80","","17","","13","","24.1","","100.14","","","","-23","","Mostly Cloudy"
"2012-03-09 08:00","2012","03","09","08:00"," ","-13.7","","-17.3","","74","","18","","22","","24.1","","100.10","","","","-23","","Cloudy"
"2012-03-09 09:00","2012","03","09","09:00"," ","-11.8","","-16.1","","70","","18","","24","","24.1","","100.05","","","","-21","","Cloudy"
"2012-03-09 10:00","2012","03","09","10:00"," ","-10.9","","-15.2","","71","","18","","35","","24.1","","99.97","","","","-21","","Cloudy"
"2012-03-09 11:00","2012","03","09","11:00"," ","-9.6","","-14.4","","68","","17","","32","","24.1","","99.89","","","","-19","","Cloudy"
"2012-03-09 12:00","2012","03","09","12:00"," ","-8.6","","-13.1","","70","","17","","35","","24.1","","99.76","","","","-18","","Cloudy"
"2012-03-09 13:00","2012","03","09","13:00"," ","-8.2","","-12.8","","69","","17","","46","","24.1","","99.58","","","","-19","","Cloudy"
"2012-03-09 14:00","2012","03","09","14:00"," ","-7.1","","-12.2","","67","","18","","41","","24.1","","99.46","","","","-17","","Mostly Cloudy"
"2012-03-09 15:00","2012","03","09","15:00"," ","-6.1","","-12.5","","60","","17","","44","","24.1","","99.31","","","","-16","","Mostly Cloudy"
"2012-03-09 16:00","2012","03","09","16:00"," ","-5.5","","-12.5","","58","","18","","48","","24.1","","99.13","","","","-15","","Mostly Cloudy"
"2012-03-09 17:00","2012","03","09","17:00"," ","-5.3","","-11.8","","60","","18","","33","","24.1","","99.01","","","","-14","","Mostly Cloudy"
"2012-03-09 18:00","2012","03","09","18:00"," ","-5.2","","-11.4","","62","","18","","39","","24.1","","98.85","","","","-14","","Cloudy"
"2012-03-09 19:00","2012","03","09","19:00"," ","-4.7","","-10.2","","65","","18","","48","","24.1","","98.66","","","","-14","","Cloudy"
"2012-03-09 20:00","2012","03","09","20:00"," ","-4.2","","-9.8","","65","","18","","48","","24.1","","98.52","","","","-14","","Mostly Cloudy"
"2012-03-09 21:00","2012","03","09","21:00"," ","-4.3","","-9.5","","67","","17","","44","","24.1","","98.32","","","","-14","","Cloudy"
"2012-03-09 22:00","2012","03","09","22:00"," ","-4.2","","-9.0","","69","","17","","48","","24.1","","98.19","","","","-14","","Mainly Clear"
"2012-03-09 23:00","2012","03","09","23:00"," ","-4.4","","-8.7","","72","","18","","50","","24.1","","97.99","","","","-14","","Mostly Cloudy"
"2012-03-10 00:00","2012","03","10","00:00"," ","-4.6","","-7.9","","78","","18","","54","","24.1","","97.79","","","","-15","","Mostly Cloudy"
"2012-03-10 01:00","2012","03","10","01:00"," ","-4.3","","-7.1","","81","","18","","52","","24.1","","97.64","","","","-14","","Mainly Clear"
"2012-03-10 02:00","2012","03","10","02:00"," ","-4.4","","-6.7","","84","","18","","37","","24.1","","97.60","","","","-13","","Mostly Cloudy"
"2012-03-10 03:00","2012","03","10","03:00"," ","-4.4","","-6.4","","86","","17","","48","","24.1","","97.46","","","","-14","","Mainly Clear"
"2012-03-10 04:00","2012","03","10","04:00"," ","-4.8","","-6.5","","88","","","","0","","24.1","","97.56","","","","","","Mainly Clear"
"2012-03-10 05:00","2012","03","10","05:00"," ","-5.7","","-7.1","","90","","18","","13","","24.1","","97.50","","","","-11","","Clear"
"2012-03-10 06:00","2012","03","10","06:00"," ","","","","","","","","","","","","","","","","","","",""
"2012-03-10 07:00","2012","03","10","07:00"," ","-7.1","","-8.0","","93","","21","","7","","24.1","","97.64","","","","-11","","Mainly Clear"
"2012-03-10 08:00","2012","03","10","08:00"," ","-5.8","","-7.4","","88","","19","","7","","24.1","","97.68","","","","-9","","Mainly Clear"
"2012-03-10 09:00","2012","03","10","09:00"," ","-2.6","","-5.5","","80","","22","","7","","24.1","","97.71","","","","-5","","Mainly Clear"
"2012-03-10 10:00","2012","03","10","10:00"," ","0.8","","-2.8","","77","","","","0","","24.1","","97.75","","","","","","Mainly Clear"
"2012-03-10 11:00","2012","03","10","11:00"," ","3.7","","-1.0","","71","","","","0","","24.1","","97.76","","","","","","Mainly Clear"
"2012-03-10 12:00","2012","03","10","12:00"," ","5.0","","-0.3","","69","","","","0","","24.1","","97.80","","","","","","Clear"
"2012-03-10 13:00","2012","03","10","13:00"," ","4.3","","-0.3","","72","","16","","11","","24.1","","97.77","","","","","","Clear"
"2012-03-10 14:00","2012","03","10","14:00"," ","4.6","","-0.2","","71","","17","","9","","24.1","","97.77","","","","","","Mainly Clear"
"2012-03-10 15:00","2012","03","10","15:00"," ","5.3","","-0.1","","68","","16","","13","","24.1","","97.75","","","","","","Mainly Clear"
"2012-03-10 16:00","2012","03","10","16:00"," ","6.3","","-0.1","","64","","19","","15","","24.1","","97.75","","","","","","Mainly Clear"
"2012-03-10 17:00","2012","03","10","17:00"," ","4.7","","0.4","","74","","18","","17","","24.1","","97.79","","","","","","Mainly Clear"
"2012-03-10 18:00","2012","03","10","18:00"," ","4.4","","0.5","","76","","21","","11","","24.1","","97.83","","","","","","Mainly Clear"
"2012-03-10 19:00","2012","03","10","19:00"," ","2.8","","0.6","","85","","21","","13","","24.1","","97.87","","","","","","Mainly Clear"
"2012-03-10 20:00","2012","03","10","20:00"," ","1.3","","0.0","","91","","20","","9","","24.1","","97.87","","","","","","Clear"
"2012-03-10 21:00","2012","03","10","21:00"," ","-0.1","","-0.6","","96","","18","","7","","24.1","","97.92","","","","-3","","Clear"
"2012-03-10 22:00","2012","03","10","22:00"," ","-0.6","","-1.0","","97","","18","","7","","24.1","","97.98","","","","-3","","Clear"
"2012-03-10 23:00","2012","03","10","23:00"," ","-0.8","","-1.1","","98","","18","","11","","24.1","","98.03","","","","-5","","Clear"
"2012-03-11 00:00","2012","03","11","00:00"," ","-2.1","","-2.2","","99","","21","","6","","24.1","","98.05","","","","-4","","Clear"
"2012-03-11 01:00","2012","03","11","01:00"," ","-2.0","","-2.4","","97","","18","","11","","24.1","","98.02","","","","-6","","Clear"
"2012-03-11 02:00","2012","03","11","02:00"," ","-3.0","","-3.6","","96","","16","","13","","24.1","","98.07","","","","-8","","Clear"
"2012-03-11 03:00","2012","03","11","03:00"," ","-2.3","","-2.8","","96","","17","","9","","24.1","","98.04","","","","-6","","Clear"
"2012-03-11 04:00","2012","03","11","04:00"," ","-2.8","","-3.2","","97","","17","","9","","24.1","","98.05","","","","-6","","Clear"
"2012-03-11 05:00","2012","03","11","05:00"," ","-2.4","","-2.4","","100","","16","","9","","24.1","","98.08","","","","-6","","Clear"
"2012-03-11 06:00","2012","03","11","06:00"," ","-4.4","","-5.0","","96","","14","","11","","24.1","","98.07","","","","-9","","Mainly Clear"
"2012-03-11 07:00","2012","03","11","07:00"," ","-3.7","","-3.8","","99","","10","","6","","24.1","","98.08","","","","-6","","Mainly Clear"
"2012-03-11 08:00","2012","03","11","08:00"," ","-2.1","","-2.8","","95","","8","","9","","16.1","","98.01","","","","-6","","Mainly Clear"
"2012-03-11 09:00","2012","03","11","09:00"," ","1.2","","-0.1","","91","","10","","11","","16.1","","98.00","","","","","","Mainly Clear"
"2012-03-11 10:00","2012","03","11","10:00"," ","4.5","","1.5","","81","","14","","15","","24.1","","98.00","","","","","","Mainly Clear"
"2012-03-11 11:00","2012","03","11","11:00"," ","6.9","","2.7","","75","","15","","15","","24.1","","97.97","","","","","","Mainly Clear"
"2012-03-11 12:00","2012","03","11","12:00"," ","8.8","","2.9","","66","","13","","20","","24.1","","97.93","","","","","","Mostly Cloudy"
"2012-03-11 13:00","2012","03","11","13:00"," ","10.4","","3.2","","61","","12","","19","","24.1","","97.84","","","","","","Mostly Cloudy"
"2012-03-11 14:00","2012","03","11","14:00"," ","11.7","","3.3","","56","","14","","20","","24.1","","97.74","","","","","","Mainly Clear"
"2012-03-11 15:00","2012","03","11","15:00"," ","11.9","","2.6","","53","","15","","28","","24.1","","97.66","","","","","","Mainly Clear"
"2012-03-11 16:00","2012","03","11","16:00"," ","12.3","","2.9","","53","","14","","30","","24.1","","97.57","","","","","","Mainly Clear"
"2012-03-11 17:00","2012","03","11","17:00"," ","11.8","","3.2","","56","","16","","22","","24.1","","97.52","","","","","","Mainly Clear"
"2012-03-11 18:00","2012","03","11","18:00"," ","8.6","","2.9","","67","","15","","20","","24.1","","97.49","","","","","","Mainly Clear"
"2012-03-11 19:00","2012","03","11","19:00"," ","7.8","","3.1","","72","","15","","20","","24.1","","97.47","","","","","","Mainly Clear"
"2012-03-11 20:00","2012","03","11","20:00"," ","7.6","","3.8","","77","","14","","19","","24.1","","97.43","","","","","","Clear"
"2012-03-11 21:00","2012","03","11","21:00"," ","8.0","","5.1","","82","","15","","24","","24.1","","97.38","","","","","","Clear"
"2012-03-11 22:00","2012","03","11","22:00"," ","7.2","","5.9","","91","","17","","24","","24.1","","97.40","","","","","","Clear"
"2012-03-11 23:00","2012","03","11","23:00"," ","6.9","","6.0","","94","","18","","30","","24.1","","97.37","","","","","","Clear"
"2012-03-12 00:00","2012","03","12","00:00"," ","6.5","","5.5","","93","","17","","30","","24.1","","97.32","","","","","","Mainly Clear"
"2012-03-12 01:00","2012","03","12","01:00"," ","7.0","","5.5","","90","","17","","35","","24.1","","97.28","","","","","","Mostly Cloudy"
"2012-03-12 02:00","2012","03","12","02:00"," ","6.8","","5.1","","89","","17","","33","","24.1","","97.24","","","","","","Mainly Clear"
"2012-03-12 03:00","2012","03","12","03:00"," ","6.3","","5.0","","91","","17","","30","","24.1","","97.20","","","","","","Mainly Clear"
"2012-03-12 04:00","2012","03","12","04:00"," ","6.6","","5.0","","90","","17","","30","","24.1","","97.15","","","","","","Mostly Cloudy"
"2012-03-12 05:00","2012","03","12","05:00"," ","6.2","","4.2","","87","","17","","26","","24.1","","97.14","","","","","","Mostly Cloudy"
"2012-03-12 06:00","2012","03","12","06:00"," ","5.8","","3.9","","88","","16","","28","","24.1","","97.12","","","","","","Mostly Cloudy"
"2012-03-12 07:00","2012","03","12","07:00"," ","6.2","","4.6","","89","","17","","28","","24.1","","97.12","","","","","","Cloudy"
"2012-03-12 08:00","2012","03","12","08:00"," ","6.0","","4.8","","92","","17","","28","","24.1","","97.12","","","","","","Cloudy"
"2012-03-12 09:00","2012","03","12","09:00"," ","5.7","","5.5","","99","","17","","22","","4.8","","97.11","","","","","","Rain"
"2012-03-12 10:00","2012","03","12","10:00"," ","5.4","","5.4","","100","","15","","20","","4.8","","97.03","","","","","","Fog"
"2012-03-12 11:00","2012","03","12","11:00"," ","5.1","","5.1","","100","","17","","19","","3.2","","97.04","","","","","","Rain,Fog"
"2012-03-12 12:00","2012","03","12","12:00"," ","4.9","","4.9","","100","","18","","19","","3.2","","96.98","","","","","","Fog"
"2012-03-12 13:00","2012","03","12","13:00"," ","4.7","","4.7","","100","","19","","15","","1.6","","96.95","","","","","","Fog"
"2012-03-12 14:00","2012","03","12","14:00"," ","5.1","","5.1","","100","","21","","11","","1.2","","96.95","","","","","","Fog"
"2012-03-12 15:00","2012","03","12","15:00"," ","6.5","","6.5","","100","","26","","11","","11.3","","96.94","","","","","","Cloudy"
"2012-03-12 16:00","2012","03","12","16:00"," ","8.1","","7.8","","98","","28","","19","","24.1","","96.99","","","","","","Mostly Cloudy"
"2012-03-12 17:00","2012","03","12","17:00"," ","8.2","","3.4","","72","","28","","39","","24.1","","97.04","","","","","","Mostly Cloudy"
"2012-03-12 18:00","2012","03","12","18:00"," ","7.1","","3.3","","77","","29","","26","","24.1","","97.17","","","","","","Mostly Cloudy"
"2012-03-12 19:00","2012","03","12","19:00"," ","5.6","","1.5","","75","","28","","35","","24.1","","97.25","","","","","","Mainly Clear"
"2012-03-12 20:00","2012","03","12","20:00"," ","4.2","","1.2","","81","","28","","33","","24.1","","97.39","","","","","","Clear"
"2012-03-12 21:00","2012","03","12","21:00"," ","3.7","","0.7","","81","","28","","33","","24.1","","97.50","","","","","","Clear"
"2012-03-12 22:00","2012","03","12","22:00"," ","3.7","","0.2","","78","","28","","33","","24.1","","97.60","","","","","","Clear"
"2012-03-12 23:00","2012","03","12","23:00"," ","3.2","","0.2","","81","","27","","28","","24.1","","97.72","","","","","","Clear"
"2012-03-13 00:00","2012","03","13","00:00"," ","2.8","","0.2","","83","","27","","28","","24.1","","97.82","","","","","","Clear"
"2012-03-13 01:00","2012","03","13","01:00"," ","2.3","","-0.1","","84","","26","","19","","24.1","","97.90","","","","","","Clear"
"2012-03-13 02:00","2012","03","13","02:00"," ","2.1","","-0.3","","84","","24","","19","","24.1","","97.98","","","","","","Clear"
"2012-03-13 03:00","2012","03","13","03:00"," ","1.7","","-0.4","","86","","25","","17","","24.1","","98.04","","","","","","Clear"
"2012-03-13 04:00","2012","03","13","04:00"," ","1.0","","-0.8","","88","","25","","13","","24.1","","98.08","","","","","","Clear"
"2012-03-13 05:00","2012","03","13","05:00"," ","0.3","","-1.0","","91","","25","","11","","24.1","","98.16","","","","","","Clear"
"2012-03-13 06:00","2012","03","13","06:00"," ","-1.2","","-2.1","","94","","27","","7","","24.1","","98.21","","","","-4","","Mainly Clear"
"2012-03-13 07:00","2012","03","13","07:00"," ","-2.0","","-2.7","","95","","19","","6","","24.1","","98.23","","","","-4","","Mainly Clear"
"2012-03-13 08:00","2012","03","13","08:00"," ","0.6","","-0.2","","94","","17","","11","","24.1","","98.25","","","","","","Mainly Clear"
"2012-03-13 09:00","2012","03","13","09:00"," ","3.4","","0.8","","83","","17","","13","","24.1","","98.26","","","","","","Mainly Clear"
"2012-03-13 10:00","2012","03","13","10:00"," ","4.7","","1.5","","80","","17","","17","","24.1","","98.28","","","","","","Mainly Clear"
"2012-03-13 11:00","2012","03","13","11:00"," ","6.8","","2.1","","72","","17","","19","","24.1","","98.23","","","","","","Mostly Cloudy"
"2012-03-13 12:00","2012","03","13","12:00"," ","9.1","","1.2","","58","","17","","30","","24.1","","98.15","","","","","","Mostly Cloudy"
"2012-03-13 13:00","2012","03","13","13:00"," ","9.6","","2.3","","60","","18","","30","","24.1","","98.07","","","","","","Mostly Cloudy"
"2012-03-13 14:00","2012","03","13","14:00"," ","9.8","","1.9","","58","","16","","30","","24.1","","97.96","","","","","","Cloudy"
"2012-03-13 15:00","2012","03","13","15:00"," ","11.4","","2.1","","53","","16","","28","","24.1","","97.84","","","","","","Mostly Cloudy"
"2012-03-13 16:00","2012","03","13","16:00"," ","11.4","","2.4","","54","","14","","32","","24.1","","97.75","","","","","","Mostly Cloudy"
"2012-03-13 17:00","2012","03","13","17:00"," ","11.1","","2.3","","55","","14","","28","","24.1","","97.67","","","","","","Mainly Clear"
"2012-03-13 18:00","2012","03","13","18:00"," ","10.5","","1.2","","52","","13","","28","","24.1","","97.57","","","","","","Clear"
"2012-03-13 19:00","2012","03","13","19:00"," ","9.3","","0.3","","53","","14","","26","","24.1","","97.50","","","","","","Clear"
"2012-03-13 20:00","2012","03","13","20:00"," ","8.3","","-0.8","","53","","14","","26","","24.1","","97.44","","","","","","Clear"
"2012-03-13 21:00","2012","03","13","21:00"," ","8.0","","-1.5","","51","","14","","32","","24.1","","97.36","","","","","","Clear"
"2012-03-13 22:00","2012","03","13","22:00"," ","7.4","","-1.7","","52","","14","","26","","24.1","","97.22","","","","","","Clear"
"2012-03-13 23:00","2012","03","13","23:00"," ","7.9","","-0.8","","54","","14","","30","","24.1","","97.05","","","","","","Clear"
"2012-03-14 00:00","2012","03","14","00:00"," ","7.5","","1.1","","64","","14","","26","","24.1","","96.95","","","","","","Clear"
"2012-03-14 01:00","2012","03","14","01:00"," ","7.3","","2.7","","73","","15","","28","","24.1","","96.80","","","","","","Clear"
"2012-03-14 02:00","2012","03","14","02:00"," ","8.0","","5.0","","81","","18","","30","","24.1","","96.76","","","","","","Clear"
"2012-03-14 03:00","2012","03","14","03:00"," ","7.8","","6.2","","90","","20","","28","","24.1","","96.88","","","","","","Clear"
"2012-03-14 04:00","2012","03","14","04:00"," ","6.7","","4.9","","88","","25","","24","","24.1","","97.03","","","","","","Mostly Cloudy"
"2012-03-14 05:00","2012","03","14","05:00"," ","6.6","","2.9","","77","","27","","33","","24.1","","97.21","","","","","","Mainly Clear"
"2012-03-14 06:00","2012","03","14","06:00"," ","5.8","","-0.6","","63","","28","","35","","24.1","","97.39","","","","","","Mainly Clear"
"2012-03-14 07:00","2012","03","14","07:00"," ","4.6","","-1.6","","64","","27","","33","","24.1","","97.61","","","","","","Mostly Cloudy"
"2012-03-14 08:00","2012","03","14","08:00"," ","5.6","","-2.0","","58","","27","","37","","24.1","","97.76","","","","","","Mostly Cloudy"
"2012-03-14 09:00","2012","03","14","09:00"," ","5.7","","-1.9","","58","","27","","35","","24.1","","97.91","","","","","","Mostly Cloudy"
"2012-03-14 10:00","2012","03","14","10:00"," ","6.2","","-1.9","","56","","29","","41","","24.1","","98.07","","","","","","Mostly Cloudy"
"2012-03-14 11:00","2012","03","14","11:00"," ","7.0","","-1.2","","56","","29","","33","","24.1","","98.13","","","","","","Mostly Cloudy"
"2012-03-14 12:00","2012","03","14","12:00"," ","7.4","","-2.5","","49","","30","","24","","24.1","","98.19","","","","","","Mostly Cloudy"
"2012-03-14 13:00","2012","03","14","13:00"," ","8.9","","-3.0","","43","","30","","30","","24.1","","98.23","","","","","","Mostly Cloudy"
"2012-03-14 14:00","2012","03","14","14:00"," ","9.8","","-1.6","","45","","30","","26","","24.1","","98.34","","","","","","Mostly Cloudy"
"2012-03-14 15:00","2012","03","14","15:00"," ","9.6","","-3.0","","41","","29","","26","","24.1","","98.38","","","","","","Mostly Cloudy"
"2012-03-14 16:00","2012","03","14","16:00"," ","9.1","","-2.4","","44","","29","","13","","24.1","","98.42","","","","","","Mostly Cloudy"
"2012-03-14 17:00","2012","03","14","17:00"," ","9.8","","-4.5","","36","","27","","11","","24.1","","98.47","","","","","","Mostly Cloudy"
"2012-03-14 18:00","2012","03","14","18:00"," ","8.4","","-5.8","","36","","24","","9","","24.1","","98.50","","","","","","Mainly Clear"
"2012-03-14 19:00","2012","03","14","19:00"," ","5.8","","-5.3","","45","","19","","7","","24.1","","98.51","","","","","","Mainly Clear"
"2012-03-14 20:00","2012","03","14","20:00"," ","5.3","","-3.8","","52","","23","","13","","24.1","","98.54","","","","","","Mainly Clear"
"2012-03-14 21:00","2012","03","14","21:00"," ","4.5","","-4.3","","53","","24","","11","","24.1","","98.57","","","","","","Mostly Cloudy"
"2012-03-14 22:00","2012","03","14","22:00"," ","3.9","","-4.9","","53","","22","","15","","24.1","","98.61","","","","","","Mainly Clear"
"2012-03-14 23:00","2012","03","14","23:00"," ","3.6","","-3.6","","59","","23","","15","","24.1","","98.63","","","","","","Mainly Clear"
"2012-03-15 00:00","2012","03","15","00:00"," ","2.8","","-3.7","","62","","23","","17","","24.1","","98.63","","","","","","Clear"
"2012-03-15 01:00","2012","03","15","01:00"," ","3.2","","-4.6","","57","","22","","17","","24.1","","98.65","","","","","","Mainly Clear"
"2012-03-15 02:00","2012","03","15","02:00"," ","2.7","","-4.7","","58","","21","","17","","24.1","","98.67","","","","","","Clear"
"2012-03-15 03:00","2012","03","15","03:00"," ","1.8","","-4.0","","65","","23","","17","","24.1","","98.70","","","","","","Clear"
"2012-03-15 04:00","2012","03","15","04:00"," ","-0.2","","-4.0","","76","","22","","11","","24.1","","98.71","","","","-4","","Clear"
"2012-03-15 05:00","2012","03","15","05:00"," ","-2.4","","-4.9","","83","","17","","9","","24.1","","98.74","","","","-6","","Mainly Clear"
"2012-03-15 06:00","2012","03","15","06:00"," ","-1.2","","-3.4","","85","","18","","15","","24.1","","98.79","","","","-6","","Mainly Clear"
"2012-03-15 07:00","2012","03","15","07:00"," ","-1.5","","-3.3","","88","","18","","13","","24.1","","98.79","","","","-6","","Mainly Clear"
"2012-03-15 08:00","2012","03","15","08:00"," ","2.4","","-2.4","","71","","18","","13","","24.1","","98.77","","","","","","Mainly Clear"
"2012-03-15 09:00","2012","03","15","09:00"," ","4.7","","-2.4","","60","","18","","17","","24.1","","98.75","","","","","","Mainly Clear"
"2012-03-15 10:00","2012","03","15","10:00"," ","7.1","","-2.3","","51","","19","","20","","24.1","","98.74","","","","","","Mostly Cloudy"
"2012-03-15 11:00","2012","03","15","11:00"," ","9.2","","-0.6","","50","","19","","22","","24.1","","98.74","","","","","","Mostly Cloudy"
"2012-03-15 12:00","2012","03","15","12:00"," ","9.5","","0.8","","55","","19","","28","","24.1","","98.68","","","","","","Mostly Cloudy"
"2012-03-15 13:00","2012","03","15","13:00"," ","12.3","","0.0","","43","","19","","35","","24.1","","98.59","","","","","","Mostly Cloudy"
"2012-03-15 14:00","2012","03","15","14:00"," ","13.1","","1.5","","45","","18","","37","","24.1","","98.48","","","","","","Mainly Clear"
"2012-03-15 15:00","2012","03","15","15:00"," ","13.8","","3.4","","49","","18","","32","","24.1","","98.42","","","","","","Mainly Clear"
"2012-03-15 16:00","2012","03","15","16:00"," ","14.0","","1.7","","43","","19","","30","","24.1","","98.37","","","","","","Mainly Clear"
"2012-03-15 17:00","2012","03","15","17:00"," ","13.2","","3.2","","51","","19","","30","","24.1","","98.37","","","","","","Mostly Cloudy"
"2012-03-15 18:00","2012","03","15","18:00"," ","11.0","","3.6","","60","","19","","19","","24.1","","98.37","","","","","","Mostly Cloudy"
"2012-03-15 19:00","2012","03","15","19:00"," ","8.9","","3.9","","71","","18","","17","","24.1","","98.38","","","","","","Mostly Cloudy"
"2012-03-15 20:00","2012","03","15","20:00"," ","8.0","","3.2","","72","","19","","22","","24.1","","98.36","","","","","","Mostly Cloudy"
"2012-03-15 21:00","2012","03","15","21:00"," ","8.2","","2.9","","69","","18","","24","","24.1","","98.36","","","","","","Mostly Cloudy"
"2012-03-15 22:00","2012","03","15","22:00"," ","7.9","","2.6","","69","","18","","22","","24.1","","98.38","","","","","","Mostly Cloudy"
"2012-03-15 23:00","2012","03","15","23:00"," ","6.5","","2.9","","78","","18","","17","","24.1","","98.37","","","","","","Mostly Cloudy"
"2012-03-16 00:00","2012","03","16","00:00"," ","5.8","","2.5","","79","","19","","17","","24.1","","98.37","","","","","","Mainly Clear"
"2012-03-16 01:00","2012","03","16","01:00"," ","5.2","","2.2","","81","","18","","20","","24.1","","98.29","","","","","","Clear"
"2012-03-16 02:00","2012","03","16","02:00"," ","4.4","","1.4","","81","","17","","20","","24.1","","98.28","","","","","","Clear"
"2012-03-16 03:00","2012","03","16","03:00"," ","5.1","","1.2","","76","","17","","20","","24.1","","98.24","","","","","","Clear"
"2012-03-16 04:00","2012","03","16","04:00"," ","5.0","","0.9","","75","","16","","19","","24.1","","98.19","","","","","","Clear"
"2012-03-16 05:00","2012","03","16","05:00"," ","3.6","","0.3","","79","","14","","19","","24.1","","98.15","","","","","","Clear"
"2012-03-16 06:00","2012","03","16","06:00"," ","2.9","","-0.1","","81","","15","","19","","24.1","","98.13","","","","","","Mainly Clear"
"2012-03-16 07:00","2012","03","16","07:00"," ","5.2","","0.7","","73","","16","","26","","24.1","","98.10","","","","","","Mostly Cloudy"
"2012-03-16 08:00","2012","03","16","08:00"," ","6.6","","1.0","","67","","18","","33","","24.1","","98.05","","","","","","Mainly Clear"
"2012-03-16 09:00","2012","03","16","09:00"," ","9.1","","2.1","","62","","18","","33","","24.1","","97.96","","","","","","Mostly Cloudy"
"2012-03-16 10:00","2012","03","16","10:00"," ","9.9","","3.0","","62","","17","","30","","24.1","","97.89","","","","","","Mostly Cloudy"
"2012-03-16 11:00","2012","03","16","11:00"," ","13.2","","4.2","","54","","16","","32","","24.1","","97.80","","","","","","Mostly Cloudy"
"2012-03-16 12:00","2012","03","16","12:00"," ","14.9","","5.5","","53","","16","","33","","24.1","","97.72","","","","","","Mostly Cloudy"
"2012-03-16 13:00","2012","03","16","13:00"," ","16.2","","6.5","","53","","17","","32","","24.1","","97.59","","","","","","Cloudy"
"2012-03-16 14:00","2012","03","16","14:00"," ","17.8","","6.4","","47","","16","","32","","24.1","","97.43","","","","","","Cloudy"
"2012-03-16 15:00","2012","03","16","15:00"," ","18.9","","6.7","","45","","16","","35","","24.1","","97.32","","","","","","Mostly Cloudy"
"2012-03-16 16:00","2012","03","16","16:00"," ","19.7","","8.4","","48","","16","","26","","24.1","","97.25","","","","","","Mostly Cloudy"
"2012-03-16 17:00","2012","03","16","17:00"," ","19.1","","10.2","","56","","18","","30","","24.1","","97.21","","","","","","Mostly Cloudy"
"2012-03-16 18:00","2012","03","16","18:00"," ","17.0","","10.5","","66","","16","","24","","24.1","","97.16","","","","","","Mostly Cloudy"
"2012-03-16 19:00","2012","03","16","19:00"," ","15.5","","10.9","","74","","18","","20","","24.1","","97.13","","","","","","Mostly Cloudy"
"2012-03-16 20:00","2012","03","16","20:00"," ","15.3","","10.7","","74","","18","","26","","24.1","","97.11","","","","","","Mostly Cloudy"
"2012-03-16 21:00","2012","03","16","21:00"," ","13.5","","10.0","","79","","18","","20","","24.1","","97.11","","","","","","Clear"
"2012-03-16 22:00","2012","03","16","22:00"," ","12.8","","9.7","","81","","19","","22","","24.1","","97.10","","","","","","Clear"
"2012-03-16 23:00","2012","03","16","23:00"," ","11.5","","9.3","","86","","18","","17","","19.3","","97.12","","","","","","Clear"
"2012-03-17 00:00","2012","03","17","00:00"," ","10.0","","8.7","","92","","19","","15","","19.3","","97.12","","","","","","Mostly Cloudy"
"2012-03-17 01:00","2012","03","17","01:00"," ","6.7","","6.5","","99","","17","","11","","12.9","","97.16","","","","","","Mainly Clear"
"2012-03-17 02:00","2012","03","17","02:00"," ","5.1","","5.1","","100","","17","","13","","12.9","","97.18","","","","","","Mainly Clear"
"2012-03-17 03:00","2012","03","17","03:00"," ","7.5","","7.5","","100","","18","","15","","12.9","","97.23","","","","","","Mostly Cloudy"
"2012-03-17 04:00","2012","03","17","04:00"," ","6.7","","6.6","","99","","18","","9","","12.9","","97.31","","","","","","Mostly Cloudy"
"2012-03-17 05:00","2012","03","17","05:00"," ","6.0","","5.9","","99","","23","","6","","9.7","","97.37","","","","","","Fog"
"2012-03-17 06:00","2012","03","17","06:00"," ","4.9","","4.5","","97","","29","","11","","24.1","","97.51","","","","","","Mainly Clear"
"2012-03-17 07:00","2012","03","17","07:00"," ","3.6","","3.6","","100","","31","","13","","16.1","","97.50","","","","","","Mostly Cloudy"
"2012-03-17 08:00","2012","03","17","08:00"," ","9.0","","7.4","","90","","14","","4","","24.1","","97.59","","","","","","Mostly Cloudy"
"2012-03-17 09:00","2012","03","17","09:00"," ","11.5","","7.3","","75","","30","","6","","24.1","","97.60","","","","","","Mainly Clear"
"2012-03-17 10:00","2012","03","17","10:00"," ","13.8","","7.8","","67","","32","","7","","24.1","","97.66","","","","","","Mostly Cloudy"
"2012-03-17 11:00","2012","03","17","11:00"," ","16.7","","7.5","","55","","","","0","","24.1","","97.69","","","","","","Mostly Cloudy"
"2012-03-17 12:00","2012","03","17","12:00"," ","17.1","","7.8","","54","","34","","11","","24.1","","97.71","","","","","","Mostly Cloudy"
"2012-03-17 13:00","2012","03","17","13:00"," ","17.6","","6.9","","49","","36","","13","","24.1","","97.68","","","","","","Mostly Cloudy"
"2012-03-17 14:00","2012","03","17","14:00"," ","18.4","","7.4","","49","","3","","9","","24.1","","97.68","","","","","","Mostly Cloudy"
"2012-03-17 15:00","2012","03","17","15:00"," ","18.9","","8.5","","51","","3","","15","","24.1","","97.67","","","","","","Mostly Cloudy"
"2012-03-17 16:00","2012","03","17","16:00"," ","18.6","","7.8","","49","","3","","20","","24.1","","97.71","","","","","","Mostly Cloudy"
"2012-03-17 17:00","2012","03","17","17:00"," ","15.9","","6.0","","52","","4","","24","","24.1","","97.69","","","","","","Mostly Cloudy"
"2012-03-17 18:00","2012","03","17","18:00"," ","13.5","","3.8","","52","","3","","24","","24.1","","97.71","","","","","","Mostly Cloudy"
"2012-03-17 19:00","2012","03","17","19:00"," ","10.4","","3.7","","63","","4","","22","","24.1","","97.65","","","","","","Mostly Cloudy"
"2012-03-17 20:00","2012","03","17","20:00"," ","9.5","","2.1","","60","","5","","20","","24.1","","97.65","","","","","","Mainly Clear"
"2012-03-17 21:00","2012","03","17","21:00"," ","8.8","","0.4","","56","","5","","20","","24.1","","97.64","","","","","","Mainly Clear"
"2012-03-17 22:00","2012","03","17","22:00"," ","6.9","","1.2","","67","","5","","15","","24.1","","97.62","","","","","","Cloudy"
"2012-03-17 23:00","2012","03","17","23:00"," ","6.8","","1.3","","68","","5","","11","","24.1","","97.54","","","","","","Cloudy"
"2012-03-18 00:00","2012","03","18","00:00"," ","7.4","","1.8","","68","","7","","9","","24.1","","97.46","","","","","","Mostly Cloudy"
"2012-03-18 01:00","2012","03","18","01:00"," ","7.7","","2.9","","72","","4","","7","","24.1","","97.43","","","","","","Cloudy"
"2012-03-18 02:00","2012","03","18","02:00"," ","6.9","","3.4","","78","","5","","11","","24.1","","97.38","","","","","","Mostly Cloudy"
"2012-03-18 03:00","2012","03","18","03:00"," ","6.9","","3.4","","78","","8","","9","","24.1","","97.32","","","","","","Mainly Clear"
"2012-03-18 04:00","2012","03","18","04:00"," ","6.6","","4.3","","85","","6","","6","","24.1","","97.32","","","","","","Mainly Clear"
"2012-03-18 05:00","2012","03","18","05:00"," ","4.7","","3.2","","90","","8","","11","","24.1","","97.27","","","","","","Mainly Clear"
"2012-03-18 06:00","2012","03","18","06:00"," ","6.9","","6.9","","100","","12","","11","","24.1","","97.24","","","","","","Clear"
"2012-03-18 07:00","2012","03","18","07:00"," ","9.9","","9.9","","100","","12","","13","","6.4","","97.24","","","","","","Fog"
"2012-03-18 08:00","2012","03","18","08:00"," ","12.5","","12.4","","99","","13","","17","","8.0","","97.21","","","","","","Fog"
"2012-03-18 09:00","2012","03","18","09:00"," ","15.1","","13.2","","88","","14","","15","","16.1","","97.19","","","","","","Mainly Clear"
"2012-03-18 10:00","2012","03","18","10:00"," ","17.7","","14.3","","80","","16","","26","","19.3","","97.14","","","","","","Mainly Clear"
"2012-03-18 11:00","2012","03","18","11:00"," ","20.2","","15.6","","75","","17","","37","","19.3","","97.06","","25","","","","Mainly Clear"
"2012-03-18 12:00","2012","03","18","12:00"," ","19.8","","16.2","","80","","18","","32","","24.1","","97.05","","","","","","Cloudy"
"2012-03-18 13:00","2012","03","18","13:00"," ","19.7","","16.5","","82","","17","","33","","16.1","","97.03","","","","","","Cloudy"
"2012-03-18 14:00","2012","03","18","14:00"," ","20.0","","16.3","","79","","17","","39","","16.1","","96.99","","25","","","","Cloudy"
"2012-03-18 15:00","2012","03","18","15:00"," ","20.0","","16.0","","78","","16","","30","","16.1","","96.95","","25","","","","Cloudy"
"2012-03-18 16:00","2012","03","18","16:00"," ","20.2","","15.9","","76","","14","","28","","19.3","","96.88","","25","","","","Mostly Cloudy"
"2012-03-18 17:00","2012","03","18","17:00"," ","20.7","","15.3","","71","","17","","39","","19.3","","96.90","","25","","","","Mostly Cloudy"
"2012-03-18 18:00","2012","03","18","18:00"," ","20.2","","14.6","","70","","17","","41","","19.3","","96.93","","","","","","Cloudy"
"2012-03-18 19:00","2012","03","18","19:00"," ","19.5","","14.6","","73","","15","","24","","19.3","","96.90","","","","","","Mostly Cloudy"
"2012-03-18 20:00","2012","03","18","20:00"," ","19.3","","14.4","","73","","14","","26","","24.1","","96.89","","","","","","Mostly Cloudy"
"2012-03-18 21:00","2012","03","18","21:00"," ","18.4","","14.1","","76","","15","","33","","24.1","","96.83","","","","","","Mainly Clear"
"2012-03-18 22:00","2012","03","18","22:00"," ","17.6","","13.8","","78","","14","","26","","24.1","","96.79","","","","","","Mainly Clear"
"2012-03-18 23:00","2012","03","18","23:00"," ","16.2","","13.4","","83","","15","","22","","24.1","","96.73","","","","","","Clear"
"2012-03-19 00:00","2012","03","19","00:00"," ","16.8","","13.6","","81","","16","","24","","24.1","","96.67","","","","","","Clear"
"2012-03-19 01:00","2012","03","19","01:00"," ","17.8","","13.6","","76","","17","","32","","24.1","","96.66","","","","","","Clear"
"2012-03-19 02:00","2012","03","19","02:00"," ","18.8","","13.8","","73","","18","","35","","24.1","","96.64","","","","","","Mainly Clear"
"2012-03-19 03:00","2012","03","19","03:00"," ","","","","","","","","","","","","","","","","","","",""
"2012-03-19 04:00","2012","03","19","04:00"," ","18.2","","14.4","","78","","18","","41","","24.1","","96.64","","","","","","Mainly Clear"
"2012-03-19 05:00","2012","03","19","05:00"," ","18.2","","14.7","","80","","18","","43","","24.1","","96.69","","","","","","Mostly Cloudy"
"2012-03-19 06:00","2012","03","19","06:00"," ","17.5","","14.7","","84","","17","","39","","24.1","","96.71","","","","","","Mostly Cloudy"
"2012-03-19 07:00","2012","03","19","07:00"," ","17.3","","14.7","","85","","18","","37","","24.1","","96.76","","","","","","Mostly Cloudy"
"2012-03-19 08:00","2012","03","19","08:00"," ","17.7","","14.9","","84","","17","","41","","24.1","","96.78","","","","","","Mainly Clear"
"2012-03-19 09:00","2012","03","19","09:00"," ","19.1","","15.2","","78","","17","","33","","24.1","","96.78","","","","","","Mostly Cloudy"
"2012-03-19 10:00","2012","03","19","10:00"," ","20.5","","15.4","","73","","18","","48","","24.1","","96.81","","25","","","","Mostly Cloudy"
"2012-03-19 11:00","2012","03","19","11:00"," ","21.0","","15.7","","72","","18","","46","","24.1","","96.85","","25","","","","Mainly Clear"
"2012-03-19 12:00","2012","03","19","12:00"," ","22.2","","16.0","","68","","19","","44","","24.1","","96.84","","27","","","","Mostly Cloudy"
"2012-03-19 13:00","2012","03","19","13:00"," ","22.3","","15.8","","67","","18","","46","","24.1","","96.82","","27","","","","Mostly Cloudy"
"2012-03-19 14:00","2012","03","19","14:00"," ","22.9","","15.9","","65","","17","","41","","24.1","","96.77","","27","","","","Mostly Cloudy"
"2012-03-19 15:00","2012","03","19","15:00"," ","23.6","","15.7","","61","","18","","41","","24.1","","96.73","","28","","","","Mainly Clear"
"2012-03-19 16:00","2012","03","19","16:00"," ","22.1","","15.7","","67","","17","","35","","24.1","","96.75","","27","","","","Mostly Cloudy"
"2012-03-19 17:00","2012","03","19","17:00"," ","21.8","","15.8","","69","","16","","28","","24.1","","96.66","","26","","","","Mostly Cloudy"
"2012-03-19 18:00","2012","03","19","18:00"," ","21.1","","15.5","","70","","15","","24","","24.1","","96.69","","25","","","","Cloudy"
"2012-03-19 19:00","2012","03","19","19:00"," ","17.2","","17.2","","100","","21","","17","","1.6","","96.72","","","","","","Heavy Thunderstorms,Heavy Rain Showers"
"2012-03-19 20:00","2012","03","19","20:00"," ","15.5","","15.5","","100","","18","","19","","12.9","","96.77","","","","","","Rain Showers"
"2012-03-19 21:00","2012","03","19","21:00"," ","15.3","","15.3","","100","","19","","15","","24.1","","96.81","","","","","","Cloudy"
"2012-03-19 22:00","2012","03","19","22:00"," ","14.5","","13.9","","96","","17","","20","","24.1","","96.80","","","","","","Cloudy"
"2012-03-19 23:00","2012","03","19","23:00"," ","13.4","","12.8","","96","","18","","22","","24.1","","96.89","","","","","","Cloudy"
"2012-03-20 00:00","2012","03","20","00:00"," ","13.5","","12.5","","94","","19","","30","","24.1","","96.94","","","","","","Cloudy"
"2012-03-20 01:00","2012","03","20","01:00"," ","12.9","","10.6","","86","","21","","24","","24.1","","96.97","","","","","","Cloudy"
"2012-03-20 02:00","2012","03","20","02:00"," ","11.1","","6.8","","75","","24","","20","","24.1","","97.08","","","","","","Cloudy"
"2012-03-20 03:00","2012","03","20","03:00"," ","8.0","","1.9","","65","","25","","17","","24.1","","97.21","","","","","","Mostly Cloudy"
"2012-03-20 04:00","2012","03","20","04:00"," ","5.7","","1.2","","73","","25","","24","","24.1","","97.30","","","","","","Mostly Cloudy"
"2012-03-20 05:00","2012","03","20","05:00"," ","4.4","","0.2","","74","","25","","22","","24.1","","97.42","","","","","","Mainly Clear"
"2012-03-20 06:00","2012","03","20","06:00"," ","3.3","","-0.1","","78","","23","","17","","24.1","","97.53","","","","","","Mainly Clear"
"2012-03-20 07:00","2012","03","20","07:00"," ","2.9","","-1.5","","73","","23","","20","","24.1","","97.64","","","","","","Mainly Clear"
"2012-03-20 08:00","2012","03","20","08:00"," ","3.5","","-1.6","","69","","22","","17","","24.1","","97.73","","","","","","Mostly Cloudy"
"2012-03-20 09:00","2012","03","20","09:00"," ","4.8","","-1.5","","64","","25","","32","","24.1","","97.82","","","","","","Mostly Cloudy"
"2012-03-20 10:00","2012","03","20","10:00"," ","6.7","","-0.3","","61","","25","","28","","24.1","","97.91","","","","","","Mostly Cloudy"
"2012-03-20 11:00","2012","03","20","11:00"," ","7.5","","-0.3","","58","","24","","20","","24.1","","97.99","","","","","","Mostly Cloudy"
"2012-03-20 12:00","2012","03","20","12:00"," ","8.3","","-0.1","","55","","22","","26","","24.1","","98.03","","","","","","Mostly Cloudy"
"2012-03-20 13:00","2012","03","20","13:00"," ","8.6","","-0.2","","54","","23","","24","","24.1","","98.02","","","","","","Mostly Cloudy"
"2012-03-20 14:00","2012","03","20","14:00"," ","9.4","","-1.2","","47","","23","","26","","24.1","","98.05","","","","","","Mostly Cloudy"
"2012-03-20 15:00","2012","03","20","15:00"," ","9.6","","-2.1","","44","","21","","26","","24.1","","98.07","","","","","","Mostly Cloudy"
"2012-03-20 16:00","2012","03","20","16:00"," ","9.7","","-0.7","","48","","20","","24","","24.1","","98.12","","","","","","Mostly Cloudy"
"2012-03-20 17:00","2012","03","20","17:00"," ","9.6","","0.9","","55","","19","","24","","24.1","","98.10","","","","","","Mostly Cloudy"
"2012-03-20 18:00","2012","03","20","18:00"," ","8.6","","2.2","","64","","19","","20","","24.1","","98.14","","","","","","Mostly Cloudy"
"2012-03-20 19:00","2012","03","20","19:00"," ","7.8","","2.1","","67","","19","","22","","24.1","","98.15","","","","","","Mostly Cloudy"
"2012-03-20 20:00","2012","03","20","20:00"," ","6.6","","1.2","","68","","19","","20","","24.1","","98.18","","","","","","Mainly Clear"
"2012-03-20 21:00","2012","03","20","21:00"," ","5.7","","0.8","","71","","18","","17","","24.1","","98.13","","","","","","Clear"
"2012-03-20 22:00","2012","03","20","22:00"," ","5.3","","0.4","","71","","18","","22","","24.1","","98.11","","","","","","Clear"
"2012-03-20 23:00","2012","03","20","23:00"," ","5.4","","-0.5","","66","","18","","22","","24.1","","98.09","","","","","","Clear"
"2012-03-21 00:00","2012","03","21","00:00"," ","4.7","","-1.1","","66","","18","","24","","24.1","","98.10","","","","","","Clear"
"2012-03-21 01:00","2012","03","21","01:00"," ","4.7","","-1.0","","67","","18","","33","","24.1","","97.98","","","","","","Clear"
"2012-03-21 02:00","2012","03","21","02:00"," ","5.8","","-0.7","","63","","18","","39","","24.1","","97.96","","","","","","Clear"
"2012-03-21 03:00","2012","03","21","03:00"," ","5.7","","-1.0","","62","","19","","32","","24.1","","97.92","","","","","","Clear"
"2012-03-21 04:00","2012","03","21","04:00"," ","5.7","","-1.5","","60","","19","","30","","24.1","","97.91","","","","","","Clear"
"2012-03-21 05:00","2012","03","21","05:00"," ","5.7","","-1.8","","58","","20","","30","","24.1","","97.90","","","","","","Mostly Cloudy"
"2012-03-21 06:00","2012","03","21","06:00"," ","4.8","","-1.5","","64","","20","","30","","24.1","","97.94","","","","","","Mostly Cloudy"
"2012-03-21 07:00","2012","03","21","07:00"," ","4.4","","-1.4","","66","","21","","24","","24.1","","97.99","","","","","","Mostly Cloudy"
"2012-03-21 08:00","2012","03","21","08:00"," ","5.6","","-1.2","","62","","21","","24","","24.1","","97.98","","","","","","Mostly Cloudy"
"2012-03-21 09:00","2012","03","21","09:00"," ","9.1","","-0.6","","51","","24","","26","","24.1","","98.06","","","","","","Mostly Cloudy"
"2012-03-21 10:00","2012","03","21","10:00"," ","10.6","","-0.7","","45","","23","","30","","24.1","","98.14","","","","","","Mostly Cloudy"
"2012-03-21 11:00","2012","03","21","11:00"," ","12.4","","0.0","","42","","24","","32","","24.1","","98.15","","","","","","Mostly Cloudy"
"2012-03-21 12:00","2012","03","21","12:00"," ","14.5","","-0.4","","36","","25","","35","","24.1","","98.22","","","","","","Mostly Cloudy"
"2012-03-21 13:00","2012","03","21","13:00"," ","15.1","","-1.0","","33","","26","","35","","24.1","","98.26","","","","","","Mostly Cloudy"
"2012-03-21 14:00","2012","03","21","14:00"," ","15.7","","-2.4","","29","","27","","35","","24.1","","98.32","","","","","","Mostly Cloudy"
"2012-03-21 15:00","2012","03","21","15:00"," ","15.0","","-4.8","","25","","27","","32","","24.1","","98.40","","","","","","Mostly Cloudy"
"2012-03-21 16:00","2012","03","21","16:00"," ","15.3","","-3.8","","27","","30","","30","","24.1","","98.44","","","","","","Mostly Cloudy"
"2012-03-21 17:00","2012","03","21","17:00"," ","15.0","","-5.3","","24","","26","","24","","19.3","","98.49","","","","","","Mostly Cloudy"
"2012-03-21 18:00","2012","03","21","18:00"," ","13.6","","-4.0","","29","","25","","9","","19.3","","98.57","","","","","","Cloudy"
"2012-03-21 19:00","2012","03","21","19:00"," ","12.3","","-3.9","","32","","25","","9","","19.3","","98.65","","","","","","Cloudy"
"2012-03-21 20:00","2012","03","21","20:00"," ","11.4","","-3.4","","35","","26","","7","","19.3","","98.71","","","","","","Cloudy"
"2012-03-21 21:00","2012","03","21","21:00"," ","10.5","","-3.2","","38","","23","","11","","19.3","","98.80","","","","","","Mostly Cloudy"
"2012-03-21 22:00","2012","03","21","22:00"," ","10.3","","-3.2","","39","","26","","7","","24.1","","98.83","","","","","","Cloudy"
"2012-03-21 23:00","2012","03","21","23:00"," ","8.4","","-0.8","","52","","27","","4","","24.1","","98.86","","","","","","Cloudy"
"2012-03-22 00:00","2012","03","22","00:00"," ","7.9","","-1.5","","51","","","","0","","24.1","","98.87","","","","","","Cloudy"
"2012-03-22 01:00","2012","03","22","01:00"," ","4.8","","0.5","","74","","31","","7","","24.1","","98.89","","","","","","Mostly Cloudy"
"2012-03-22 02:00","2012","03","22","02:00"," ","5.5","","-0.8","","64","","34","","4","","24.1","","98.93","","","","","","Mostly Cloudy"
"2012-03-22 03:00","2012","03","22","03:00"," ","5.3","","0.2","","70","","12","","4","","24.1","","98.94","","","","","","Mostly Cloudy"
"2012-03-22 04:00","2012","03","22","04:00"," ","6.1","","-1.3","","59","","12","","4","","24.1","","98.95","","","","","","Mostly Cloudy"
"2012-03-22 05:00","2012","03","22","05:00"," ","5.3","","-0.7","","65","","7","","4","","24.1","","99.01","","","","","","Mostly Cloudy"
"2012-03-22 06:00","2012","03","22","06:00"," ","5.7","","-0.7","","63","","9","","7","","24.1","","99.02","","","","","","Mostly Cloudy"
"2012-03-22 07:00","2012","03","22","07:00"," ","5.5","","0.5","","70","","6","","7","","24.1","","99.11","","","","","","Mostly Cloudy"
"2012-03-22 08:00","2012","03","22","08:00"," ","7.8","","0.4","","59","","6","","11","","24.1","","99.10","","","","","","Mostly Cloudy"
"2012-03-22 09:00","2012","03","22","09:00"," ","11.6","","-2.8","","36","","8","","19","","24.1","","99.08","","","","","","Mostly Cloudy"
"2012-03-22 10:00","2012","03","22","10:00"," ","14.2","","-1.9","","33","","8","","22","","24.1","","99.05","","","","","","Mainly Clear"
"2012-03-22 11:00","2012","03","22","11:00"," ","15.5","","-1.6","","31","","9","","19","","24.1","","99.01","","","","","","Mainly Clear"
"2012-03-22 12:00","2012","03","22","12:00"," ","17.0","","-0.4","","31","","7","","15","","24.1","","99.00","","","","","","Mainly Clear"
"2012-03-22 13:00","2012","03","22","13:00"," ","18.0","","-0.6","","28","","6","","15","","24.1","","98.91","","","","","","Mainly Clear"
"2012-03-22 14:00","2012","03","22","14:00"," ","19.7","","-0.2","","26","","9","","15","","24.1","","98.82","","","","","","Mainly Clear"
"2012-03-22 15:00","2012","03","22","15:00"," ","21.2","","0.4","","25","","10","","17","","24.1","","98.75","","","","","","Mainly Clear"
"2012-03-22 16:00","2012","03","22","16:00"," ","21.2","","-1.2","","22","","16","","15","","24.1","","98.69","","","","","","Mainly Clear"
"2012-03-22 17:00","2012","03","22","17:00"," ","17.9","","3.4","","38","","3","","20","","24.1","","98.65","","","","","","Mainly Clear"
"2012-03-22 18:00","2012","03","22","18:00"," ","14.4","","2.3","","44","","3","","20","","24.1","","98.66","","","","","","Mainly Clear"
"2012-03-22 19:00","2012","03","22","19:00"," ","10.7","","2.0","","55","","4","","4","","24.1","","98.66","","","","","","Mainly Clear"
"2012-03-22 20:00","2012","03","22","20:00"," ","8.1","","1.9","","65","","4","","6","","24.1","","98.66","","","","","","Mainly Clear"
"2012-03-22 21:00","2012","03","22","21:00"," ","9.4","","2.0","","60","","3","","11","","24.1","","98.66","","","","","","Mostly Cloudy"
"2012-03-22 22:00","2012","03","22","22:00"," ","8.2","","3.5","","72","","9","","4","","24.1","","98.64","","","","","","Cloudy"
"2012-03-22 23:00","2012","03","22","23:00"," ","9.7","","3.8","","67","","","","0","","24.1","","98.64","","","","","","Cloudy"
"2012-03-23 00:00","2012","03","23","00:00"," ","11.8","","5.5","","65","","17","","9","","24.1","","98.62","","","","","","Cloudy"
"2012-03-23 01:00","2012","03","23","01:00"," ","14.2","","12.3","","88","","18","","13","","24.1","","98.60","","","","","","Cloudy"
"2012-03-23 02:00","2012","03","23","02:00"," ","13.5","","12.0","","91","","18","","9","","24.1","","98.61","","","","","","Cloudy"
"2012-03-23 03:00","2012","03","23","03:00"," ","12.7","","11.5","","92","","16","","13","","24.1","","98.57","","","","","","Mostly Cloudy"
"2012-03-23 04:00","2012","03","23","04:00"," ","12.4","","11.6","","95","","16","","15","","24.1","","98.55","","","","","","Mostly Cloudy"
"2012-03-23 05:00","2012","03","23","05:00"," ","12.7","","12.1","","96","","15","","9","","24.1","","98.56","","","","","","Cloudy"
"2012-03-23 06:00","2012","03","23","06:00"," ","12.4","","12.2","","99","","16","","6","","24.1","","98.60","","","","","","Cloudy"
"2012-03-23 07:00","2012","03","23","07:00"," ","12.4","","12.4","","100","","14","","6","","16.1","","98.63","","","","","","Cloudy"
"2012-03-23 08:00","2012","03","23","08:00"," ","12.9","","12.9","","100","","17","","6","","16.1","","98.65","","","","","","Cloudy"
"2012-03-23 09:00","2012","03","23","09:00"," ","13.5","","13.4","","99","","15","","6","","8.0","","98.64","","","","","","Fog"
"2012-03-23 10:00","2012","03","23","10:00"," ","14.4","","13.5","","94","","13","","7","","16.1","","98.63","","","","","","Cloudy"
"2012-03-23 11:00","2012","03","23","11:00"," ","15.4","","13.8","","90","","14","","7","","16.1","","98.61","","","","","","Cloudy"
"2012-03-23 12:00","2012","03","23","12:00"," ","15.7","","13.8","","88","","6","","6","","24.1","","98.61","","","","","","Cloudy"
"2012-03-23 13:00","2012","03","23","13:00"," ","16.1","","14.1","","88","","29","","4","","19.3","","98.55","","","","","","Cloudy"
"2012-03-23 14:00","2012","03","23","14:00"," ","13.9","","11.0","","83","","33","","17","","19.3","","98.53","","","","","","Cloudy"
"2012-03-23 15:00","2012","03","23","15:00"," ","14.7","","12.4","","86","","36","","15","","19.3","","98.52","","","","","","Cloudy"
"2012-03-23 16:00","2012","03","23","16:00"," ","14.8","","11.3","","80","","34","","13","","19.3","","98.50","","","","","","Cloudy"
"2012-03-23 17:00","2012","03","23","17:00"," ","13.9","","10.2","","78","","32","","9","","24.1","","98.50","","","","","","Cloudy"
"2012-03-23 18:00","2012","03","23","18:00"," ","10.9","","10.3","","96","","4","","15","","16.1","","98.53","","","","","","Cloudy"
"2012-03-23 19:00","2012","03","23","19:00"," ","10.8","","10.2","","96","","3","","15","","16.1","","98.54","","","","","","Cloudy"
"2012-03-23 20:00","2012","03","23","20:00"," ","10.9","","8.9","","87","","3","","20","","24.1","","98.54","","","","","","Cloudy"
"2012-03-23 21:00","2012","03","23","21:00"," ","10.5","","8.4","","87","","3","","15","","24.1","","98.55","","","","","","Cloudy"
"2012-03-23 22:00","2012","03","23","22:00"," ","9.5","","7.9","","90","","3","","17","","24.1","","98.54","","","","","","Cloudy"
"2012-03-23 23:00","2012","03","23","23:00"," ","9.1","","7.5","","90","","5","","11","","24.1","","98.51","","","","","","Cloudy"
"2012-03-24 00:00","2012","03","24","00:00"," ","8.7","","7.0","","89","","34","","9","","24.1","","98.51","","","","","","Cloudy"
"2012-03-24 01:00","2012","03","24","01:00"," ","8.0","","6.4","","90","","35","","11","","24.1","","98.52","","","","","","Cloudy"
"2012-03-24 02:00","2012","03","24","02:00"," ","6.5","","5.5","","93","","","","0","","24.1","","98.40","","","","","","Cloudy"
"2012-03-24 03:00","2012","03","24","03:00"," ","5.3","","4.4","","94","","28","","13","","24.1","","98.38","","","","","","Cloudy"
"2012-03-24 04:00","2012","03","24","04:00"," ","4.3","","3.8","","97","","29","","17","","24.1","","98.43","","","","","","Cloudy"
"2012-03-24 05:00","2012","03","24","05:00"," ","2.5","","2.0","","96","","32","","7","","24.1","","98.36","","","","","","Cloudy"
"2012-03-24 06:00","2012","03","24","06:00"," ","0.0","","0.0","","100","","31","","30","","9.7","","98.57","","","","-6","","Drizzle"
"2012-03-24 07:00","2012","03","24","07:00"," ","0.5","","0.5","","100","","26","","4","","8.0","","98.50","","","","","","Moderate Rain Showers,Fog"
"2012-03-24 08:00","2012","03","24","08:00"," ","0.3","","0.3","","100","","31","","35","","24.1","","98.67","","","","","","Cloudy"
"2012-03-24 09:00","2012","03","24","09:00"," ","0.8","","0.3","","96","","32","","26","","24.1","","98.80","","","","","","Cloudy"
"2012-03-24 10:00","2012","03","24","10:00"," ","-0.1","","-1.1","","93","","31","","35","","24.1","","98.86","","","","-7","","Cloudy"
"2012-03-24 11:00","2012","03","24","11:00"," ","0.3","","-0.7","","93","","31","","35","","24.1","","98.95","","","","","","Cloudy"
"2012-03-24 12:00","2012","03","24","12:00"," ","-1.1","","-2.1","","93","","31","","35","","24.1","","99.09","","","","-8","","Cloudy"
"2012-03-24 13:00","2012","03","24","13:00"," ","-0.8","","-3.4","","83","","32","","44","","24.1","","99.18","","","","-9","","Cloudy"
"2012-03-24 14:00","2012","03","24","14:00"," ","-0.8","","-3.9","","79","","33","","37","","24.1","","99.25","","","","-8","","Mostly Cloudy"
"2012-03-24 15:00","2012","03","24","15:00"," ","-0.8","","-4.3","","77","","32","","37","","24.1","","99.37","","","","-8","","Mostly Cloudy"
"2012-03-24 16:00","2012","03","24","16:00"," ","-0.4","","-3.8","","78","","33","","41","","24.1","","99.45","","","","-8","","Mostly Cloudy"
"2012-03-24 17:00","2012","03","24","17:00"," ","-0.6","","-4.6","","74","","34","","33","","24.1","","99.45","","","","-8","","Mostly Cloudy"
"2012-03-24 18:00","2012","03","24","18:00"," ","","","","","","","","","","","","","","","","","","",""
"2012-03-24 19:00","2012","03","24","19:00"," ","-1.4","","-5.4","","74","","34","","28","","24.1","","99.52","","","","-8","","Mostly Cloudy"
"2012-03-24 20:00","2012","03","24","20:00"," ","-2.1","","-6.1","","74","","35","","28","","24.1","","99.58","","","","-9","","Mostly Cloudy"
"2012-03-24 21:00","2012","03","24","21:00"," ","-2.8","","-6.4","","76","","35","","19","","24.1","","99.63","","","","-9","","Mostly Cloudy"
"2012-03-24 22:00","2012","03","24","22:00"," ","-3.2","","-6.9","","76","","36","","17","","24.1","","99.68","","","","-9","","Mostly Cloudy"
"2012-03-24 23:00","2012","03","24","23:00"," ","-3.8","","-7.2","","77","","36","","13","","24.1","","99.72","","","","-9","","Mostly Cloudy"
"2012-03-25 00:00","2012","03","25","00:00"," ","-5.1","","-7.2","","85","","35","","11","","24.1","","99.75","","","","-10","","Mainly Clear"
"2012-03-25 01:00","2012","03","25","01:00"," ","-4.8","","-7.4","","82","","36","","7","","24.1","","99.77","","","","-8","","Mostly Cloudy"
"2012-03-25 02:00","2012","03","25","02:00"," ","-4.7","","-7.6","","80","","34","","13","","24.1","","99.80","","","","-10","","Cloudy"
"2012-03-25 03:00","2012","03","25","03:00"," ","-4.8","","-9.3","","71","","35","","17","","24.1","","99.82","","","","-11","","Cloudy"
"2012-03-25 04:00","2012","03","25","04:00"," ","-4.7","","-8.1","","77","","36","","11","","24.1","","99.85","","","","-9","","Cloudy"
"2012-03-25 05:00","2012","03","25","05:00"," ","-5.0","","-8.7","","75","","1","","11","","24.1","","99.88","","","","-10","","Cloudy"
"2012-03-25 06:00","2012","03","25","06:00"," ","-4.8","","-8.3","","76","","1","","11","","24.1","","99.92","","","","-9","","Cloudy"
"2012-03-25 07:00","2012","03","25","07:00"," ","-4.8","","-8.6","","75","","36","","15","","24.1","","99.97","","","","-10","","Mostly Cloudy"
"2012-03-25 08:00","2012","03","25","08:00"," ","-4.7","","-9.8","","67","","2","","17","","24.1","","100.03","","","","-11","","Mostly Cloudy"
"2012-03-25 09:00","2012","03","25","09:00"," ","-4.0","","-9.0","","68","","1","","19","","24.1","","100.06","","","","-10","","Mostly Cloudy"
"2012-03-25 10:00","2012","03","25","10:00"," ","-3.6","","-9.3","","65","","2","","24","","24.1","","100.10","","","","-10","","Mostly Cloudy"
"2012-03-25 11:00","2012","03","25","11:00"," ","-3.9","","-8.7","","69","","1","","20","","24.1","","100.10","","","","-10","","Mostly Cloudy"
"2012-03-25 12:00","2012","03","25","12:00"," ","-2.4","","-7.9","","66","","2","","19","","24.1","","100.06","","","","-8","","Mostly Cloudy"
"2012-03-25 13:00","2012","03","25","13:00"," ","-1.5","","-7.3","","65","","3","","20","","24.1","","100.03","","","","-7","","Mainly Clear"
"2012-03-25 14:00","2012","03","25","14:00"," ","-0.9","","-7.1","","63","","1","","17","","24.1","","99.98","","","","-6","","Clear"
"2012-03-25 15:00","2012","03","25","15:00"," ","-0.8","","-6.9","","63","","2","","19","","24.1","","99.98","","","","-6","","Clear"
"2012-03-25 16:00","2012","03","25","16:00"," ","-0.8","","-8.7","","55","","5","","19","","24.1","","99.96","","","","-6","","Clear"
"2012-03-25 17:00","2012","03","25","17:00"," ","-0.3","","-8.4","","54","","4","","11","","24.1","","99.90","","","","-4","","Clear"
"2012-03-25 18:00","2012","03","25","18:00"," ","-0.4","","-6.9","","61","","5","","9","","24.1","","99.90","","","","-4","","Clear"
"2012-03-25 19:00","2012","03","25","19:00"," ","-2.1","","-6.6","","71","","4","","13","","24.1","","99.87","","","","-7","","Clear"
"2012-03-25 20:00","2012","03","25","20:00"," ","-3.6","","-6.7","","79","","5","","13","","24.1","","99.88","","","","-8","","Clear"
"2012-03-25 21:00","2012","03","25","21:00"," ","-4.4","","-7.0","","82","","6","","13","","24.1","","99.91","","","","-9","","Clear"
"2012-03-25 22:00","2012","03","25","22:00"," ","-5.5","","-7.4","","86","","6","","11","","24.1","","99.91","","","","-10","","Clear"
"2012-03-25 23:00","2012","03","25","23:00"," ","-5.5","","-7.6","","85","","9","","9","","24.1","","99.87","","","","-10","","Clear"
"2012-03-26 00:00","2012","03","26","00:00"," ","-2.6","","-7.7","","68","","13","","19","","24.1","","99.85","","","","-8","","Clear"
"2012-03-26 01:00","2012","03","26","01:00"," ","-2.4","","-8.0","","65","","12","","20","","24.1","","99.77","","","","-8","","Clear"
"2012-03-26 02:00","2012","03","26","02:00"," ","-2.4","","-8.2","","64","","13","","26","","24.1","","99.72","","","","-9","","Clear"
"2012-03-26 03:00","2012","03","26","03:00"," ","-2.8","","-8.3","","66","","13","","20","","24.1","","99.64","","","","-9","","Mainly Clear"
"2012-03-26 04:00","2012","03","26","04:00"," ","-3.2","","-8.2","","68","","13","","22","","24.1","","99.57","","","","-10","","Mainly Clear"
"2012-03-26 05:00","2012","03","26","05:00"," ","-3.2","","-8.1","","69","","13","","19","","24.1","","99.53","","","","-9","","Clear"
"2012-03-26 06:00","2012","03","26","06:00"," ","-3.2","","-8.0","","69","","13","","19","","24.1","","99.44","","","","-9","","Mainly Clear"
"2012-03-26 07:00","2012","03","26","07:00"," ","-2.8","","-7.5","","70","","13","","22","","24.1","","99.40","","","","-9","","Mostly Cloudy"
"2012-03-26 08:00","2012","03","26","08:00"," ","-1.0","","-7.0","","64","","14","","22","","24.1","","99.31","","","","-7","","Mostly Cloudy"
"2012-03-26 09:00","2012","03","26","09:00"," ","2.0","","-6.4","","54","","15","","28","","24.1","","99.20","","","","","","Mostly Cloudy"
"2012-03-26 10:00","2012","03","26","10:00"," ","5.2","","-5.8","","45","","14","","30","","24.1","","99.07","","","","","","Mostly Cloudy"
"2012-03-26 11:00","2012","03","26","11:00"," ","6.8","","-6.1","","39","","15","","26","","24.1","","99.00","","","","","","Mostly Cloudy"
"2012-03-26 12:00","2012","03","26","12:00"," ","7.6","","-5.5","","39","","14","","32","","24.1","","98.85","","","","","","Cloudy"
"2012-03-26 13:00","2012","03","26","13:00"," ","7.5","","-6.5","","36","","14","","39","","24.1","","98.66","","","","","","Cloudy"
"2012-03-26 14:00","2012","03","26","14:00"," ","8.1","","-6.6","","35","","14","","41","","24.1","","98.51","","","","","","Cloudy"
"2012-03-26 15:00","2012","03","26","15:00"," ","8.7","","-7.2","","32","","15","","41","","24.1","","98.39","","","","","","Cloudy"
"2012-03-26 16:00","2012","03","26","16:00"," ","9.0","","-7.2","","31","","15","","46","","24.1","","98.26","","","","","","Mostly Cloudy"
"2012-03-26 17:00","2012","03","26","17:00"," ","8.6","","-6.9","","33","","15","","39","","24.1","","98.14","","","","","","Mostly Cloudy"
"2012-03-26 18:00","2012","03","26","18:00"," ","8.0","","-6.2","","36","","14","","35","","24.1","","98.02","","","","","","Mostly Cloudy"
"2012-03-26 19:00","2012","03","26","19:00"," ","7.1","","-6.9","","36","","15","","37","","24.1","","97.96","","","","","","Cloudy"
"2012-03-26 20:00","2012","03","26","20:00"," ","6.7","","-6.3","","39","","14","","39","","24.1","","97.92","","","","","","Cloudy"
"2012-03-26 21:00","2012","03","26","21:00"," ","6.5","","-5.8","","41","","13","","33","","24.1","","97.78","","","","","","Cloudy"
"2012-03-26 22:00","2012","03","26","22:00"," ","5.9","","-5.1","","45","","14","","26","","24.1","","97.73","","","","","","Cloudy"
"2012-03-26 23:00","2012","03","26","23:00"," ","5.7","","-4.5","","48","","14","","35","","24.1","","97.59","","","","","","Cloudy"
"2012-03-27 00:00","2012","03","27","00:00"," ","5.8","","-3.5","","51","","14","","22","","24.1","","97.45","","","","","","Cloudy"
"2012-03-27 01:00","2012","03","27","01:00"," ","5.8","","-3.1","","53","","14","","17","","24.1","","97.39","","","","","","Cloudy"
"2012-03-27 02:00","2012","03","27","02:00"," ","3.6","","1.4","","86","","11","","11","","16.1","","97.37","","","","","","Thunderstorms,Rain Showers"
"2012-03-27 03:00","2012","03","27","03:00"," ","2.8","","2.0","","94","","6","","20","","19.3","","97.18","","","","","","Rain Showers"
"2012-03-27 04:00","2012","03","27","04:00"," ","2.5","","1.3","","92","","9","","22","","24.1","","97.03","","","","","","Cloudy"
"2012-03-27 05:00","2012","03","27","05:00"," ","2.3","","1.2","","92","","9","","20","","24.1","","96.96","","","","","","Cloudy"
"2012-03-27 06:00","2012","03","27","06:00"," ","2.4","","1.0","","90","","10","","24","","24.1","","96.84","","","","","","Cloudy"
"2012-03-27 07:00","2012","03","27","07:00"," ","2.5","","1.4","","92","","8","","20","","24.1","","96.77","","","","","","Cloudy"
"2012-03-27 08:00","2012","03","27","08:00"," ","2.4","","2.4","","100","","7","","9","","9.7","","96.76","","","","","","Rain,Fog"
"2012-03-27 09:00","2012","03","27","09:00"," ","2.5","","2.5","","100","","5","","11","","4.0","","96.71","","","","","","Rain,Fog"
"2012-03-27 10:00","2012","03","27","10:00"," ","2.5","","2.5","","100","","1","","17","","4.8","","96.72","","","","","","Drizzle,Fog"
"2012-03-27 11:00","2012","03","27","11:00"," ","2.1","","2.1","","100","","35","","24","","3.2","","96.84","","","","","","Rain,Fog"
"2012-03-27 12:00","2012","03","27","12:00"," ","2.6","","2.6","","100","","35","","22","","3.2","","96.88","","","","","","Rain,Fog"
"2012-03-27 13:00","2012","03","27","13:00"," ","2.4","","2.3","","99","","35","","26","","12.9","","96.99","","","","","","Rain,Ice Pellet Showers"
"2012-03-27 14:00","2012","03","27","14:00"," ","2.8","","2.5","","98","","35","","20","","24.1","","97.03","","","","","","Rain"
"2012-03-27 15:00","2012","03","27","15:00"," ","2.4","","2.2","","99","","32","","33","","19.3","","97.21","","","","","","Rain"
"2012-03-27 16:00","2012","03","27","16:00"," ","0.9","","0.9","","100","","32","","28","","8.0","","97.39","","","","","","Snow,Snow Pellets,Fog"
"2012-03-27 17:00","2012","03","27","17:00"," ","0.5","","0.5","","100","","31","","20","","3.2","","97.56","","","","","","Snow"
"2012-03-27 18:00","2012","03","27","18:00"," ","1.1","","1.1","","100","","32","","26","","12.9","","97.70","","","","","","Snow"
"2012-03-27 19:00","2012","03","27","19:00"," ","0.6","","0.6","","100","","31","","22","","4.8","","97.82","","","","","","Rain,Snow"
"2012-03-27 20:00","2012","03","27","20:00"," ","1.3","","1.3","","100","","31","","24","","24.1","","97.94","","","","","","Snow"
"2012-03-27 21:00","2012","03","27","21:00"," ","1.4","","1.4","","100","","31","","22","","24.1","","98.06","","","","","","Snow"
"2012-03-27 22:00","2012","03","27","22:00"," ","1.6","","1.5","","99","","32","","26","","24.1","","98.16","","","","","","Cloudy"
"2012-03-27 23:00","2012","03","27","23:00"," ","1.5","","1.2","","98","","32","","20","","24.1","","98.24","","","","","","Cloudy"
"2012-03-28 00:00","2012","03","28","00:00"," ","1.4","","1.1","","98","","31","","17","","24.1","","98.30","","","","","","Cloudy"
"2012-03-28 01:00","2012","03","28","01:00"," ","1.3","","0.8","","96","","32","","20","","24.1","","98.36","","","","","","Cloudy"
"2012-03-28 02:00","2012","03","28","02:00"," ","1.2","","0.6","","96","","33","","17","","24.1","","98.45","","","","","","Cloudy"
"2012-03-28 03:00","2012","03","28","03:00"," ","1.1","","0.6","","96","","32","","13","","24.1","","98.51","","","","","","Cloudy"
"2012-03-28 04:00","2012","03","28","04:00"," ","0.9","","0.4","","96","","32","","13","","24.1","","98.58","","","","","","Mostly Cloudy"
"2012-03-28 05:00","2012","03","28","05:00"," ","0.2","","0.0","","99","","31","","11","","24.1","","98.67","","","","","","Mostly Cloudy"
"2012-03-28 06:00","2012","03","28","06:00"," ","0.4","","0.4","","100","","31","","9","","24.1","","98.73","","","","","","Mostly Cloudy"
"2012-03-28 07:00","2012","03","28","07:00"," ","0.6","","0.4","","99","","32","","11","","24.1","","98.78","","","","","","Mostly Cloudy"
"2012-03-28 08:00","2012","03","28","08:00"," ","1.5","","0.8","","95","","33","","11","","24.1","","98.84","","","","","","Mainly Clear"
"2012-03-28 09:00","2012","03","28","09:00"," ","3.3","","1.6","","89","","36","","9","","24.1","","98.90","","","","","","Mainly Clear"
"2012-03-28 10:00","2012","03","28","10:00"," ","3.7","","0.3","","78","","34","","17","","24.1","","98.95","","","","","","Mostly Cloudy"
"2012-03-28 11:00","2012","03","28","11:00"," ","4.1","","0.7","","78","","3","","19","","24.1","","99.02","","","","","","Mostly Cloudy"
"2012-03-28 12:00","2012","03","28","12:00"," ","4.1","","0.1","","75","","2","","13","","24.1","","99.06","","","","","","Mostly Cloudy"
"2012-03-28 13:00","2012","03","28","13:00"," ","4.2","","-0.6","","71","","1","","15","","24.1","","99.05","","","","","","Mostly Cloudy"
"2012-03-28 14:00","2012","03","28","14:00"," ","5.3","","-0.1","","68","","2","","20","","24.1","","99.05","","","","","","Mainly Clear"
"2012-03-28 15:00","2012","03","28","15:00"," ","5.2","","-0.4","","67","","2","","11","","24.1","","99.06","","","","","","Mainly Clear"
"2012-03-28 16:00","2012","03","28","16:00"," ","4.8","","-2.8","","58","","8","","15","","24.1","","99.03","","","","","","Mainly Clear"
"2012-03-28 17:00","2012","03","28","17:00"," ","4.4","","-0.6","","70","","7","","22","","24.1","","99.03","","","","","","Mostly Cloudy"
"2012-03-28 18:00","2012","03","28","18:00"," ","2.5","","-2.8","","68","","4","","20","","24.1","","99.07","","","","","","Mostly Cloudy"
"2012-03-28 19:00","2012","03","28","19:00"," ","1.1","","-2.9","","75","","4","","15","","24.1","","99.06","","","","","","Mostly Cloudy"
"2012-03-28 20:00","2012","03","28","20:00"," ","0.2","","-1.9","","86","","5","","19","","24.1","","99.05","","","","","","Mainly Clear"
"2012-03-28 21:00","2012","03","28","21:00"," ","-0.6","","-2.2","","89","","6","","9","","24.1","","99.14","","","","-4","","Mainly Clear"
"2012-03-28 22:00","2012","03","28","22:00"," ","-0.1","","-1.8","","88","","7","","19","","24.1","","99.06","","","","-5","","Mostly Cloudy"
"2012-03-28 23:00","2012","03","28","23:00"," ","-2.1","","-3.0","","94","","5","","13","","24.1","","99.11","","","","-7","","Mainly Clear"
"2012-03-29 00:00","2012","03","29","00:00"," ","-0.4","","-1.8","","90","","9","","13","","24.1","","99.07","","","","-5","","Mainly Clear"
"2012-03-29 01:00","2012","03","29","01:00"," ","-0.2","","-1.5","","91","","10","","19","","24.1","","99.00","","","","-5","","Mostly Cloudy"
"2012-03-29 02:00","2012","03","29","02:00"," ","","","","","","","","","","","","","","","","","","",""
"2012-03-29 03:00","2012","03","29","03:00"," ","0.2","","-1.5","","88","","11","","22","","24.1","","98.91","","","","","","Mostly Cloudy"
"2012-03-29 04:00","2012","03","29","04:00"," ","0.3","","-1.5","","88","","12","","22","","24.1","","98.88","","","","","","Mostly Cloudy"
"2012-03-29 05:00","2012","03","29","05:00"," ","0.2","","-2.1","","84","","13","","19","","24.1","","98.89","","","","","","Mainly Clear"
"2012-03-29 06:00","2012","03","29","06:00"," ","0.2","","-2.3","","83","","12","","24","","24.1","","98.80","","","","","","Mainly Clear"
"2012-03-29 07:00","2012","03","29","07:00"," ","0.5","","-1.9","","84","","12","","24","","24.1","","98.82","","","","","","Mostly Cloudy"
"2012-03-29 08:00","2012","03","29","08:00"," ","1.7","","-1.4","","80","","13","","24","","24.1","","98.82","","","","","","Mostly Cloudy"
"2012-03-29 09:00","2012","03","29","09:00"," ","2.9","","-1.3","","74","","12","","28","","24.1","","98.76","","","","","","Mostly Cloudy"
"2012-03-29 10:00","2012","03","29","10:00"," ","3.5","","-1.1","","72","","12","","32","","24.1","","98.67","","","","","","Mostly Cloudy"
"2012-03-29 11:00","2012","03","29","11:00"," ","4.1","","-0.7","","71","","12","","32","","24.1","","98.63","","","","","","Mostly Cloudy"
"2012-03-29 12:00","2012","03","29","12:00"," ","4.4","","-0.7","","69","","12","","30","","24.1","","98.58","","","","","","Cloudy"
"2012-03-29 13:00","2012","03","29","13:00"," ","3.3","","0.9","","84","","12","","26","","24.1","","98.56","","","","","","Rain Showers"
"2012-03-29 14:00","2012","03","29","14:00"," ","2.3","","1.9","","97","","11","","22","","16.1","","98.47","","","","","","Rain Showers"
"2012-03-29 15:00","2012","03","29","15:00"," ","2.3","","2.2","","99","","12","","24","","12.9","","98.45","","","","","","Rain Showers"
"2012-03-29 16:00","2012","03","29","16:00"," ","1.5","","1.5","","100","","10","","22","","9.7","","98.36","","","","","","Moderate Rain Showers,Snow Showers"
"2012-03-29 17:00","2012","03","29","17:00"," ","1.2","","1.2","","100","","10","","19","","9.7","","98.35","","","","","","Rain Showers,Snow Showers"
"2012-03-29 18:00","2012","03","29","18:00"," ","1.6","","1.6","","100","","11","","19","","9.7","","98.33","","","","","","Rain Showers,Fog"
"2012-03-29 19:00","2012","03","29","19:00"," ","1.8","","1.8","","100","","12","","17","","24.1","","98.35","","","","","","Rain Showers"
"2012-03-29 20:00","2012","03","29","20:00"," ","1.8","","1.5","","98","","12","","20","","24.1","","98.29","","","","","","Cloudy"
"2012-03-29 21:00","2012","03","29","21:00"," ","1.6","","1.4","","99","","12","","22","","24.1","","98.27","","","","","","Cloudy"
"2012-03-29 22:00","2012","03","29","22:00"," ","1.5","","1.4","","99","","14","","19","","8.0","","98.24","","","","","","Fog"
"2012-03-29 23:00","2012","03","29","23:00"," ","1.4","","1.4","","100","","13","","15","","6.4","","98.17","","","","","","Drizzle,Fog"
"2012-03-30 00:00","2012","03","30","00:00"," ","1.5","","1.5","","100","","13","","13","","6.4","","98.15","","","","","","Drizzle,Fog"
"2012-03-30 01:00","2012","03","30","01:00"," ","1.5","","1.5","","100","","14","","13","","6.4","","98.13","","","","","","Drizzle,Fog"
"2012-03-30 02:00","2012","03","30","02:00"," ","1.4","","1.4","","100","","14","","13","","6.4","","98.11","","","","","","Drizzle,Fog"
"2012-03-30 03:00","2012","03","30","03:00"," ","1.4","","1.4","","100","","13","","11","","4.8","","98.08","","","","","","Drizzle,Fog"
"2012-03-30 04:00","2012","03","30","04:00"," ","1.3","","1.3","","100","","13","","11","","4.8","","98.06","","","","","","Drizzle,Fog"
"2012-03-30 05:00","2012","03","30","05:00"," ","1.3","","1.3","","100","","13","","11","","8.0","","98.07","","","","","","Drizzle,Fog"
"2012-03-30 06:00","2012","03","30","06:00"," ","1.4","","1.4","","100","","14","","11","","9.7","","98.10","","","","","","Drizzle,Fog"
"2012-03-30 07:00","2012","03","30","07:00"," ","1.6","","1.6","","100","","14","","13","","16.1","","98.13","","","","","","Drizzle"
"2012-03-30 08:00","2012","03","30","08:00"," ","2.0","","2.0","","100","","14","","15","","16.1","","98.10","","","","","","Drizzle"
"2012-03-30 09:00","2012","03","30","09:00"," ","2.5","","2.5","","100","","16","","15","","19.3","","98.10","","","","","","Drizzle"
"2012-03-30 10:00","2012","03","30","10:00"," ","3.4","","3.3","","99","","14","","13","","9.7","","98.11","","","","","","Drizzle,Fog"
"2012-03-30 11:00","2012","03","30","11:00"," ","4.4","","4.0","","97","","13","","19","","24.1","","98.04","","","","","","Cloudy"
"2012-03-30 12:00","2012","03","30","12:00"," ","5.7","","4.4","","91","","14","","19","","24.1","","97.99","","","","","","Cloudy"
"2012-03-30 13:00","2012","03","30","13:00"," ","6.7","","4.8","","88","","17","","24","","24.1","","97.96","","","","","","Cloudy"
"2012-03-30 14:00","2012","03","30","14:00"," ","6.9","","4.6","","85","","15","","22","","24.1","","97.87","","","","","","Cloudy"
"2012-03-30 15:00","2012","03","30","15:00"," ","7.9","","5.0","","82","","13","","24","","24.1","","97.85","","","","","","Cloudy"
"2012-03-30 16:00","2012","03","30","16:00"," ","7.6","","4.8","","82","","14","","26","","24.1","","97.82","","","","","","Cloudy"
"2012-03-30 17:00","2012","03","30","17:00"," ","6.8","","4.4","","85","","14","","28","","24.1","","97.74","","","","","","Cloudy"
"2012-03-30 18:00","2012","03","30","18:00"," ","6.0","","4.2","","88","","13","","30","","24.1","","97.74","","","","","","Cloudy"
"2012-03-30 19:00","2012","03","30","19:00"," ","5.4","","4.3","","93","","13","","30","","24.1","","97.72","","","","","","Rain Showers"
"2012-03-30 20:00","2012","03","30","20:00"," ","5.1","","3.9","","92","","14","","37","","24.1","","97.70","","","","","","Rain Showers"
"2012-03-30 21:00","2012","03","30","21:00"," ","4.8","","3.7","","93","","14","","33","","24.1","","97.67","","","","","","Cloudy"
"2012-03-30 22:00","2012","03","30","22:00"," ","4.8","","4.0","","95","","15","","39","","24.1","","97.55","","","","","","Cloudy"
"2012-03-30 23:00","2012","03","30","23:00"," ","5.7","","4.1","","89","","14","","39","","24.1","","97.44","","","","","","Cloudy"
"2012-03-31 00:00","2012","03","31","00:00"," ","5.4","","4.1","","91","","15","","43","","24.1","","97.40","","","","","","Mostly Cloudy"
"2012-03-31 01:00","2012","03","31","01:00"," ","5.7","","4.3","","91","","15","","37","","24.1","","97.34","","","","","","Mostly Cloudy"
"2012-03-31 02:00","2012","03","31","02:00"," ","6.5","","4.6","","88","","15","","44","","24.1","","97.19","","","","","","Mostly Cloudy"
"2012-03-31 03:00","2012","03","31","03:00"," ","6.9","","5.2","","89","","17","","44","","24.1","","97.12","","","","","","Mostly Cloudy"
"2012-03-31 04:00","2012","03","31","04:00"," ","7.5","","6.1","","91","","19","","32","","24.1","","97.14","","","","","","Drizzle"
"2012-03-31 05:00","2012","03","31","05:00"," ","8.3","","7.4","","94","","19","","35","","12.9","","97.06","","","","","","Cloudy"
"2012-03-31 06:00","2012","03","31","06:00"," ","8.0","","7.5","","97","","17","","41","","9.7","","96.98","","","","","","Rain Showers,Fog"
"2012-03-31 07:00","2012","03","31","07:00"," ","8.1","","7.8","","98","","20","","28","","8.0","","97.14","","","","","","Fog"
"2012-03-31 08:00","2012","03","31","08:00"," ","9.4","","7.6","","89","","21","","20","","19.3","","97.14","","","","","","Mostly Cloudy"
"2012-03-31 09:00","2012","03","31","09:00"," ","10.7","","6.7","","76","","23","","13","","24.1","","97.21","","","","","","Mostly Cloudy"
"2012-03-31 10:00","2012","03","31","10:00"," ","13.4","","7.5","","67","","28","","19","","24.1","","97.24","","","","","","Mostly Cloudy"
"2012-03-31 11:00","2012","03","31","11:00"," ","14.5","","6.2","","57","","28","","32","","24.1","","97.28","","","","","","Mostly Cloudy"
"2012-03-31 12:00","2012","03","31","12:00"," ","16.3","","2.6","","40","","30","","28","","24.1","","97.35","","","","","","Mainly Clear"
"2012-03-31 13:00","2012","03","31","13:00"," ","16.8","","-1.1","","29","","30","","28","","24.1","","97.37","","","","","","Mostly Cloudy"
"2012-03-31 14:00","2012","03","31","14:00"," ","18.4","","0.0","","29","","29","","22","","24.1","","97.37","","","","","","Mainly Clear"
"2012-03-31 15:00","2012","03","31","15:00"," ","18.3","","-0.7","","28","","27","","22","","24.1","","97.38","","","","","","Mainly Clear"
"2012-03-31 16:00","2012","03","31","16:00"," ","18.1","","-1.7","","26","","29","","28","","24.1","","97.41","","","","","","Clear"
"2012-03-31 17:00","2012","03","31","17:00"," ","17.3","","0.0","","31","","31","","26","","24.1","","97.46","","","","","","Clear"
"2012-03-31 18:00","2012","03","31","18:00"," ","16.0","","1.2","","37","","31","","17","","24.1","","97.48","","","","","","Mainly Clear"
"2012-03-31 19:00","2012","03","31","19:00"," ","10.2","","2.0","","57","","32","","15","","24.1","","97.49","","","","","","Mainly Clear"
"2012-03-31 20:00","2012","03","31","20:00"," ","8.1","","1.5","","63","","30","","4","","24.1","","97.55","","","","","","Clear"
"2012-03-31 21:00","2012","03","31","21:00"," ","7.6","","-0.4","","57","","34","","6","","24.1","","97.59","","","","","","Clear"
"2012-03-31 22:00","2012","03","31","22:00"," ","4.9","","-1.1","","65","","30","","4","","24.1","","97.65","","","","","","Clear"
"2012-03-31 23:00","2012","03","31","23:00"," ","3.2","","-0.5","","77","","","","0","","24.1","","97.68","","","","","","Clear"
